{
  "type" : "FeatureCollection",
  "features" : [{"type":"Feature","id":0,"geometry":{"type":"Polygon","coordinates":[[[77.708530732053276,20.822499316572554],[77.708969145118218,20.823269656056372],[77.708118858127676,20.823100132332168],[77.708530732053276,20.822499316572554]]]},"properties":{"FID":0,"Join_Count":2,"TARGET_FID":1,"Layer":"TEXT_PARCEL","Text":"33","vill_code":"533015","LGD_CODE":"533015"}},{"type":"Feature","id":1,"geometry":{"type":"Polygon","coordinates":[[[77.711783085808236,20.822640418968028],[77.711681723922737,20.82398447260308],[77.709316156041993,20.82342706179163],[77.708714439089476,20.822261083518157],[77.70890499963302,20.821374438396379],[77.709137543696755,20.820604455803849],[77.709884273845404,20.818841248091388],[77.711867262019027,20.819162330481056],[77.711866111171034,20.819907978162735],[77.711837741977661,20.822351102886834],[77.711783085808236,20.822640418968028]]]},"properties":{"FID":1,"Join_Count":2,"TARGET_FID":2,"Layer":"TEXT_PARCEL","Text":"32","vill_code":"533015","LGD_CODE":"533015"}},{"type":"Feature","id":2,"geometry":{"type":"Polygon","coordinates":[[[77.709494011216961,20.827196088094116],[77.707414229030931,20.827334691381619],[77.70734734599732,20.82677221728774],[77.707001032714757,20.826821590918204],[77.706997494500811,20.826598791768728],[77.706977112166086,20.825625223223867],[77.707036828311644,20.825192030396106],[77.707487971028499,20.8240221267504],[77.707669970158207,20.823783193842893],[77.708118858127676,20.823100132332168],[77.708969145118218,20.823269656056372],[77.710832990841112,20.827077251343564],[77.709494011216961,20.827196088094116]]]},"properties":{"FID":2,"Join_Count":2,"TARGET_FID":3,"Layer":"TEXT_PARCEL","Text":"34","vill_code":"533015","LGD_CODE":"533015"}},{"type":"Feature","id":3,"geometry":{"type":"Polygon","coordinates":[[[77.702824435856627,20.828181072389345],[77.702904805826876,20.828612668908381],[77.702306137819917,20.827071163487286],[77.702458690181885,20.827050056252304],[77.702711528448859,20.827640102532676],[77.70281344261771,20.828059907734566],[77.702824435856627,20.828181072389345]]]},"properties":{"FID":3,"Join_Count":0,"TARGET_FID":6,"Layer":"533015","Text":"A","vill_code":"533015","LGD_CODE":"533015"}},{"type":"Feature","id":4,"geometry":{"type":"Polygon","coordinates":[[[77.711620263690918,20.826510303637928],[77.711728502463131,20.828487725798283],[77.711109947390497,20.826989076658037],[77.710698586830631,20.82612369649673],[77.709316156041993,20.82342706179163],[77.711681723922737,20.82398447260308],[77.711654122761601,20.824801498807201],[77.711667050413084,20.826373422752773],[77.711620263690918,20.826510303637928]]]},"properties":{"FID":4,"Join_Count":2,"TARGET_FID":7,"Layer":"TEXT_PARCEL","Text":"31","vill_code":"533015","LGD_CODE":"533015"}},{"type":"Feature","id":5,"geometry":{"type":"Polygon","coordinates":[[[77.707366538892927,20.828564991034799],[77.706067246768725,20.82842305933605],[77.705594220344324,20.828264964439366],[77.705478220621217,20.828238594447324],[77.704804265837538,20.828085386513354],[77.703611037668452,20.828075759754032],[77.702861831798145,20.828142188823733],[77.70281344261781,20.828059907734598],[77.702711528448958,20.827640102532655],[77.702458690181857,20.827050056252347],[77.702612273894886,20.827031480389394],[77.704293937401303,20.826839319443202],[77.706842062286057,20.82660214657022],[77.706997494500911,20.826598791768788],[77.707001032714743,20.826821590918254],[77.706703804833126,20.826860741912697],[77.706774447470309,20.827413411967484],[77.707125050950424,20.827370272570541],[77.707162322003683,20.827709458794004],[77.707366538892927,20.828564991034799]]]},"properties":{"FID":5,"Join_Count":2,"TARGET_FID":8,"Layer":"TEXT_PARCEL","Text":"39","vill_code":"533015","LGD_CODE":"533015"}},{"type":"Feature","id":6,"geometry":{"type":"Polygon","coordinates":[[[77.711728502463131,20.828487725798283],[77.711785905814239,20.82926815236921],[77.710832990841112,20.827077251343564],[77.708969145118218,20.823269656056372],[77.708530732053276,20.822499316572554],[77.708714439089476,20.822261083518157],[77.709316156041993,20.82342706179163],[77.710698586830631,20.82612369649673],[77.711109947390497,20.826989076658037],[77.711728502463131,20.828487725798283]]]},"properties":{"FID":6,"Join_Count":1,"TARGET_FID":9,"Layer":"POLY_PARCEL","Text":"छन\u094Dस\u094Dस\u094D","vill_code":"533015","LGD_CODE":"533015"}},{"type":"Feature","id":7,"geometry":{"type":"Polygon","coordinates":[[[77.702904805826904,20.828612668908299],[77.702969744221832,20.828779874987553],[77.703286385709589,20.829397814142517],[77.703060341036519,20.829445436383761],[77.702952455187244,20.82946816509406],[77.702147422993278,20.829589565678933],[77.701271264164234,20.82968698046556],[77.700563911362678,20.828543274498994],[77.699976206657141,20.827287051168639],[77.701445259623029,20.827177364998647],[77.702306137820017,20.827071163487229],[77.702904805826904,20.828612668908299]]]},"properties":{"FID":7,"Join_Count":2,"TARGET_FID":11,"Layer":"TEXT_PARCEL","Text":"40","vill_code":"533015","LGD_CODE":"533015"}},{"type":"Feature","id":8,"geometry":{"type":"Polygon","coordinates":[[[77.705353983069571,20.829601835451999],[77.703551321213894,20.829669226096776],[77.70286183179816,20.828142188823648],[77.703611037668452,20.828075759753911],[77.704804265837538,20.828085386513276],[77.705478220621188,20.828238594447207],[77.705546162397908,20.829594650110128],[77.705353983069571,20.829601835451999]]]},"properties":{"FID":8,"Join_Count":2,"TARGET_FID":12,"Layer":"TEXT_PARCEL","Text":"38","vill_code":"533015","LGD_CODE":"533015"}},{"type":"Feature","id":9,"geometry":{"type":"Polygon","coordinates":[[[77.699177080108882,20.830034926086778],[77.698057018328001,20.830119757181745],[77.698365890077099,20.829296173500651],[77.698727893950235,20.828655064546034],[77.699598850784184,20.82735415433919],[77.699976206657126,20.827287051168607],[77.700563911362622,20.828543274498955],[77.701271264164149,20.829686980465425],[77.699799164420966,20.829903369281372],[77.699578247632957,20.829950089183871],[77.699177080108882,20.830034926086778]]]},"properties":{"FID":9,"Join_Count":2,"TARGET_FID":13,"Layer":"TEXT_PARCEL","Text":"41","vill_code":"533015","LGD_CODE":"533015"}},{"type":"Feature","id":10,"geometry":{"type":"Polygon","coordinates":[[[77.71186098357758,20.830103888375984],[77.709029668623131,20.830372188259641],[77.709494011216961,20.827196088094116],[77.710832990841112,20.827077251343564],[77.711785905814239,20.82926815236921],[77.71186098357758,20.830103888375984]]]},"properties":{"FID":10,"Join_Count":2,"TARGET_FID":14,"Layer":"TEXT_PARCEL","Text":"30","vill_code":"533015","LGD_CODE":"533015"}},{"type":"Feature","id":11,"geometry":{"type":"Polygon","coordinates":[[[77.707794626226701,20.830412826173873],[77.707366538892927,20.828564991034799],[77.707162322003683,20.827709458794004],[77.707125050950424,20.827370272570541],[77.706774447470309,20.827413411967484],[77.706703804833126,20.826860741912697],[77.707001032714743,20.826821590918254],[77.707347345997277,20.826772217287726],[77.707414229030974,20.827334691381679],[77.709494011217089,20.827196088094066],[77.709029668623202,20.83037218825973],[77.708162804587573,20.830227435291707],[77.707794626226701,20.830412826173873]]]},"properties":{"FID":11,"Join_Count":2,"TARGET_FID":15,"Layer":"TEXT_PARCEL","Text":"35","vill_code":"533015","LGD_CODE":"533015"}},{"type":"Feature","id":12,"geometry":{"type":"Polygon","coordinates":[[[77.707838370687838,20.830797034534989],[77.705768492634647,20.831007917624227],[77.705470485845566,20.830446086826516],[77.705353983069571,20.829601835451999],[77.705546162397908,20.829594650110128],[77.705478220621188,20.828238594447207],[77.705594220344338,20.828264964439306],[77.706067246768598,20.828423059336018],[77.707366538892856,20.828564991034714],[77.707794626226558,20.830412826173891],[77.707851762244275,20.830646467385019],[77.707838370687838,20.830797034534989]]]},"properties":{"FID":12,"Join_Count":2,"TARGET_FID":16,"Layer":"TEXT_PARCEL","Text":"36","vill_code":"533015","LGD_CODE":"533015"}},{"type":"Feature","id":13,"geometry":{"type":"Polygon","coordinates":[[[77.704106680108509,20.831333782975054],[77.703426089530481,20.831407944978768],[77.703341757476537,20.830880334651805],[77.703296595601444,20.83067094539782],[77.703193284006062,20.830162036792267],[77.703085601847292,20.829579984092543],[77.703060341036533,20.829445436383736],[77.703286385709532,20.829397814142435],[77.703376573951758,20.829573820316842],[77.704106680108509,20.831333782975054]]]},"properties":{"FID":13,"Join_Count":2,"TARGET_FID":17,"Layer":"TEXT_PARCEL","Text":"65","vill_code":"533015","LGD_CODE":"533015"}},{"type":"Feature","id":14,"geometry":{"type":"Polygon","coordinates":[[[77.703426089530481,20.831407944978775],[77.703254988749762,20.831434504119542],[77.702952455187258,20.829468165093932],[77.703060341036533,20.829445436383743],[77.703085601847292,20.829579984092543],[77.703193284006062,20.83016203679227],[77.703296595601444,20.830670945397827],[77.703341757476537,20.830880334651809],[77.703426089530481,20.831407944978775]]]},"properties":{"FID":14,"Join_Count":0,"TARGET_FID":18,"Layer":" ","Text":" ","vill_code":"533015","LGD_CODE":"533015"}},{"type":"Feature","id":15,"geometry":{"type":"Polygon","coordinates":[[[77.699678037048017,20.831692808827025],[77.697502720337397,20.831851078210903],[77.697513308033834,20.831657054942411],[77.697602982131599,20.831081985291281],[77.697693739483597,20.8308367482752],[77.698057018328001,20.830119757181745],[77.699177080108882,20.830034926086778],[77.699578247632957,20.829950089183871],[77.699636278173131,20.831249202405683],[77.699678037048017,20.831692808827025]]]},"properties":{"FID":15,"Join_Count":2,"TARGET_FID":19,"Layer":"TEXT_PARCEL","Text":"42","vill_code":"533015","LGD_CODE":"533015"}},{"type":"Feature","id":16,"geometry":{"type":"Polygon","coordinates":[[[77.711953842411134,20.831124666623868],[77.709007660622419,20.831689163321919],[77.709029668623131,20.830372188259641],[77.71186098357758,20.830103888375984],[77.711953842411134,20.831124666623868]]]},"properties":{"FID":16,"Join_Count":2,"TARGET_FID":20,"Layer":"TEXT_PARCEL","Text":"29","vill_code":"533015","LGD_CODE":"533015"}},{"type":"Feature","id":17,"geometry":{"type":"Polygon","coordinates":[[[77.705136599225682,20.831716239611612],[77.704518308853295,20.831920364143659],[77.704401165603045,20.831602704153788],[77.703551321213894,20.829669226096776],[77.705353983069571,20.829601835451999],[77.705470485845566,20.830446086826516],[77.705768492634647,20.831007917624227],[77.707838370687838,20.830797034534989],[77.707790913814378,20.831542993876482],[77.70781718437182,20.831632965591833],[77.70591082172848,20.831663896765445],[77.705136599225682,20.831716239611612]]]},"properties":{"FID":17,"Join_Count":2,"TARGET_FID":21,"Layer":"TEXT_PARCEL","Text":"37","vill_code":"533015","LGD_CODE":"533015"}},{"type":"Feature","id":18,"geometry":{"type":"Polygon","coordinates":[[[77.704379008262606,20.832005903244525],[77.704414196255186,20.832092749020262],[77.704789435166447,20.833151923641655],[77.704045087570762,20.833349918162696],[77.703804412292129,20.833431332792429],[77.703697241609859,20.832853315868476],[77.703563014606118,20.83213959057877],[77.704379008262606,20.832005903244525]]]},"properties":{"FID":18,"Join_Count":2,"TARGET_FID":22,"Layer":"TEXT_PARCEL","Text":"45","vill_code":"533015","LGD_CODE":"533015"}},{"type":"Feature","id":19,"geometry":{"type":"Polygon","coordinates":[[[77.703563014606047,20.832139590578635],[77.703369334807292,20.832146681221413],[77.703254988749762,20.831434504119542],[77.703426089530481,20.831407944978775],[77.703563014606047,20.832139590578635]]]},"properties":{"FID":19,"Join_Count":0,"TARGET_FID":23,"Layer":" ","Text":" ","vill_code":"533015","LGD_CODE":"533015"}},{"type":"Feature","id":20,"geometry":{"type":"Polygon","coordinates":[[[77.700020908155494,20.832174810274864],[77.699830469688976,20.832266739664718],[77.699712646755088,20.832267511153582],[77.699678037048017,20.831692808827025],[77.699636278173131,20.831249202405683],[77.699578247632957,20.829950089183871],[77.699799164420966,20.829903369281372],[77.701271264164149,20.829686980465425],[77.702147422993278,20.829589565678841],[77.70184378437051,20.830789393650889],[77.701825316360598,20.83130169915178],[77.701847429305005,20.831764975533396],[77.700020908155494,20.832174810274864]]]},"properties":{"FID":20,"Join_Count":2,"TARGET_FID":24,"Layer":"TEXT_PARCEL","Text":"43","vill_code":"533015","LGD_CODE":"533015"}},{"type":"Feature","id":21,"geometry":{"type":"Polygon","coordinates":[[[77.703466640291111,20.832816220319099],[77.701968841896019,20.833062709288939],[77.701847429305005,20.831764975533396],[77.701825316360598,20.83130169915178],[77.70184378437051,20.830789393650889],[77.702147422993278,20.829589565678841],[77.702952455187258,20.829468165093932],[77.703254988749762,20.831434504119542],[77.703369334807292,20.832146681221413],[77.703466640291111,20.832816220319099]]]},"properties":{"FID":21,"Join_Count":2,"TARGET_FID":25,"Layer":"TEXT_PARCEL","Text":"44","vill_code":"533015","LGD_CODE":"533015"}},{"type":"Feature","id":22,"geometry":{"type":"Polygon","coordinates":[[[77.706250009713401,20.832826429922768],[77.704935622917603,20.833097437431167],[77.704518308853295,20.831920364143659],[77.705136599225682,20.831716239611612],[77.70591082172848,20.831663896765445],[77.70781718437182,20.831632965591833],[77.707941756656155,20.832003051233347],[77.70796771681735,20.832445627442016],[77.706449064584476,20.832706337426746],[77.706250009713401,20.832826429922768]]]},"properties":{"FID":22,"Join_Count":2,"TARGET_FID":26,"Layer":"TEXT_PARCEL","Text":"25","vill_code":"533015","LGD_CODE":"533015"}},{"type":"Feature","id":23,"geometry":{"type":"Polygon","coordinates":[[[77.710548441365532,20.832735563414747],[77.708876456620985,20.833114060317619],[77.709007660622419,20.831689163321919],[77.711953842411134,20.831124666623868],[77.711964579062283,20.831343197002262],[77.712035360325217,20.832362825918828],[77.71107301624798,20.832548690710386],[77.710548441365532,20.832735563414747]]]},"properties":{"FID":23,"Join_Count":2,"TARGET_FID":27,"Layer":"TEXT_PARCEL","Text":"28","vill_code":"533015","LGD_CODE":"533015"}},{"type":"Feature","id":24,"geometry":{"type":"Polygon","coordinates":[[[77.703804412292158,20.833431332792365],[77.703613403558165,20.833495946783675],[77.703466640291111,20.832816220319099],[77.703369334807292,20.832146681221413],[77.703563014606047,20.832139590578635],[77.703697241609746,20.832853315868455],[77.703804412292158,20.833431332792365]]]},"properties":{"FID":24,"Join_Count":0,"TARGET_FID":29,"Layer":" ","Text":" ","vill_code":"533015","LGD_CODE":"533015"}},{"type":"Feature","id":25,"geometry":{"type":"Polygon","coordinates":[[[77.707876978472058,20.83329663667395],[77.705591972781932,20.833983108292664],[77.70529156624464,20.833725454965105],[77.705127338623683,20.833506875413182],[77.704935622917603,20.833097437431167],[77.706250009713401,20.832826429922768],[77.706449064584476,20.832706337426746],[77.70796771681735,20.832445627442016],[77.707979552092112,20.83255293227878],[77.707925311486903,20.832789000003729],[77.707876978472058,20.83329663667395]]]},"properties":{"FID":25,"Join_Count":2,"TARGET_FID":30,"Layer":"TEXT_PARCEL","Text":"24","vill_code":"533015","LGD_CODE":"533015"}},{"type":"Feature","id":26,"geometry":{"type":"Polygon","coordinates":[[[77.705591972781932,20.833983108292664],[77.70521822718537,20.834029608092084],[77.705197787910151,20.833829513749706],[77.704866472120898,20.833342641125146],[77.704789435166347,20.833151923641658],[77.704414196255158,20.832092749020195],[77.704106680108509,20.831333782975054],[77.703376573951758,20.829573820316838],[77.703286385709532,20.829397814142439],[77.702969744221818,20.8287798749875],[77.702904805826876,20.828612668908391],[77.702824435856627,20.828181072389345],[77.70281344261771,20.828059907734566],[77.70286183179816,20.828142188823648],[77.703551321213894,20.829669226096776],[77.704401165603045,20.831602704153788],[77.704518308853295,20.831920364143659],[77.704935622917603,20.833097437431167],[77.705127338623683,20.833506875413182],[77.70529156624464,20.833725454965105],[77.705591972781932,20.833983108292664]]]},"properties":{"FID":26,"Join_Count":1,"TARGET_FID":31,"Layer":"POLY_PARCEL","Text":"छन\u094Dस\u094Dस\u094D","vill_code":"533015","LGD_CODE":"533015"}},{"type":"Feature","id":27,"geometry":{"type":"Polygon","coordinates":[[[77.709860760763178,20.833909366114153],[77.708714855844548,20.833995432992364],[77.708622698600323,20.833169286264152],[77.708876456620985,20.833114060317619],[77.710548441365532,20.832735563414747],[77.71107301624798,20.832548690710386],[77.712035360325217,20.832362825918828],[77.712186668630991,20.833756538842653],[77.710679581683465,20.833928342843414],[77.709860760763178,20.833909366114153]]]},"properties":{"FID":27,"Join_Count":2,"TARGET_FID":32,"Layer":"TEXT_PARCEL","Text":"27","vill_code":"533015","LGD_CODE":"533015"}},{"type":"Feature","id":28,"geometry":{"type":"Polygon","coordinates":[[[77.708130767108344,20.834050328579515],[77.707714805458224,20.834071059568696],[77.707724586360612,20.833917174776136],[77.707876978472058,20.83329663667395],[77.707925311486903,20.832789000003729],[77.707979552092112,20.83255293227878],[77.70796771681735,20.832445627442016],[77.707941756656155,20.832003051233347],[77.70781718437182,20.831632965591833],[77.707790913814378,20.831542993876482],[77.707838370687838,20.830797034534989],[77.707851762244275,20.830646467385019],[77.707794626226558,20.830412826173891],[77.708162804587573,20.830227435291572],[77.709029668623131,20.830372188259641],[77.709007660622419,20.831689163321919],[77.708876456620985,20.833114060317619],[77.708622698600323,20.833169286264152],[77.708714855844548,20.833995432992364],[77.708130767108344,20.834050328579515]]]},"properties":{"FID":28,"Join_Count":2,"TARGET_FID":33,"Layer":"TEXT_PARCEL","Text":"26","vill_code":"533015","LGD_CODE":"533015"}},{"type":"Feature","id":29,"geometry":{"type":"Polygon","coordinates":[[[77.702794278319473,20.834185651360066],[77.701353948231244,20.834254141361356],[77.701968841896019,20.833062709288939],[77.703466640291111,20.832816220319099],[77.703613403558165,20.833495946783675],[77.703308029229888,20.834031320290524],[77.702794278319473,20.834185651360066]]]},"properties":{"FID":29,"Join_Count":2,"TARGET_FID":34,"Layer":"TEXT_PARCEL","Text":"49","vill_code":"533015","LGD_CODE":"533015"}},{"type":"Feature","id":30,"geometry":{"type":"Polygon","coordinates":[[[77.707714805458224,20.834071059568696],[77.705854606748275,20.834232017279128],[77.705591972781932,20.833983108292664],[77.707876978472058,20.83329663667395],[77.707724586360612,20.833917174776136],[77.707714805458224,20.834071059568696]]]},"properties":{"FID":30,"Join_Count":2,"TARGET_FID":35,"Layer":"TEXT_PARCEL","Text":"23","vill_code":"533015","LGD_CODE":"533015"}},{"type":"Feature","id":31,"geometry":{"type":"Polygon","coordinates":[[[77.701353948231244,20.834254141361356],[77.699680438049,20.834415347333643],[77.699830469688976,20.832266739664718],[77.700020908155494,20.832174810274864],[77.701847429305005,20.831764975533396],[77.701968841896019,20.833062709288939],[77.701353948231244,20.834254141361356]]]},"properties":{"FID":31,"Join_Count":2,"TARGET_FID":36,"Layer":"TEXT_PARCEL","Text":"50","vill_code":"533015","LGD_CODE":"533015"}},{"type":"Feature","id":32,"geometry":{"type":"Polygon","coordinates":[[[77.704700291676147,20.834458021956625],[77.704512763321191,20.83458840345418],[77.70404508757079,20.833349918162718],[77.704789435166347,20.833151923641658],[77.704866472120898,20.833342641125146],[77.705197787910151,20.833829513749706],[77.70521822718537,20.834029608092084],[77.705169158096908,20.834230378059797],[77.705108877286989,20.834328175566711],[77.704700291676147,20.834458021956625]]]},"properties":{"FID":32,"Join_Count":2,"TARGET_FID":37,"Layer":"TEXT_PARCEL","Text":"46","vill_code":"533015","LGD_CODE":"533015"}},{"type":"Feature","id":33,"geometry":{"type":"Polygon","coordinates":[[[77.699259952348498,20.834443973023138],[77.696986475921591,20.834778267802694],[77.697016619497788,20.834437516488933],[77.697669378518128,20.834381990030597],[77.697571126752763,20.833102462677733],[77.697501046502623,20.832018921649688],[77.697502720337397,20.831851078210903],[77.699678037048017,20.831692808827025],[77.699712646755088,20.832267511153582],[77.699830469688976,20.832266739664718],[77.699680438049,20.834415347333643],[77.699259952348498,20.834443973023138]]]},"properties":{"FID":33,"Join_Count":2,"TARGET_FID":38,"Layer":"TEXT_PARCEL","Text":"51","vill_code":"533015","LGD_CODE":"533015"}},{"type":"Feature","id":34,"geometry":{"type":"Polygon","coordinates":[[[77.704459657431727,20.834714618544915],[77.704062990079848,20.834859312771307],[77.703996467157495,20.834496302442599],[77.703965546006103,20.834297480208647],[77.703838531355842,20.833615349725868],[77.703804412292158,20.833431332792365],[77.70404508757079,20.833349918162718],[77.704512763321191,20.83458840345418],[77.704459657431727,20.834714618544915]]]},"properties":{"FID":34,"Join_Count":1,"TARGET_FID":39,"Layer":"TEXT_PARCEL","Text":"47","vill_code":"533015","LGD_CODE":"533015"}},{"type":"Feature","id":35,"geometry":{"type":"Polygon","coordinates":[[[77.704062990079848,20.834859312771307],[77.703975171689166,20.834898966808499],[77.703257242513629,20.834230968668937],[77.70296027619716,20.8341692548045],[77.702794278319473,20.834185651360066],[77.703308029229888,20.834031320290524],[77.703613403558165,20.833495946783675],[77.703804412292158,20.833431332792365],[77.703838531355842,20.833615349725868],[77.703965546006103,20.834297480208647],[77.703996467157495,20.834496302442599],[77.704062990079848,20.834859312771307]]]},"properties":{"FID":35,"Join_Count":2,"TARGET_FID":40,"Layer":"TEXT_PARCEL","Text":"48","vill_code":"533015","LGD_CODE":"533015"}},{"type":"Feature","id":36,"geometry":{"type":"Polygon","coordinates":[[[77.707227564830248,20.834820787695648],[77.705878885830145,20.835000361786289],[77.705899385136817,20.83490857175326],[77.705842970451897,20.834491115964621],[77.705854606748275,20.834232017279128],[77.707714805458224,20.834071059568696],[77.707678090823578,20.83416970126018],[77.70732749772769,20.834519660564382],[77.707219941493818,20.834642126509692],[77.707227564830248,20.834820787695648]]]},"properties":{"FID":36,"Join_Count":2,"TARGET_FID":41,"Layer":"TEXT_PARCEL","Text":"22","vill_code":"533015","LGD_CODE":"533015"}},{"type":"Feature","id":37,"geometry":{"type":"Polygon","coordinates":[[[77.703975171689166,20.834898966808499],[77.703999676759253,20.835033441223182],[77.703183162002205,20.83433423431309],[77.702098416624438,20.834342352064247],[77.699720884443707,20.834545662142389],[77.698152952969309,20.834734208521368],[77.696977533190079,20.834879355855936],[77.696986475921591,20.834778267802694],[77.699259952348498,20.834443973023138],[77.699680438049,20.834415347333643],[77.701353948231244,20.834254141361356],[77.702794278319473,20.834185651360066],[77.70296027619716,20.8341692548045],[77.703257242513629,20.834230968668937],[77.703975171689166,20.834898966808499]]]},"properties":{"FID":37,"Join_Count":1,"TARGET_FID":42,"Layer":"POLY_PARCEL","Text":"छन\u094Dस\u094Dस\u094D","vill_code":"533015","LGD_CODE":"533015"}},{"type":"Feature","id":38,"geometry":{"type":"Polygon","coordinates":[[[77.708882513948325,20.835030944142471],[77.708238254385464,20.835082680053219],[77.708130767108344,20.834050328579515],[77.708714855844548,20.833995432992364],[77.708882513948325,20.835030944142471]]]},"properties":{"FID":38,"Join_Count":2,"TARGET_FID":43,"Layer":"TEXT_PARCEL","Text":"20","vill_code":"533015","LGD_CODE":"533015"}},{"type":"Feature","id":39,"geometry":{"type":"Polygon","coordinates":[[[77.704108732578177,20.835126768425173],[77.704007964982893,20.835153748190258],[77.703999676759253,20.835033441223182],[77.703975171689166,20.834898966808499],[77.704062990079848,20.834859312771307],[77.704088616558678,20.835013545854135],[77.704108732578177,20.835126768425173]]]},"properties":{"FID":39,"Join_Count":0,"TARGET_FID":44,"Layer":" ","Text":" ","vill_code":"533015","LGD_CODE":"533015"}},{"type":"Feature","id":40,"geometry":{"type":"MultiPolygon","coordinates":[[[[77.707227564830248,20.834820787695719],[77.707219941493804,20.834642126509774],[77.707327497727761,20.834519660564521],[77.707678090823663,20.83416970126029],[77.707714805458181,20.834071059568657],[77.708130767108401,20.834050328579504],[77.708238254385606,20.83508268005329],[77.70804995613554,20.835214265509819],[77.708214871649318,20.835460369586311],[77.707587059389709,20.835524124187376],[77.70747838390173,20.83533414884738],[77.707363983190419,20.834718616782027],[77.707227564830248,20.834820787695719]]],[[[77.707227564830248,20.834820787695719],[77.707242649147531,20.835201879459937],[77.707119585765497,20.835323430448909],[77.707026718653594,20.835583778103857],[77.706969756316369,20.835641292984857],[77.706633076508751,20.835806708917183],[77.7065771961677,20.83561863477286],[77.705874457216225,20.835664522529388],[77.705794253008889,20.835520253791625],[77.705788000787379,20.835411634442892],[77.705878885830145,20.835000361786289],[77.707227564830248,20.834820787695719]]]]},"properties":{"FID":40,"Join_Count":2,"TARGET_FID":45,"Layer":"TEXT_PARCEL","Text":"21","vill_code":"533015","LGD_CODE":"533015"}},{"type":"Feature","id":41,"geometry":{"type":"Polygon","coordinates":[[[77.710266916565914,20.835528218345029],[77.709633154629529,20.835663901354348],[77.709515683184151,20.835404601786362],[77.708214871649275,20.835460369586276],[77.708049956135497,20.835214265509752],[77.708238254385464,20.835082680053219],[77.708882513948325,20.835030944142471],[77.708714855844548,20.833995432992364],[77.709860760763178,20.833909366114153],[77.710679581683465,20.833928342843414],[77.712186668630991,20.833756538842653],[77.712395700544874,20.83466339694241],[77.712453148538216,20.835144834369906],[77.71125062645244,20.835317610163923],[77.710266916565914,20.835528218345029]]]},"properties":{"FID":41,"Join_Count":2,"TARGET_FID":46,"Layer":"TEXT_PARCEL","Text":"19","vill_code":"533015","LGD_CODE":"533015"}},{"type":"Feature","id":42,"geometry":{"type":"Polygon","coordinates":[[[77.705874457216211,20.835664522529246],[77.705770553590781,20.835731105649568],[77.705415325515318,20.835457223379304],[77.70516308841556,20.835468968557951],[77.705085208356309,20.835580594653251],[77.704651467189549,20.835042788519608],[77.704518611024056,20.835012974017729],[77.704439396492987,20.835038233162212],[77.704108732578177,20.835126768425173],[77.704088616558678,20.835013545854135],[77.704062990079848,20.834859312771307],[77.704459657431727,20.834714618544915],[77.704512763321191,20.83458840345418],[77.704700291676147,20.834458021956625],[77.705108877286989,20.834328175566711],[77.705169158096908,20.834230378059797],[77.70521822718537,20.834029608092084],[77.705591972781932,20.833983108292664],[77.705854606748275,20.834232017279128],[77.705842970451897,20.834491115964621],[77.705899385136817,20.83490857175326],[77.705878885830145,20.835000361786289],[77.705788000787308,20.83541163444297],[77.705794253008875,20.835520253791493],[77.705874457216211,20.835664522529246]]]},"properties":{"FID":42,"Join_Count":2,"TARGET_FID":47,"Layer":"TEXT_MAPIN","Text":"ग\u093E\u0902वठ\u093Eण","vill_code":"533015","LGD_CODE":"533015"}},{"type":"Feature","id":43,"geometry":{"type":"Polygon","coordinates":[[[77.706218449772408,20.836035931960172],[77.706119542114251,20.836173362225477],[77.705874457216211,20.835664522529246],[77.7065771961677,20.835618634772853],[77.706633076508624,20.835806708917133],[77.706218449772408,20.836035931960172]]]},"properties":{"FID":43,"Join_Count":2,"TARGET_FID":49,"Layer":"TEXT_PARCEL","Text":"2","vill_code":"533015","LGD_CODE":"533015"}},{"type":"Feature","id":44,"geometry":{"type":"Polygon","coordinates":[[[77.702680993442456,20.836286522812991],[77.702116435543658,20.836384974233965],[77.702034045230548,20.835098724321714],[77.702098416624438,20.834342352064247],[77.703183162002205,20.83433423431309],[77.703999676759253,20.835033441223182],[77.704007964982893,20.835153748190258],[77.704018442262608,20.835386348354689],[77.703785144078552,20.835452121748929],[77.703451880930615,20.835683636832087],[77.703343987126601,20.835829689646342],[77.703357039546745,20.836114558106647],[77.703162844839923,20.836169609827916],[77.702680993442456,20.836286522812991]]]},"properties":{"FID":44,"Join_Count":2,"TARGET_FID":50,"Layer":"TEXT_PARCEL","Text":"63","vill_code":"533015","LGD_CODE":"533015"}},{"type":"Feature","id":45,"geometry":{"type":"Polygon","coordinates":[[[77.70435698560172,20.836541524977289],[77.704236819015406,20.836544268061278],[77.704157341216799,20.836408621613405],[77.704119583917134,20.835622611275664],[77.704018442262608,20.835386348354689],[77.704007964982893,20.835153748190258],[77.704108732578177,20.835126768425173],[77.704255763541028,20.83595433258742],[77.70435698560172,20.836541524977289]]]},"properties":{"FID":45,"Join_Count":0,"TARGET_FID":51,"Layer":" ","Text":" ","vill_code":"533015","LGD_CODE":"533015"}},{"type":"Feature","id":46,"geometry":{"type":"Polygon","coordinates":[[[77.705093345637465,20.836210217280453],[77.705043981661348,20.836606500485246],[77.704527898814149,20.836537967562251],[77.70435698560172,20.836541524977289],[77.704255763541028,20.83595433258742],[77.704108732578177,20.835126768425173],[77.704439396492987,20.835038233162212],[77.704518611024056,20.835012974017729],[77.704651467189549,20.835042788519608],[77.705085208356309,20.835580594653251],[77.705062865209584,20.835680635796937],[77.705142682740444,20.836090920317648],[77.705093345637465,20.836210217280453]]]},"properties":{"FID":46,"Join_Count":2,"TARGET_FID":52,"Layer":"TEXT_PARCEL","Text":"4","vill_code":"533015","LGD_CODE":"533015"}},{"type":"Feature","id":47,"geometry":{"type":"Polygon","coordinates":[[[77.70551534451721,20.836505379061038],[77.705417266995653,20.836617048222625],[77.705043981661348,20.836606500485246],[77.705093345637465,20.836210217280453],[77.705142682740444,20.836090920317648],[77.705062865209584,20.835680635796937],[77.705085208356309,20.835580594653251],[77.70516308841556,20.835468968557951],[77.705415325515318,20.835457223379304],[77.705770553590781,20.835731105649568],[77.705976740536457,20.836244302497541],[77.705767472092589,20.836286127005547],[77.70551534451721,20.836505379061038]]]},"properties":{"FID":47,"Join_Count":2,"TARGET_FID":53,"Layer":"TEXT_PARCEL","Text":"3","vill_code":"533015","LGD_CODE":"533015"}},{"type":"Feature","id":48,"geometry":{"type":"Polygon","coordinates":[[[77.702138675539373,20.836664954531699],[77.700895381575151,20.836885002709025],[77.700697345766727,20.836737505270925],[77.700479527106538,20.83643917632363],[77.699720884443707,20.834545662142389],[77.702098416624438,20.834342352064247],[77.702034045230548,20.835098724321714],[77.702116435543658,20.836384974233965],[77.702138675539373,20.836664954531699]]]},"properties":{"FID":48,"Join_Count":2,"TARGET_FID":54,"Layer":"TEXT_PARCEL","Text":"62","vill_code":"533015","LGD_CODE":"533015"}},{"type":"Feature","id":49,"geometry":{"type":"Polygon","coordinates":[[[77.700895381575151,20.836885002709025],[77.700892579220252,20.837109515072637],[77.700793518731217,20.837076650256417],[77.700602091269985,20.836865463240347],[77.700299277249528,20.836390173466469],[77.698152952969309,20.834734208521368],[77.699720884443707,20.834545662142389],[77.700479527106538,20.83643917632363],[77.700697345766727,20.836737505270925],[77.700895381575151,20.836885002709025]]]},"properties":{"FID":49,"Join_Count":2,"TARGET_FID":55,"Layer":"TEXT_PARCEL","Text":"52","vill_code":"533015","LGD_CODE":"533015"}},{"type":"Feature","id":50,"geometry":{"type":"MultiPolygon","coordinates":[[[[77.70747838390173,20.83533414884738],[77.707587059389709,20.835524124187376],[77.707613784214914,20.835570843409641],[77.707697783441517,20.835890931084233],[77.707675441069682,20.835990971494315],[77.707546327091279,20.836066083352879],[77.707253413259252,20.836307627891244],[77.706804350181528,20.836805542872305],[77.706775983425132,20.837126364779465],[77.706531633634768,20.837213569262929],[77.706401958094432,20.836986448997951],[77.706119542114379,20.836173362225452],[77.70621844977245,20.836035931960229],[77.706633076508751,20.835806708917183],[77.706969756316369,20.835641292984857],[77.707026718653594,20.835583778103857],[77.707119585765497,20.835323430448909],[77.707242649147531,20.835201879459937],[77.707227564830248,20.834820787695719],[77.707363983190419,20.834718616782027],[77.70747838390173,20.83533414884738]]],[[[77.706290730003673,20.837096724894252],[77.705052577815081,20.837292118050865],[77.70504398166139,20.836606500485285],[77.705417266995596,20.83661704822271],[77.70551534451721,20.836505379060949],[77.705767472092703,20.836286127005508],[77.705976740536528,20.836244302497558],[77.706290730003673,20.837096724894252]]]]},"properties":{"FID":50,"Join_Count":2,"TARGET_FID":56,"Layer":"TEXT_PARCEL","Text":"1","vill_code":"533015","LGD_CODE":"533015"}},{"type":"Feature","id":51,"geometry":{"type":"Polygon","coordinates":[[[77.709246304430621,20.837937530881579],[77.709078058390574,20.837972749058665],[77.709021921196822,20.837736659035649],[77.708836174270019,20.836402981445875],[77.708214871649275,20.835460369586276],[77.709515683184151,20.835404601786362],[77.709633154629529,20.835663901354348],[77.710266916565914,20.835528218345029],[77.710292285353347,20.837790492101831],[77.709246304430621,20.837937530881579]]]},"properties":{"FID":51,"Join_Count":2,"TARGET_FID":58,"Layer":"TEXT_PARCEL","Text":"17","vill_code":"533015","LGD_CODE":"533015"}},{"type":"Feature","id":52,"geometry":{"type":"Polygon","coordinates":[[[77.712872992317543,20.837903214574279],[77.712891200477571,20.838124304863559],[77.712658785505496,20.838053946402955],[77.711999839030597,20.837938902991919],[77.710703267088419,20.837752658380268],[77.710292285353347,20.837790492101831],[77.710266916565914,20.835528218345029],[77.71125062645244,20.835317610163923],[77.712453148538216,20.835144834369906],[77.712646516808519,20.836320762893724],[77.712668075254783,20.836556824046468],[77.712872992317543,20.837903214574279]]]},"properties":{"FID":52,"Join_Count":2,"TARGET_FID":59,"Layer":"TEXT_PARCEL","Text":"18","vill_code":"533015","LGD_CODE":"533015"}},{"type":"Feature","id":53,"geometry":{"type":"Polygon","coordinates":[[[77.707413703064631,20.838290360087758],[77.707296638782452,20.838341058620376],[77.706531633634739,20.837213569262929],[77.706775983425061,20.837126364779362],[77.7068043501815,20.836805542872256],[77.707253413259252,20.836307627891266],[77.707546327091222,20.836066083352861],[77.707675441069696,20.835990971494176],[77.707697783441418,20.835890931084137],[77.707613784214857,20.835570843409524],[77.707587059389709,20.835524124187366],[77.708214871649275,20.835460369586276],[77.708836174270019,20.836402981445875],[77.709021921196822,20.837736659035649],[77.709078058390574,20.837972749058665],[77.708104164304174,20.838175849544211],[77.707413703064631,20.838290360087758]]]},"properties":{"FID":53,"Join_Count":2,"TARGET_FID":60,"Layer":"TEXT_PARCEL","Text":"16","vill_code":"533015","LGD_CODE":"533015"}},{"type":"Feature","id":54,"geometry":{"type":"Polygon","coordinates":[[[77.702225520383209,20.838521288529975],[77.701977125166422,20.838535320720858],[77.70130279122138,20.838433496162029],[77.700411489791122,20.838175252928153],[77.699953011371491,20.838340450021132],[77.699376160923194,20.838071400438491],[77.699542297399731,20.837703794562955],[77.699667584571358,20.837614422536717],[77.700774962201464,20.837447217771452],[77.700892579220252,20.837109515072637],[77.700895381575151,20.836885002709025],[77.702138675539373,20.836664954531699],[77.702116435543658,20.836384974233965],[77.702680993442456,20.836286522812991],[77.703162844839923,20.836169609827916],[77.703357039546745,20.836114558106647],[77.703343987126601,20.835829689646342],[77.703451880930615,20.835683636832087],[77.703785144078552,20.835452121748929],[77.704018442262608,20.835386348354689],[77.704119583917134,20.835622611275664],[77.704157341216799,20.836408621613405],[77.704126918016044,20.836461483156942],[77.703550227341566,20.836400913057226],[77.703417627355776,20.836468278450187],[77.703432950993175,20.836655513717393],[77.703404452376802,20.836713662414812],[77.703080475397684,20.837012852535047],[77.703174210993893,20.837144571934118],[77.702903352768089,20.837548427398769],[77.702216839411435,20.83767457157872],[77.702056785185945,20.837776210945698],[77.702032485591047,20.838009192390416],[77.702225520383209,20.838521288529975]]]},"properties":{"FID":54,"Join_Count":2,"TARGET_FID":61,"Layer":"TEXT_PARCEL","Text":"61","vill_code":"533015","LGD_CODE":"533015"}},{"type":"Feature","id":55,"geometry":{"type":"Polygon","coordinates":[[[77.707093486914573,20.838374318868489],[77.705654425775151,20.838593644565492],[77.704745802625098,20.838774226822348],[77.703957413925878,20.838958374749154],[77.703848758772551,20.839008168141504],[77.703852289108227,20.838837390784818],[77.703805839965753,20.837961256837566],[77.703938698800641,20.837587173636337],[77.704009854073774,20.837120161134063],[77.703977727306722,20.836955014478576],[77.704043785777799,20.836792542348231],[77.70420217426323,20.836661997500247],[77.704236819015534,20.836544268061282],[77.704356985601748,20.836541524977296],[77.704527898814206,20.836537967562325],[77.70504398166139,20.836606500485285],[77.705052577815081,20.837292118050865],[77.706290730003673,20.837096724894252],[77.707093486914573,20.838374318868489]]]},"properties":{"FID":55,"Join_Count":2,"TARGET_FID":62,"Layer":"TEXT_PARCEL","Text":"5","vill_code":"533015","LGD_CODE":"533015"}},{"type":"Feature","id":56,"geometry":{"type":"Polygon","coordinates":[[[77.707197083963607,20.838508831932579],[77.704769801325341,20.838920354496274],[77.70474580262497,20.838774226822366],[77.705654425775165,20.838593644565396],[77.707093486914459,20.838374318868471],[77.707197083963607,20.838508831932579]]]},"properties":{"FID":56,"Join_Count":0,"TARGET_FID":63,"Layer":" ","Text":" ","vill_code":"533015","LGD_CODE":"533015"}},{"type":"Feature","id":57,"geometry":{"type":"Polygon","coordinates":[[[77.698015421868504,20.839008693207727],[77.69785604112954,20.839086797907317],[77.696265523021964,20.838784525473734],[77.696712531061266,20.837140213215239],[77.696874447481122,20.835964969265603],[77.696977533190079,20.834879355855936],[77.698152952969309,20.834734208521368],[77.700299277249528,20.836390173466469],[77.700602091269985,20.836865463240347],[77.700793518731217,20.837076650256417],[77.700892579220252,20.837109515072637],[77.700774962201464,20.837447217771452],[77.699667584571358,20.837614422536717],[77.699542297399731,20.837703794562955],[77.699376160923194,20.838071400438491],[77.699953011371491,20.838340450021132],[77.699444170639197,20.83867231397161],[77.699117360641964,20.838693886534571],[77.698555811465923,20.838810041122368],[77.698015421868504,20.839008693207727]]]},"properties":{"FID":57,"Join_Count":2,"TARGET_FID":64,"Layer":"TEXT_PARCEL","Text":"53","vill_code":"533015","LGD_CODE":"533015"}},{"type":"Feature","id":58,"geometry":{"type":"Polygon","coordinates":[[[77.703729171896271,20.839062970555865],[77.702613344285993,20.839614725871609],[77.702509641443854,20.839416170321261],[77.702300885632198,20.839024501728428],[77.702225520383209,20.838521288529975],[77.702032485591047,20.838009192390416],[77.702056785185945,20.837776210945698],[77.702216839411435,20.83767457157872],[77.702903352768089,20.837548427398769],[77.703174210993893,20.837144571934118],[77.703080475397684,20.837012852535047],[77.703404452376802,20.836713662414812],[77.703432950993175,20.836655513717393],[77.703417627355776,20.836468278450187],[77.703550227341566,20.836400913057226],[77.704126918016044,20.836461483156942],[77.704157341216799,20.836408621613405],[77.704236819015406,20.836544268061278],[77.704202174263173,20.836661997500212],[77.704043785777799,20.836792542348203],[77.703977727306622,20.836955014478658],[77.704009854073703,20.837120161133946],[77.703938698800599,20.837587173636258],[77.703805839965781,20.837961256837495],[77.703852289108184,20.838837390784789],[77.703848758772622,20.839008168141362],[77.703729171896271,20.839062970555865]]]},"properties":{"FID":58,"Join_Count":2,"TARGET_FID":67,"Layer":"TEXT_PARCEL","Text":"60","vill_code":"533015","LGD_CODE":"533015"}},{"type":"Feature","id":59,"geometry":{"type":"Polygon","coordinates":[[[77.695378390674023,20.839735428778209],[77.69509288062234,20.839841037245005],[77.694768478056773,20.838779057046818],[77.694711539094286,20.838483750810514],[77.693968754863988,20.834996612260561],[77.69417383097381,20.83495151763508],[77.695223112665801,20.834784193464735],[77.696342542905825,20.834692622662509],[77.696496839533438,20.834551110057483],[77.697016619497788,20.834437516488933],[77.696986475921591,20.834778267802694],[77.696977533190079,20.834879355855936],[77.696874447481122,20.835964969265603],[77.696712531061266,20.837140213215239],[77.696265523021964,20.838784525473734],[77.695965071048178,20.839612695826517],[77.695378390674023,20.839735428778209]]]},"properties":{"FID":59,"Join_Count":2,"TARGET_FID":68,"Layer":"TEXT_PARCEL","Text":"54","vill_code":"533015","LGD_CODE":"533015"}},{"type":"Feature","id":60,"geometry":{"type":"Polygon","coordinates":[[[77.703900925764955,20.839125202659904],[77.702692569694577,20.839769963768063],[77.702613344285993,20.839614725871609],[77.703729171896271,20.839062970555865],[77.703848758772622,20.839008168141362],[77.70395741392575,20.838958374749144],[77.70474580262497,20.838774226822366],[77.704769801325341,20.838920354496274],[77.703980841356298,20.839084614253341],[77.703900925764955,20.839125202659904]]]},"properties":{"FID":60,"Join_Count":1,"TARGET_FID":69,"Layer":"POLY_PARCEL","Text":"छन\u094Dस\u094Dस\u094D","vill_code":"533015","LGD_CODE":"533015"}},{"type":"Feature","id":61,"geometry":{"type":"Polygon","coordinates":[[[77.70949777249669,20.839704069882103],[77.708214981316161,20.839836579357339],[77.708063628276463,20.839501362998181],[77.708010821668509,20.83928600107771],[77.707392374155006,20.838482155577118],[77.707296638782452,20.838341058620376],[77.707413703064631,20.838290360087758],[77.708104164304174,20.838175849544211],[77.709078058390574,20.837972749058665],[77.70949777249669,20.839704069882103]]]},"properties":{"FID":61,"Join_Count":2,"TARGET_FID":70,"Layer":"TEXT_PARCEL","Text":"15","vill_code":"533015","LGD_CODE":"533015"}},{"type":"Feature","id":62,"geometry":{"type":"Polygon","coordinates":[[[77.712891200477571,20.838124304863559],[77.713139949459347,20.839927002978143],[77.709817570231465,20.839700771212939],[77.70949777249669,20.839704069882103],[77.709078058390574,20.837972749058665],[77.709246304430621,20.837937530881579],[77.710292285353347,20.837790492101831],[77.710703267088419,20.837752658380268],[77.711999839030597,20.837938902991919],[77.712658785505496,20.838053946402955],[77.712891200477571,20.838124304863559]]]},"properties":{"FID":62,"Join_Count":2,"TARGET_FID":71,"Layer":"TEXT_PARCEL","Text":"14","vill_code":"533015","LGD_CODE":"533015"}},{"type":"Feature","id":63,"geometry":{"type":"Polygon","coordinates":[[[77.707882029811685,20.839364650999126],[77.70833826350696,20.840519149317913],[77.706393478192808,20.840087912152683],[77.705677681270799,20.839926729821169],[77.704860714727715,20.839415440222979],[77.704627730757977,20.839332509625308],[77.703900925765083,20.839125202659947],[77.703980841356383,20.839084614253355],[77.704769801325369,20.838920354496224],[77.707197083963536,20.838508831932643],[77.707882029811685,20.839364650999126]]]},"properties":{"FID":63,"Join_Count":2,"TARGET_FID":72,"Layer":"TEXT_PARCEL","Text":"6","vill_code":"533015","LGD_CODE":"533015"}},{"type":"Feature","id":64,"geometry":{"type":"Polygon","coordinates":[[[77.69987685927029,20.840986822348238],[77.699288953913921,20.841291915246259],[77.699246827516887,20.840828745353697],[77.699117360641964,20.838693886534571],[77.699444170639197,20.83867231397161],[77.699953011371491,20.838340450021132],[77.700411489791122,20.838175252928153],[77.70130279122138,20.838433496162029],[77.701977125166422,20.838535320720858],[77.702225520383209,20.838521288529975],[77.702300885632198,20.839024501728428],[77.702509641443854,20.839416170321261],[77.702613344285993,20.839614725871609],[77.702692569694577,20.839769963768063],[77.70261665553582,20.839812720249743],[77.701201323868133,20.84039713155698],[77.700159686943707,20.840874282092543],[77.69987685927029,20.840986822348238]]]},"properties":{"FID":64,"Join_Count":2,"TARGET_FID":73,"Layer":"TEXT_PARCEL","Text":"59","vill_code":"533015","LGD_CODE":"533015"}},{"type":"Feature","id":65,"geometry":{"type":"Polygon","coordinates":[[[77.696345957918638,20.84152997330564],[77.695813012420047,20.841789664492854],[77.695450309635063,20.840953101697423],[77.69509288062234,20.839841037245005],[77.695378390674023,20.839735428778209],[77.695965071048178,20.839612695826517],[77.695736742540959,20.840238420744679],[77.696843213880555,20.840143478142977],[77.697054444411535,20.840472164892166],[77.696345957918638,20.84152997330564]]]},"properties":{"FID":65,"Join_Count":2,"TARGET_FID":74,"Layer":"TEXT_PARCEL","Text":"55","vill_code":"533015","LGD_CODE":"533015"}},{"type":"Feature","id":66,"geometry":{"type":"Polygon","coordinates":[[[77.696879583922168,20.842377830946038],[77.695895290351672,20.842439057937707],[77.695813012420047,20.841789664492854],[77.696345957918638,20.84152997330564],[77.697054444411535,20.840472164892166],[77.696843213880555,20.840143478142977],[77.695736742540959,20.840238420744679],[77.695965071048178,20.839612695826517],[77.696265523021964,20.838784525473734],[77.69785604112954,20.839086797907317],[77.698015421868504,20.839008693207727],[77.698555811465923,20.838810041122368],[77.699117360641964,20.838693886534571],[77.699246827516887,20.840828745353697],[77.699288953913921,20.841291915246259],[77.699149072043625,20.841371621502319],[77.698589773020842,20.841839275853207],[77.698258535657843,20.842158401879512],[77.696879583922168,20.842377830946038]]]},"properties":{"FID":66,"Join_Count":2,"TARGET_FID":75,"Layer":"TEXT_PARCEL","Text":"56","vill_code":"533015","LGD_CODE":"533015"}},{"type":"Feature","id":67,"geometry":{"type":"Polygon","coordinates":[[[77.711915067646856,20.842361060995966],[77.710276061399838,20.843203239667563],[77.710062634678536,20.84298729288054],[77.709167174025893,20.841950745572849],[77.709040201832735,20.841784597211561],[77.708892679405253,20.841509076491228],[77.70851613403039,20.840615913750213],[77.708214981316161,20.839836579357339],[77.70949777249669,20.839704069882103],[77.709817570231465,20.839700771212939],[77.713139949459347,20.839927002978143],[77.713453722768094,20.84202278529024],[77.711915067646856,20.842361060995966]]]},"properties":{"FID":67,"Join_Count":2,"TARGET_FID":76,"Layer":"TEXT_PARCEL","Text":"13","vill_code":"533015","LGD_CODE":"533015"}},{"type":"Feature","id":68,"geometry":{"type":"Polygon","coordinates":[[[77.698578064312841,20.843281999298053],[77.696239032505119,20.843441151815977],[77.69610916662603,20.843399779465351],[77.696016248568711,20.8432500091502],[77.695895290351672,20.842439057937707],[77.696879583922168,20.842377830946038],[77.698258535657843,20.842158401879512],[77.698589773020842,20.841839275853207],[77.699900268126299,20.843301871560158],[77.699607271847938,20.843264698296831],[77.698578064312841,20.843281999298053]]]},"properties":{"FID":68,"Join_Count":2,"TARGET_FID":77,"Layer":"TEXT_PARCEL","Text":"57","vill_code":"533015","LGD_CODE":"533015"}},{"type":"Feature","id":69,"geometry":{"type":"Polygon","coordinates":[[[77.702161606550831,20.84246603059821],[77.702589085337067,20.844008955321407],[77.701852136462207,20.844005751077219],[77.700414974559223,20.843436517906405],[77.700085753492999,20.843325404861325],[77.699900268126299,20.843301871560158],[77.698589773020842,20.841839275853207],[77.699149072043625,20.841371621502319],[77.699288953913921,20.841291915246259],[77.69987685927029,20.840986822348238],[77.700159686943707,20.840874282092543],[77.701201323868133,20.84039713155698],[77.702014012989594,20.842105201319232],[77.702161606550831,20.84246603059821]]]},"properties":{"FID":69,"Join_Count":2,"TARGET_FID":78,"Layer":"TEXT_PARCEL","Text":"58","vill_code":"533015","LGD_CODE":"533015"}},{"type":"Feature","id":70,"geometry":{"type":"Polygon","coordinates":[[[77.704640191685073,20.841373560287437],[77.704267722608037,20.844457400032518],[77.703227693049996,20.844076055969531],[77.702589085337067,20.844008955321407],[77.702161606550831,20.84246603059821],[77.702014012989594,20.842105201319232],[77.701201323868133,20.84039713155698],[77.70261665553582,20.839812720249743],[77.702692569694577,20.839769963768063],[77.703900925764955,20.839125202659904],[77.704627730757935,20.839332509625294],[77.704860714727715,20.839415440222936],[77.704640191685073,20.841373560287437]]]},"properties":{"FID":70,"Join_Count":2,"TARGET_FID":79,"Layer":"TEXT_PARCEL","Text":"7","vill_code":"533015","LGD_CODE":"533015"}},{"type":"Feature","id":71,"geometry":{"type":"Polygon","coordinates":[[[77.708412323400822,20.844476361202663],[77.707750312550331,20.844856610198534],[77.707482683315973,20.843952938957496],[77.706393478192751,20.84008791215259],[77.708338263506874,20.840519149317981],[77.708888963922178,20.841796389929709],[77.709293294929452,20.84414688209327],[77.709175677123852,20.844231646369067],[77.708412323400822,20.844476361202663]]]},"properties":{"FID":71,"Join_Count":2,"TARGET_FID":81,"Layer":"TEXT_PARCEL","Text":"9","vill_code":"533015","LGD_CODE":"533015"}},{"type":"Feature","id":72,"geometry":{"type":"Polygon","coordinates":[[[77.707750312550388,20.844856610198516],[77.706770081337424,20.844960612513947],[77.706583320538755,20.844847741855119],[77.706597291212063,20.844677381128747],[77.705811744238645,20.844736487547149],[77.705255311376902,20.84467460388419],[77.704267722608108,20.844457400032638],[77.704640191685201,20.841373560287476],[77.704860714727715,20.839415440222979],[77.705677681270799,20.839926729821169],[77.706393478192808,20.840087912152683],[77.707482683316073,20.843952938957617],[77.707750312550388,20.844856610198516]]]},"properties":{"FID":72,"Join_Count":2,"TARGET_FID":82,"Layer":"TEXT_PARCEL","Text":"8","vill_code":"533015","LGD_CODE":"533015"}},{"type":"Feature","id":73,"geometry":{"type":"Polygon","coordinates":[[[77.713302976261687,20.845210762056766],[77.713064808556766,20.84529068864201],[77.712764289288998,20.845117338393159],[77.711599953222546,20.844284519409296],[77.710739453689712,20.843613422154142],[77.710276061399838,20.843203239667563],[77.711915067646856,20.842361060995966],[77.713453722768094,20.84202278529024],[77.71375461785972,20.843382051159534],[77.714208877217899,20.844977350882719],[77.713302976261687,20.845210762056766]]]},"properties":{"FID":73,"Join_Count":2,"TARGET_FID":83,"Layer":"TEXT_PARCEL","Text":"12","vill_code":"533015","LGD_CODE":"533015"}},{"type":"Feature","id":74,"geometry":{"type":"Polygon","coordinates":[[[77.713064808556766,20.84529068864201],[77.712913652864842,20.845365688537857],[77.71159132053991,20.844445516259729],[77.711451170590252,20.844330152259879],[77.710209645679669,20.843293983008394],[77.709634483438137,20.842670761596857],[77.709048970889768,20.84200596048429],[77.708888963922178,20.841796389929709],[77.708338263506874,20.840519149317981],[77.707882029811614,20.839364650999151],[77.707197083963607,20.838508831932579],[77.707093486914459,20.838374318868471],[77.706290730003658,20.837096724894248],[77.705976740536457,20.836244302497541],[77.705770553590781,20.835731105649568],[77.705874457216211,20.835664522529246],[77.706119542114251,20.836173362225477],[77.706401958094347,20.836986448997937],[77.706531633634739,20.837213569262929],[77.707296638782452,20.838341058620376],[77.707392374155006,20.838482155577118],[77.708010821668509,20.83928600107771],[77.708063628276463,20.839501362998181],[77.708214981316161,20.839836579357339],[77.70851613403039,20.840615913750213],[77.708892679405253,20.841509076491228],[77.709040201832735,20.841784597211561],[77.709167174025893,20.841950745572849],[77.710062634678536,20.84298729288054],[77.710276061399838,20.843203239667563],[77.710739453689712,20.843613422154142],[77.711599953222546,20.844284519409296],[77.712764289288998,20.845117338393159],[77.713064808556766,20.84529068864201]]]},"properties":{"FID":74,"Join_Count":1,"TARGET_FID":84,"Layer":"POLY_PARCEL","Text":"छन\u094Dस\u094Dस\u094D","vill_code":"533015","LGD_CODE":"533015"}},{"type":"Feature","id":75,"geometry":{"type":"Polygon","coordinates":[[[77.709531225776672,20.844946206484614],[77.707743986616393,20.845793312218042],[77.707733491823518,20.845707994478964],[77.707332964461898,20.845713596695443],[77.706790662275154,20.845144869270609],[77.706770081337353,20.84496061251388],[77.707750312550331,20.844856610198534],[77.708412323400822,20.844476361202663],[77.709175677123852,20.844231646369067],[77.709293294929452,20.84414688209327],[77.708888963922178,20.841796389929709],[77.709048970889768,20.84200596048429],[77.709634483438137,20.842670761596857],[77.710209645679669,20.843293983008394],[77.711451170590252,20.844330152259879],[77.709531225776672,20.844946206484614]]]},"properties":{"FID":75,"Join_Count":2,"TARGET_FID":85,"Layer":"TEXT_PARCEL","Text":"10","vill_code":"533015","LGD_CODE":"533015"}},{"type":"Feature","id":76,"geometry":{"type":"Polygon","coordinates":[[[77.709649728079924,20.846539074738473],[77.708721761927109,20.846765073451923],[77.708179700898128,20.846731579515424],[77.708139870033804,20.846710840892346],[77.707938058571273,20.846605762301877],[77.707743986616393,20.845793312218042],[77.709531225776672,20.844946206484614],[77.711451170590252,20.844330152259879],[77.71159132053991,20.844445516259729],[77.712913652864842,20.845365688537857],[77.7105005443577,20.846212230070378],[77.709649728079924,20.846539074738473]]]},"properties":{"FID":76,"Join_Count":2,"TARGET_FID":86,"Layer":"TEXT_PARCEL","Text":"11","vill_code":"533015","LGD_CODE":"533015"}},{"type":"Feature","id":77,"geometry":{"type":"Polygon","coordinates":[[[77.704379008262606,20.832005903244529],[77.703563014606118,20.832139590578766],[77.703426089530581,20.831407944978874],[77.704106680108623,20.83133378297504],[77.704379008262606,20.832005903244529]]]},"properties":{"FID":77,"Join_Count":2,"TARGET_FID":22,"Layer":"TEXT_PARCEL","Text":"64","vill_code":"533015","LGD_CODE":"533015"}}]
}