{
  "type" : "FeatureCollection",
  "features" : [{"type":"Feature","id":0,"geometry":{"type":"LineString","coordinates":[[77.710545151778049,20.827112513815479],[77.710643676291852,20.827330590083616],[77.711838172103285,20.829849966000104]]},"properties":{"FID":0,"LGD_CODE":"533015","ROAD_TYPE":"B"}},{"type":"Feature","id":1,"geometry":{"type":"LineString","coordinates":[[77.710255794290987,20.82714796203518],[77.709168088421819,20.824794195889844],[77.708438017595896,20.823232000690105]]},"properties":{"FID":1,"LGD_CODE":"533015","ROAD_TYPE":"B"}},{"type":"Feature","id":2,"geometry":{"type":"LineString","coordinates":[[77.711349885068813,20.81907176229161],[77.709880727045018,20.821211816181254],[77.708905119305541,20.822624694210525]]},"properties":{"FID":2,"LGD_CODE":"533015","ROAD_TYPE":"C"}},{"type":"Feature","id":3,"geometry":{"type":"LineString","coordinates":[[77.706648615311494,20.826621069199735],[77.706012166411128,20.827463961809833],[77.705594220170383,20.828264964018654]]},"properties":{"FID":3,"LGD_CODE":"533015","ROAD_TYPE":"C"}},{"type":"Feature","id":4,"geometry":{"type":"LineString","coordinates":[[77.704782726574535,20.831833068475213],[77.704643032474138,20.832257599108658]]},"properties":{"FID":4,"LGD_CODE":"533015","ROAD_TYPE":"C"}},{"type":"Feature","id":5,"geometry":{"type":"LineString","coordinates":[[77.71211322486667,20.837958699001067],[77.712211284230733,20.837897896855836],[77.712885877863144,20.838069861036004]]},"properties":{"FID":5,"LGD_CODE":"533015","ROAD_TYPE":"B"}},{"type":"Feature","id":6,"geometry":{"type":"LineString","coordinates":[[77.699044912936344,20.8354150832823],[77.699378494339399,20.835592254622679],[77.700217643817851,20.836242204327977],[77.700326334880316,20.836313701676762]]},"properties":{"FID":6,"LGD_CODE":"533015","ROAD_TYPE":"B"}},{"type":"Feature","id":7,"geometry":{"type":"LineString","coordinates":[[77.698754028862865,20.835191927588259],[77.699204167260262,20.835418547334676],[77.699985963078618,20.835937195410118],[77.700272302384363,20.836153536601621]]},"properties":{"FID":7,"LGD_CODE":"533015","ROAD_TYPE":"B"}},{"type":"Feature","id":8,"geometry":{"type":"LineString","coordinates":[[77.70239689010279,20.838315342450791],[77.702674364501732,20.838434086767663],[77.703619561730335,20.838849416554712],[77.703831115701675,20.839016252978759]]},"properties":{"FID":8,"LGD_CODE":"533015","ROAD_TYPE":"B"}},{"type":"Feature","id":9,"geometry":{"type":"LineString","coordinates":[[77.701351148387147,20.837546645307292],[77.701300541061585,20.83749324602638],[77.701114628875999,20.837291371963239],[77.701014222976653,20.83719078158261],[77.700892570970296,20.837110158312353]]},"properties":{"FID":9,"LGD_CODE":"533015","ROAD_TYPE":"B"}},{"type":"Feature","id":10,"geometry":{"type":"LineString","coordinates":[[77.706516927784818,20.840512198724088],[77.706916015537431,20.840709017274616],[77.7086815021961,20.841600090783075],[77.708853559201685,20.841714186457011]]},"properties":{"FID":10,"LGD_CODE":"533015","ROAD_TYPE":"B"}},{"type":"Feature","id":11,"geometry":{"type":"LineString","coordinates":[[77.708889854764649,20.841801575121227],[77.70889158737576,20.841802481504899]]},"properties":{"FID":11,"LGD_CODE":"533015","ROAD_TYPE":"B"}},{"type":"Feature","id":12,"geometry":{"type":"LineString","coordinates":[[77.70771957455699,20.833996031125885],[77.707686848686805,20.833999823187288],[77.706075629344042,20.834087135254649],[77.705791166000068,20.834178661130636]]},"properties":{"FID":12,"LGD_CODE":"533015","ROAD_TYPE":"C"}},{"type":"Feature","id":13,"geometry":{"type":"LineString","coordinates":[[77.710502321811646,20.823695836660203],[77.71069300401183,20.823844688092201],[77.711211064334606,20.824090029503914],[77.711669474390561,20.824295653521691]]},"properties":{"FID":13,"LGD_CODE":"533015","ROAD_TYPE":"B"}},{"type":"Feature","id":14,"geometry":{"type":"LineString","coordinates":[[77.7107017971353,20.823741035111457],[77.710622631668514,20.823687963946394],[77.710531858751082,20.823557453785575],[77.710018636684708,20.823396096662126],[77.709427233729343,20.823246800919851],[77.709199448432813,20.823197793372628]]},"properties":{"FID":14,"LGD_CODE":"533015","ROAD_TYPE":"B"}},{"type":"Feature","id":15,"geometry":{"type":"LineString","coordinates":[[77.696245762998117,20.842417257654258],[77.69622086557024,20.842361888102662],[77.6961873894072,20.842313755338804],[77.696085856470987,20.842262576737177],[77.695945993891698,20.842219392034721],[77.695866378895161,20.842210873650476]]},"properties":{"FID":15,"LGD_CODE":"533015","ROAD_TYPE":"B"}},{"type":"Feature","id":16,"geometry":{"type":"LineString","coordinates":[[77.698634186163872,20.841888463663143],[77.698490026576621,20.842000056661259],[77.698234831298365,20.842222594804365],[77.698085182503078,20.842259940401277],[77.697967454268536,20.842324121336787],[77.697850140667541,20.842335790108859],[77.697763640244105,20.842321180511874],[77.697716662906643,20.84222875745062]]},"properties":{"FID":16,"LGD_CODE":"533015","ROAD_TYPE":"B"}},{"type":"Feature","id":17,"geometry":{"type":"LineString","coordinates":[[77.696572709653708,20.842396920327808],[77.69658855253752,20.842375842473128],[77.696694253047184,20.842274651709545],[77.696815360098228,20.842160321878239],[77.697126281568842,20.842142753466248],[77.697531050210202,20.842127029923855],[77.697629911492967,20.842131747768363],[77.697703499231835,20.842202859253753],[77.697716662906643,20.84222875745062]]},"properties":{"FID":17,"LGD_CODE":"533015","ROAD_TYPE":"B"}},{"type":"Feature","id":18,"geometry":{"type":"LineString","coordinates":[[77.710764374187463,20.837762478276797],[77.710812530652575,20.837835014314912],[77.710927984826057,20.837982328736015],[77.712123181075668,20.838092884502196],[77.712230435321331,20.838007838869395],[77.712482892199546,20.838051490443156],[77.712896209386741,20.83816130257599]]},"properties":{"FID":18,"LGD_CODE":"533015","ROAD_TYPE":"B"}},{"type":"Feature","id":19,"geometry":{"type":"LineString","coordinates":[[77.707431813063678,20.83853341822223],[77.707619782487129,20.838274147502439],[77.708290154995879,20.838060730166987],[77.709059857897884,20.837896205252452]]},"properties":{"FID":19,"LGD_CODE":"533015","ROAD_TYPE":"B"}},{"type":"Feature","id":20,"geometry":{"type":"LineString","coordinates":[[77.709059857897884,20.837896205252452],[77.70924924333606,20.837855723317201],[77.710001537563286,20.837747798231515],[77.710290665231113,20.837719624673653]]},"properties":{"FID":20,"LGD_CODE":"533015","ROAD_TYPE":"B"}},{"type":"Feature","id":21,"geometry":{"type":"LineString","coordinates":[[77.710290665231113,20.837719624673653],[77.710574787194034,20.837691938407502],[77.710727338763434,20.837706693327426],[77.710764374187463,20.837762478276797]]},"properties":{"FID":21,"LGD_CODE":"533015","ROAD_TYPE":"B"}},{"type":"Feature","id":22,"geometry":{"type":"LineString","coordinates":[[77.695855357687051,20.842123886773592],[77.696066540363219,20.842179623739085],[77.696198699555808,20.842229377878695],[77.696290365227838,20.84233381098435],[77.696352122514114,20.842410641756221]]},"properties":{"FID":22,"LGD_CODE":"533015","ROAD_TYPE":"B"}},{"type":"Feature","id":23,"geometry":{"type":"LineString","coordinates":[[77.696352122514114,20.842410641756221],[77.696372181420287,20.842435596540803],[77.696545012984473,20.842433768803254],[77.696572709653708,20.842396920327808]]},"properties":{"FID":23,"LGD_CODE":"533015","ROAD_TYPE":"B"}},{"type":"Feature","id":24,"geometry":{"type":"LineString","coordinates":[[77.700519281587148,20.840689189424687],[77.70047806923742,20.84073174973885],[77.700231308399182,20.840939273240718],[77.69969767131775,20.841299511418388],[77.699033831889892,20.841644066885156],[77.698759392632482,20.841846278269486],[77.698665419816649,20.841923055450895]]},"properties":{"FID":24,"LGD_CODE":"533015","ROAD_TYPE":"B"}},{"type":"Feature","id":25,"geometry":{"type":"LineString","coordinates":[[77.698665419816649,20.841923055450895],[77.698396628297886,20.842142661431236],[77.69822178671275,20.842278126047258],[77.697907429281358,20.842404553008546],[77.697775599935838,20.842444847686465],[77.697668704993276,20.84235665211116],[77.697622503136742,20.842241110454541]]},"properties":{"FID":25,"LGD_CODE":"533015","ROAD_TYPE":"B"}},{"type":"Feature","id":26,"geometry":{"type":"LineString","coordinates":[[77.697622503136742,20.842241110454541],[77.697610184900896,20.842210304958538],[77.697561658048585,20.842181506351171],[77.696931382015038,20.842266726574785],[77.696810470795768,20.842328251971949],[77.69673562883807,20.842386785900757]]},"properties":{"FID":26,"LGD_CODE":"533015","ROAD_TYPE":"B"}},{"type":"Feature","id":27,"geometry":{"type":"LineString","coordinates":[[77.69673562883807,20.842386785900757],[77.696654257878848,20.84245042608163],[77.696467444727602,20.842490171686308],[77.696278315754526,20.842489651863591],[77.696245762998117,20.842417257654258]]},"properties":{"FID":27,"LGD_CODE":"533015","ROAD_TYPE":"B"}},{"type":"Feature","id":28,"geometry":{"type":"LineString","coordinates":[[77.700240558743175,20.840832655138598],[77.700173470667465,20.840896427816723],[77.700039984544034,20.84099164781637],[77.699281920364427,20.841366326899713],[77.698956518639875,20.841638947221441],[77.698634186163872,20.841888463663143]]},"properties":{"FID":28,"LGD_CODE":"533015","ROAD_TYPE":"B"}},{"type":"Feature","id":29,"geometry":{"type":"LineString","coordinates":[[77.702613344460062,20.839614725761272],[77.702613344460062,20.839614725761272],[77.702481473644255,20.839682365339346],[77.701682784829302,20.840042523951187],[77.701027752346988,20.840315247494363],[77.700594105458805,20.840503131590278],[77.700380744052765,20.840699397348391],[77.700240558743175,20.840832655138598]]},"properties":{"FID":29,"LGD_CODE":"533015","ROAD_TYPE":"B"}},{"type":"Feature","id":30,"geometry":{"type":"LineString","coordinates":[[77.711671518108062,20.824228314075146],[77.711278087536314,20.824036379627454],[77.710928015187221,20.823892687361987],[77.7107017971353,20.823741035111457]]},"properties":{"FID":30,"LGD_CODE":"533015","ROAD_TYPE":"B"}},{"type":"Feature","id":31,"geometry":{"type":"LineString","coordinates":[[77.709253872109144,20.823304706823496],[77.70969086464612,20.823411365681256],[77.710367238284377,20.823590386654548],[77.710502321811646,20.823695836660203]]},"properties":{"FID":31,"LGD_CODE":"533015","ROAD_TYPE":"B"}},{"type":"Feature","id":32,"geometry":{"type":"LineString","coordinates":[[77.708701294268991,20.833882272859903],[77.707878183682325,20.833977652439874]]},"properties":{"FID":32,"LGD_CODE":"533015","ROAD_TYPE":"C"}},{"type":"Feature","id":33,"geometry":{"type":"LineString","coordinates":[[77.707878183682325,20.833977652439874],[77.70771957455699,20.833996031125885]]},"properties":{"FID":33,"LGD_CODE":"533015","ROAD_TYPE":"C"}},{"type":"Feature","id":34,"geometry":{"type":"LineString","coordinates":[[77.704499595555447,20.839295042810651],[77.704689974676299,20.839621992859097],[77.704832350906855,20.839719869760216]]},"properties":{"FID":34,"LGD_CODE":"533015","ROAD_TYPE":"B"}},{"type":"Feature","id":35,"geometry":{"type":"LineString","coordinates":[[77.704832350906855,20.839719869760216],[77.704927633219199,20.839785371681469]]},"properties":{"FID":35,"LGD_CODE":"533015","ROAD_TYPE":"B"}},{"type":"Feature","id":36,"geometry":{"type":"LineString","coordinates":[[77.704927633219199,20.839785371681469],[77.704952180447236,20.839802246679014],[77.706021353705566,20.840329847393232],[77.706540566225641,20.840591585608433]]},"properties":{"FID":36,"LGD_CODE":"533015","ROAD_TYPE":"B"}},{"type":"Feature","id":37,"geometry":{"type":"LineString","coordinates":[[77.706540566225641,20.840591585608433],[77.707539194386896,20.841094992829714],[77.708889854764649,20.841801575121227]]},"properties":{"FID":37,"LGD_CODE":"533015","ROAD_TYPE":"B"}},{"type":"Feature","id":38,"geometry":{"type":"LineString","coordinates":[[77.70462773069886,20.839332509187027],[77.704740588541057,20.839556566507763],[77.704840578713757,20.839631462570463]]},"properties":{"FID":38,"LGD_CODE":"533015","ROAD_TYPE":"B"}},{"type":"Feature","id":39,"geometry":{"type":"LineString","coordinates":[[77.704840578713757,20.839631462570463],[77.704910379550299,20.839683745702519]]},"properties":{"FID":39,"LGD_CODE":"533015","ROAD_TYPE":"B"}},{"type":"Feature","id":40,"geometry":{"type":"LineString","coordinates":[[77.704910379550299,20.839683745702519],[77.705051615931694,20.839789536205242],[77.706516927784818,20.840512198724088]]},"properties":{"FID":40,"LGD_CODE":"533015","ROAD_TYPE":"B"}},{"type":"Feature","id":41,"geometry":{"type":"LineString","coordinates":[[77.703729172292981,20.839062970454691],[77.70338006271345,20.838841427266626],[77.702848699516011,20.838607789790697],[77.702362037767188,20.838372069866558],[77.702128946388427,20.838258533989194]]},"properties":{"FID":41,"LGD_CODE":"533015","ROAD_TYPE":"B"}},{"type":"Feature","id":42,"geometry":{"type":"LineString","coordinates":[[77.702128946388427,20.838258533989194],[77.701967523093259,20.838179906432259],[77.701708781157777,20.837924006681956],[77.701351148387147,20.837546645307292]]},"properties":{"FID":42,"LGD_CODE":"533015","ROAD_TYPE":"B"}},{"type":"Feature","id":43,"geometry":{"type":"LineString","coordinates":[[77.700894962744087,20.836918560490513],[77.701194668272819,20.837211091808793],[77.701489018180183,20.837572321378836]]},"properties":{"FID":43,"LGD_CODE":"533015","ROAD_TYPE":"B"}},{"type":"Feature","id":44,"geometry":{"type":"LineString","coordinates":[[77.701489018180183,20.837572321378836],[77.701984668217378,20.838045137116097],[77.702071882134476,20.8381110281091]]},"properties":{"FID":44,"LGD_CODE":"533015","ROAD_TYPE":"B"}},{"type":"Feature","id":45,"geometry":{"type":"LineString","coordinates":[[77.702071882134476,20.8381110281091],[77.702271014332808,20.838261474081662],[77.70239689010279,20.838315342450791]]},"properties":{"FID":45,"LGD_CODE":"533015","ROAD_TYPE":"B"}},{"type":"Feature","id":46,"geometry":{"type":"LineString","coordinates":[[77.697852879334974,20.834771263778247],[77.698229777992324,20.83492799384085],[77.698754028862865,20.835191927588259]]},"properties":{"FID":46,"LGD_CODE":"533015","ROAD_TYPE":"B"}},{"type":"Feature","id":47,"geometry":{"type":"LineString","coordinates":[[77.697712173018161,20.834788639126089],[77.698010699263278,20.834928615750499],[77.698715847225145,20.83524030920767],[77.699044912936344,20.8354150832823]]},"properties":{"FID":47,"LGD_CODE":"533015","ROAD_TYPE":"B"}},{"type":"Feature","id":48,"geometry":{"type":"LineString","coordinates":[[77.70739237382999,20.838482155562275],[77.707585131392591,20.838248895087162],[77.707645512152197,20.838184507847828],[77.708771922666415,20.837879582511924],[77.709046021841189,20.837838016898754]]},"properties":{"FID":48,"LGD_CODE":"533015","ROAD_TYPE":"B"}},{"type":"Feature","id":49,"geometry":{"type":"LineString","coordinates":[[77.709046021841189,20.837838016898754],[77.709944104468008,20.837701824490228],[77.710293100768311,20.837665468362314]]},"properties":{"FID":49,"LGD_CODE":"533015","ROAD_TYPE":"B"}},{"type":"Feature","id":50,"geometry":{"type":"LineString","coordinates":[[77.710293100768311,20.837665468362314],[77.710692643020266,20.837623845806512],[77.710845321733231,20.837659834071843],[77.71092231427555,20.83778391384169]]},"properties":{"FID":50,"LGD_CODE":"533015","ROAD_TYPE":"B"}},{"type":"Feature","id":51,"geometry":{"type":"LineString","coordinates":[[77.71092231427555,20.83778391384169],[77.710990144406921,20.837893227416458],[77.711059024966701,20.837920805237111],[77.712028745521039,20.838011080715784],[77.71211322486667,20.837958699001067]]},"properties":{"FID":51,"LGD_CODE":"533015","ROAD_TYPE":"B"}},{"type":"Feature","id":52,"geometry":{"type":"LineString","coordinates":[[77.705401052976242,20.829942934233586],[77.705074868566783,20.830935659038975],[77.704820347029766,20.831718739494956],[77.704782726574535,20.831833068475213]]},"properties":{"FID":52,"LGD_CODE":"533015","ROAD_TYPE":"C"}},{"type":"Feature","id":53,"geometry":{"type":"LineString","coordinates":[[77.708438017595896,20.823232000690105],[77.707945678684098,20.824097459352441],[77.707494226795546,20.824950124440939],[77.707322535181049,20.825318831598192],[77.707210273296752,20.825995383650422],[77.707166502979291,20.826041530361856]]},"properties":{"FID":53,"LGD_CODE":"533015","ROAD_TYPE":"C"}},{"type":"Feature","id":54,"geometry":{"type":"LineString","coordinates":[[77.707166502979291,20.826041530361856],[77.706989930271916,20.826227689250434]]},"properties":{"FID":54,"LGD_CODE":"533015","ROAD_TYPE":"C"}},{"type":"Feature","id":55,"geometry":{"type":"LineString","coordinates":[[77.706989930271916,20.826227689250434],[77.706772781270615,20.826456626521644],[77.706648615311494,20.826621069199735]]},"properties":{"FID":55,"LGD_CODE":"533015","ROAD_TYPE":"C"}},{"type":"Feature","id":56,"geometry":{"type":"LineString","coordinates":[[77.71190893193085,20.830637629112925],[77.711663176780021,20.830123629236454]]},"properties":{"FID":56,"LGD_CODE":"533015","ROAD_TYPE":"B"}},{"type":"Feature","id":57,"geometry":{"type":"LineString","coordinates":[[77.711663176780021,20.830123629236454],[77.710817347082198,20.82835453237735],[77.710400980534899,20.827462134153624],[77.710255794290987,20.82714796203518]]},"properties":{"FID":57,"LGD_CODE":"533015","ROAD_TYPE":"B"}},{"type":"Feature","id":58,"geometry":{"type":"LineString","coordinates":[[77.708750683778035,20.823226101094047],[77.708609950365286,20.822929766066519],[77.708472881359796,20.823170714993196]]},"properties":{"FID":58,"LGD_CODE":"533015","ROAD_TYPE":"B"}},{"type":"Feature","id":59,"geometry":{"type":"LineString","coordinates":[[77.708750683778035,20.823226101094047],[77.709544187685154,20.824896913524007],[77.710545151778049,20.827112513815479]]},"properties":{"FID":59,"LGD_CODE":"533015","ROAD_TYPE":"B"}},{"type":"Feature","id":60,"geometry":{"type":"LineString","coordinates":[[77.712104739721383,20.833120381262059],[77.709376108320299,20.8338040744339],[77.708701294268991,20.833882272859903]]},"properties":{"FID":60,"LGD_CODE":"533015","ROAD_TYPE":"C"}},{"type":"Feature","id":61,"geometry":{"type":"LineString","coordinates":[[77.702670935106326,20.839728150309121],[77.701992177500188,20.839987911778266],[77.701219288795201,20.840316474469585],[77.700579363267423,20.840627142549991],[77.700519281587148,20.840689189424687]]},"properties":{"FID":61,"LGD_CODE":"533015","ROAD_TYPE":"B"}},{"type":"Feature","id":62,"geometry":{"type":"LineString","coordinates":[[77.708472881359796,20.823170714993196],[77.708438017595896,20.823232000690105]]},"properties":{"FID":62,"LGD_CODE":"533015","ROAD_TYPE":"C"}},{"type":"Feature","id":63,"geometry":{"type":"LineString","coordinates":[[77.702458690181885,20.827050056252308],[77.702711528448859,20.82764010253268]]},"properties":{"FID":63,"LGD_CODE":"533015","ROAD_TYPE":"A"}},{"type":"Feature","id":64,"geometry":{"type":"LineString","coordinates":[[77.702813442617725,20.828059907734566],[77.702711528448859,20.82764010253268]]},"properties":{"FID":64,"LGD_CODE":"533015","ROAD_TYPE":"A"}},{"type":"Feature","id":65,"geometry":{"type":"LineString","coordinates":[[77.702306137819917,20.82707116348729],[77.702904805826861,20.828612668908377]]},"properties":{"FID":65,"LGD_CODE":"533015","ROAD_TYPE":"A"}},{"type":"Feature","id":66,"geometry":{"type":"LineString","coordinates":[[77.708530732053276,20.82249931657255],[77.708969145118203,20.823269656056372],[77.710832990841112,20.82707725134356],[77.711785905814239,20.829268152369202]]},"properties":{"FID":66,"LGD_CODE":"533015","ROAD_TYPE":"A"}},{"type":"Feature","id":67,"geometry":{"type":"LineString","coordinates":[[77.705591972781932,20.83398310829266],[77.70529156624464,20.833725454965109],[77.705127338623683,20.833506875413182],[77.704935622917603,20.833097437431174],[77.704518308853281,20.83192036414367],[77.704401165603045,20.831602704153784],[77.70355132121388,20.829669226096772],[77.70286183179816,20.828142188823648],[77.702813442617725,20.828059907734566]]},"properties":{"FID":67,"LGD_CODE":"533015","ROAD_TYPE":"A"}},{"type":"Feature","id":68,"geometry":{"type":"LineString","coordinates":[[77.702904805826861,20.828612668908377],[77.702969744221818,20.828779874987486],[77.703286385709518,20.829397814142435],[77.703376573951743,20.829573820316831],[77.704106680108524,20.831333782975054],[77.704414196255144,20.832092749020198],[77.704789435166347,20.833151923641662],[77.704866472120898,20.833342641125142],[77.705197787910151,20.833829513749706],[77.70521822718537,20.834029608092095]]},"properties":{"FID":68,"LGD_CODE":"533015","ROAD_TYPE":"A"}},{"type":"Feature","id":69,"geometry":{"type":"LineString","coordinates":[[77.696977533190065,20.834879355855936],[77.698152952969309,20.834734208521358],[77.699720884443707,20.834545662142386],[77.702098416624438,20.834342352064255],[77.70318316200219,20.834334234313094],[77.703999676759253,20.835033441223178]]},"properties":{"FID":69,"LGD_CODE":"533015","ROAD_TYPE":"A"}},{"type":"Feature","id":70,"geometry":{"type":"LineString","coordinates":[[77.707093486914445,20.838374318868471],[77.705654425775165,20.8385936445654],[77.70474580262497,20.838774226822366]]},"properties":{"FID":70,"LGD_CODE":"533015","ROAD_TYPE":"A"}},{"type":"Feature","id":71,"geometry":{"type":"LineString","coordinates":[[77.704769801325355,20.838920354496278],[77.707197083963621,20.838508831932575]]},"properties":{"FID":71,"LGD_CODE":"533015","ROAD_TYPE":"A"}},{"type":"Feature","id":72,"geometry":{"type":"LineString","coordinates":[[77.703900925764941,20.839125202659901],[77.703980841356298,20.839084614253338],[77.704769801325355,20.838920354496278]]},"properties":{"FID":72,"LGD_CODE":"533015","ROAD_TYPE":"A"}},{"type":"Feature","id":73,"geometry":{"type":"LineString","coordinates":[[77.70474580262497,20.838774226822366],[77.70395741392575,20.838958374749158],[77.703848758772622,20.839008168141362],[77.703729171896271,20.839062970555872],[77.702613344285993,20.839614725871598]]},"properties":{"FID":73,"LGD_CODE":"533015","ROAD_TYPE":"A"}},{"type":"Feature","id":74,"geometry":{"type":"LineString","coordinates":[[77.713064808556766,20.845290688642024],[77.712764289288998,20.845117338393166],[77.711599953222546,20.8442845194093],[77.710739453689726,20.843613422154135],[77.710276061399838,20.843203239667556],[77.710062634678536,20.842987292880551],[77.709167174025907,20.841950745572845],[77.709040201832735,20.841784597211557],[77.708892679405253,20.841509076491235],[77.708516134030376,20.840615913750206],[77.708214981316175,20.839836579357339],[77.708063628276449,20.839501362998178],[77.708010821668509,20.839286001077699],[77.707392374155006,20.838482155577129],[77.707296638782438,20.838341058620387],[77.706531633634725,20.837213569262932],[77.706401958094347,20.836986448997934],[77.706119542114251,20.83617336222547],[77.705874457216211,20.835664522529253]]},"properties":{"FID":74,"LGD_CODE":"533015","ROAD_TYPE":"A"}},{"type":"Feature","id":75,"geometry":{"type":"LineString","coordinates":[[77.707197083963621,20.838508831932575],[77.707882029811628,20.839364650999158],[77.708338263506874,20.840519149317977],[77.708888963922178,20.841796389929709],[77.709048970889768,20.842005960484286],[77.709634483438137,20.842670761596864],[77.710209645679654,20.843293983008394],[77.711451170590252,20.844330152259879],[77.71159132053991,20.844445516259732],[77.712913652864842,20.845365688537857]]},"properties":{"FID":75,"LGD_CODE":"533015","ROAD_TYPE":"A"}},{"type":"Feature","id":76,"geometry":{"type":"LineString","coordinates":[[77.711728502463131,20.828487725798272],[77.711109947390497,20.826989076658034],[77.710698586830631,20.826123696496722],[77.709316156041993,20.823427061791634],[77.708714439089476,20.822261083518153]]},"properties":{"FID":76,"LGD_CODE":"533015","ROAD_TYPE":"A"}},{"type":"Feature","id":77,"geometry":{"type":"LineString","coordinates":[[77.703975171689152,20.834898966808499],[77.703257242513629,20.834230968668933],[77.70296027619716,20.834169254804511],[77.702794278319473,20.834185651360063],[77.701353948231244,20.83425414136136],[77.699680438049,20.834415347333628],[77.699259952348513,20.834443973023138],[77.696986475921591,20.834778267802701]]},"properties":{"FID":77,"LGD_CODE":"533015","ROAD_TYPE":"A"}},{"type":"Feature","id":78,"geometry":{"type":"LineString","coordinates":[[77.702692569694577,20.83976996376807],[77.703900925764941,20.839125202659904]]},"properties":{"FID":78,"LGD_CODE":"533015","ROAD_TYPE":"A"}},{"type":"Feature","id":79,"geometry":{"type":"LineString","coordinates":[[77.705770553590781,20.835731105649572],[77.705976740536457,20.836244302497541],[77.706290730003673,20.837096724894252],[77.707093486914445,20.838374318868471]]},"properties":{"FID":79,"LGD_CODE":"533015","ROAD_TYPE":"A"}}]
}