{
  "type" : "FeatureCollection",
  "features" : [{"type":"Feature","id":0,"geometry":{"type":"Polygon","coordinates":[[[77.688368365542928,20.818995444412845],[77.688085408965051,20.819174285803829],[77.687256079872341,20.819181783792335],[77.686755719357606,20.819141214654046],[77.686042383546422,20.815633227625973],[77.685992347119353,20.815052039351674],[77.686259936005271,20.815035170711578],[77.686549945001744,20.815166655556467],[77.686794502395841,20.815513676267191],[77.687228361036546,20.815740081053423],[77.687997833105314,20.815867450670936],[77.688886527288489,20.816127742861923],[77.689384834291801,20.817117366970173],[77.690109614905424,20.818776109355714],[77.688368365542928,20.818995444412845]]]},"properties":{"FID":0,"Join_Count":2,"TARGET_FID":1,"Layer":"TEXT_PARCEL","Text":"19","vill_code":"533013","LGD_CODE":"533013"}},{"type":"Feature","id":1,"geometry":{"type":"Polygon","coordinates":[[[77.686502555889319,20.819142381210181],[77.685679239682244,20.8192133740095],[77.685026621787458,20.81815762605704],[77.68470338765357,20.817752800952707],[77.683856771510861,20.816332722592502],[77.68307532172517,20.815569771446501],[77.683000978753412,20.815279602871435],[77.683318666455961,20.815206555245609],[77.684144665886393,20.815119438794831],[77.685992347119353,20.815052039351674],[77.686042383546422,20.815633227625973],[77.686755719357606,20.819141214654046],[77.686502555889319,20.819142381210181]]]},"properties":{"FID":1,"Join_Count":2,"TARGET_FID":2,"Layer":"TEXT_PARCEL","Text":"20","vill_code":"533013","LGD_CODE":"533013"}},{"type":"Feature","id":2,"geometry":{"type":"Polygon","coordinates":[[[77.683007934325062,20.820504585423645],[77.682744645556213,20.820571380868447],[77.682639547159198,20.819825127503837],[77.682580714994543,20.818913292027261],[77.682183095737059,20.817732401788437],[77.680962248142023,20.816045138339227],[77.680870894581219,20.815803863418548],[77.683000978753412,20.815279602871435],[77.68307532172517,20.815569771446501],[77.683856771510861,20.816332722592502],[77.68470338765357,20.817752800952707],[77.683007934325062,20.820504585423645]]]},"properties":{"FID":2,"Join_Count":2,"TARGET_FID":3,"Layer":"TEXT_PARCEL","Text":"22","vill_code":"533013","LGD_CODE":"533013"}},{"type":"Feature","id":3,"geometry":{"type":"Polygon","coordinates":[[[77.689352154257449,20.821243362033456],[77.689024421648313,20.821834046648533],[77.688593894137568,20.821233502661986],[77.688444264963053,20.821295260136168],[77.688080640662051,20.820292697120077],[77.688085408965051,20.819174285803829],[77.688368365542928,20.818995444412845],[77.690109614905424,20.818776109355714],[77.690356606077472,20.819231267498264],[77.68989314185697,20.82009779783823],[77.689352154257449,20.821243362033456]]]},"properties":{"FID":3,"Join_Count":2,"TARGET_FID":4,"Layer":"TEXT_PARCEL","Text":"17","vill_code":"533013","LGD_CODE":"533013"}},{"type":"Feature","id":4,"geometry":{"type":"Polygon","coordinates":[[[77.682820311698279,20.821719302899378],[77.682972696670831,20.821958544016898],[77.682639103484718,20.82163198310878],[77.681589984676975,20.820627745660531],[77.681284107962426,20.820464725932776],[77.680520408408142,20.820384920953135],[77.680191516976194,20.816702787860446],[77.680141584544444,20.815894793458959],[77.680870894581219,20.815803863418548],[77.680962248142023,20.816045138339227],[77.682183095737059,20.817732401788437],[77.682580714994543,20.818913292027261],[77.682639547159198,20.819825127503837],[77.682744645556213,20.820571380868447],[77.682651634625358,20.821060993243758],[77.682690132516768,20.821402387533649],[77.682820311698279,20.821719302899378]]]},"properties":{"FID":4,"Join_Count":2,"TARGET_FID":5,"Layer":"TEXT_PARCEL","Text":"23","vill_code":"533013","LGD_CODE":"533013"}},{"type":"Feature","id":5,"geometry":{"type":"Polygon","coordinates":[[[77.683534853138497,20.822044021439289],[77.683421555556478,20.822290198112476],[77.682972696670831,20.821958544016898],[77.682820311698279,20.821719302899378],[77.682690132516768,20.821402387533649],[77.682651634625358,20.821060993243758],[77.682744645556213,20.820571380868447],[77.683007934325062,20.820504585423645],[77.68470338765357,20.817752800952707],[77.685026621787458,20.81815762605704],[77.685679239682244,20.8192133740095],[77.684435225049569,20.819780592058361],[77.684636901806968,20.821023369717803],[77.683534853138497,20.822044021439289]]]},"properties":{"FID":5,"Join_Count":2,"TARGET_FID":6,"Layer":"TEXT_PARCEL","Text":"21","vill_code":"533013","LGD_CODE":"533013"}},{"type":"Feature","id":6,"geometry":{"type":"Polygon","coordinates":[[[77.686129253331913,20.822853459684222],[77.68471976773526,20.823262291025422],[77.684324812943188,20.822787947795515],[77.683421555556478,20.822290198112476],[77.683534853138497,20.822044021439289],[77.684636901806968,20.821023369717803],[77.684435225049569,20.819780592058361],[77.685679239682244,20.8192133740095],[77.686502555889319,20.819142381210181],[77.686755719357606,20.819141214654046],[77.687256079872341,20.819181783792335],[77.688085408965051,20.819174285803829],[77.688080640662051,20.820292697120077],[77.688444264963053,20.821295260136168],[77.687901285606898,20.82151501673771],[77.686592415841702,20.821627224542635],[77.686744426236402,20.821881900710686],[77.687312190178147,20.822607616804842],[77.687085489161888,20.822676438978235],[77.686129253331913,20.822853459684222]]]},"properties":{"FID":6,"Join_Count":2,"TARGET_FID":7,"Layer":"TEXT_PARCEL","Text":"18","vill_code":"533013","LGD_CODE":"533013"}},{"type":"Feature","id":7,"geometry":{"type":"Polygon","coordinates":[[[77.68216588214058,20.822851478441926],[77.680923147696745,20.823908302491724],[77.680650493837049,20.821827662365731],[77.680577630633437,20.820519318922969],[77.680748227710779,20.820509817800897],[77.681167315865309,20.820569985780587],[77.681505471114249,20.820736593056758],[77.682576670377387,20.821741952354195],[77.68290350038707,20.822025903287678],[77.682786139205859,20.822070791298906],[77.682372072627146,20.822082236331759],[77.682231533524956,20.82224099542168],[77.68216588214058,20.822851478441926]]]},"properties":{"FID":7,"Join_Count":2,"TARGET_FID":8,"Layer":"TEXT_PARCEL","Text":"24","vill_code":"533013","LGD_CODE":"533013"}},{"type":"Feature","id":8,"geometry":{"type":"Polygon","coordinates":[[[77.691541069199673,20.823834308183514],[77.691053561995446,20.824114905030896],[77.690837373026326,20.823664486276165],[77.690847426088169,20.82347216645244],[77.689024421648313,20.821834046648533],[77.689352154257449,20.821243362033456],[77.68989314185697,20.82009779783823],[77.690356606077472,20.819231267498264],[77.692579407821555,20.823147933472264],[77.69264551355252,20.82326023876314],[77.692673322935292,20.823307483857093],[77.691541069199673,20.823834308183514]]]},"properties":{"FID":8,"Join_Count":2,"TARGET_FID":9,"Layer":"TEXT_PARCEL","Text":"16","vill_code":"533013","LGD_CODE":"533013"}},{"type":"Feature","id":9,"geometry":{"type":"Polygon","coordinates":[[[77.687457435237263,20.823929432052061],[77.686428399443969,20.824939698241984],[77.685676264416088,20.824271190641962],[77.685373050939731,20.823903573715636],[77.68471976773526,20.823262291025422],[77.686129253331913,20.822853459684222],[77.687085489161888,20.822676438978235],[77.687312190178147,20.822607616804842],[77.686744426236402,20.821881900710686],[77.686592415841702,20.821627224542635],[77.687901285606898,20.82151501673771],[77.688444264963053,20.821295260136168],[77.688593894137568,20.821233502661986],[77.689024421648313,20.821834046648533],[77.690847426088169,20.82347216645244],[77.690837373026326,20.823664486276165],[77.690675359662364,20.823819933353725],[77.690288671229524,20.823614752642637],[77.689775071403574,20.823290070213101],[77.689029430168077,20.823554929774936],[77.68870749880108,20.823693441987864],[77.687657190568217,20.823840867174425],[77.687457435237263,20.823929432052061]]]},"properties":{"FID":9,"Join_Count":2,"TARGET_FID":10,"Layer":"TEXT_PARCEL","Text":"15","vill_code":"533013","LGD_CODE":"533013"}},{"type":"Feature","id":10,"geometry":{"type":"Polygon","coordinates":[[[77.685874928630781,20.824614838183958],[77.686088415962132,20.826411865786476],[77.685917739849046,20.826300911292897],[77.68506107361253,20.825431789735699],[77.684473656303766,20.825310041254841],[77.683063593790166,20.824004575574975],[77.683193418471703,20.823629374622968],[77.683159736701057,20.823444745410043],[77.682946275673089,20.823164240904475],[77.683009422059769,20.822819795899765],[77.68290350038707,20.822025903287678],[77.683368097304395,20.822398257465029],[77.684229274758266,20.822896803982196],[77.684579474888693,20.823271593219456],[77.685874928630781,20.824614838183958]]]},"properties":{"FID":10,"Join_Count":2,"TARGET_FID":11,"Layer":"TEXT_PARCEL","Text":"26","vill_code":"533013","LGD_CODE":"533013"}},{"type":"Feature","id":11,"geometry":{"type":"Polygon","coordinates":[[[77.682051065815003,20.826149088443255],[77.681428146211104,20.826716174714257],[77.681028949779645,20.824580851878174],[77.680923147696745,20.823908302491724],[77.68216588214058,20.822851478441926],[77.682231533524956,20.82224099542168],[77.682372072627146,20.822082236331759],[77.682786139205859,20.822070791298906],[77.68290350038707,20.822025903287678],[77.683009422059769,20.822819795899765],[77.682946275673089,20.823164240904475],[77.683159736701057,20.823444745410043],[77.683193418471703,20.823629374622968],[77.683063593790166,20.824004575574975],[77.68227750719555,20.82488305541705],[77.682106519749439,20.825661041115243],[77.682051065815003,20.826149088443255]]]},"properties":{"FID":11,"Join_Count":2,"TARGET_FID":12,"Layer":"TEXT_PARCEL","Text":"25","vill_code":"533013","LGD_CODE":"533013"}},{"type":"Feature","id":12,"geometry":{"type":"MultiPolygon","coordinates":[[[[77.693491154909282,20.824641491902415],[77.69463181723529,20.824895657115235],[77.696414349724932,20.825563561438347],[77.694654979181962,20.826507767394279],[77.69297228333528,20.826949796030195],[77.69296160682353,20.826415388582969],[77.692998511192513,20.826153519560709],[77.692955146207169,20.82573785285518],[77.692996477034058,20.825207525551544],[77.693220812673587,20.824759653086176],[77.693456358100093,20.824607694411217],[77.693491154909282,20.824641491902415]]],[[[77.693310600279176,20.824405048708343],[77.693060166335897,20.824640017464958],[77.692897521416683,20.824898517660412],[77.692840876102821,20.825288226674669],[77.692797806078318,20.826745758045998],[77.692776742582851,20.827006720748269],[77.69233801042185,20.827124823392587],[77.692293721473845,20.824611956538437],[77.693125838488811,20.824082124963354],[77.693310600279176,20.824405048708343]]]]},"properties":{"FID":12,"Join_Count":2,"TARGET_FID":13,"Layer":"TEXT_PARCEL","Text":"11","vill_code":"533013","LGD_CODE":"533013"}},{"type":"Feature","id":13,"geometry":{"type":"Polygon","coordinates":[[[77.690585013609592,20.827264068944462],[77.690033483656393,20.827760534329833],[77.68986356995164,20.827375738084335],[77.689120806983652,20.824916828472801],[77.68870749880108,20.823693441987864],[77.689029430168077,20.823554929774936],[77.689775071403574,20.823290070213101],[77.690288671229524,20.823614752642637],[77.690675359662364,20.823819933353725],[77.690837373026326,20.823664486276165],[77.691053561995446,20.824114905030896],[77.691541069199673,20.823834308183514],[77.692673322935292,20.823307483857093],[77.693125838488712,20.824082124963223],[77.692293721473717,20.82461195653844],[77.691576704614334,20.825130754431616],[77.691247591223075,20.826500083831078],[77.69101387352211,20.826710540101871],[77.690826282487706,20.82677422454239],[77.690585013609592,20.827264068944462]]]},"properties":{"FID":13,"Join_Count":2,"TARGET_FID":15,"Layer":"TEXT_PARCEL","Text":"13","vill_code":"533013","LGD_CODE":"533013"}},{"type":"Feature","id":14,"geometry":{"type":"Polygon","coordinates":[[[77.690033483656393,20.827760534329833],[77.689649898636432,20.828107538344589],[77.689116721495765,20.827335082341531],[77.688747600780204,20.827051455576672],[77.687151507688483,20.825663066652741],[77.686428399443969,20.824939698241984],[77.687457435237263,20.823929432052061],[77.687657190568217,20.823840867174425],[77.68870749880108,20.823693441987864],[77.689120806983652,20.824916828472801],[77.68986356995164,20.827375738084335],[77.690033483656393,20.827760534329833]]]},"properties":{"FID":14,"Join_Count":2,"TARGET_FID":16,"Layer":"TEXT_PARCEL","Text":"14","vill_code":"533013","LGD_CODE":"533013"}},{"type":"Feature","id":15,"geometry":{"type":"Polygon","coordinates":[[[77.698565289301285,20.828092588278682],[77.698302443062289,20.828564597480064],[77.697052757864085,20.82806866646234],[77.696534546193689,20.827985854289796],[77.694938241180409,20.828100712106959],[77.693597133521976,20.828284588177908],[77.69351594266729,20.828101458898914],[77.693448308812336,20.828051925123852],[77.693168016251974,20.827972276478487],[77.693279890524551,20.827513204683495],[77.693237525286307,20.827415409779523],[77.693008924265968,20.827229969247274],[77.692972283335266,20.826949796030163],[77.694654979181848,20.826507767394197],[77.696414349724918,20.825563561438308],[77.69742099923711,20.825963812508157],[77.698966849207622,20.826687181497341],[77.699077642202894,20.827034572290909],[77.698565289301285,20.828092588278682]]]},"properties":{"FID":15,"Join_Count":2,"TARGET_FID":17,"Layer":"TEXT_PARCEL","Text":"10","vill_code":"533013","LGD_CODE":"533013"}},{"type":"Feature","id":16,"geometry":{"type":"Polygon","coordinates":[[[77.686088415962132,20.826411865786476],[77.686671139410379,20.829308903091228],[77.686067026409788,20.829310989348059],[77.684004746740769,20.82922312877638],[77.683886273981543,20.827490781714666],[77.684473656303766,20.825310041254841],[77.68506107361253,20.825431789735699],[77.685917739849046,20.826300911292897],[77.686088415962132,20.826411865786476]]]},"properties":{"FID":16,"Join_Count":2,"TARGET_FID":18,"Layer":"TEXT_PARCEL","Text":"28","vill_code":"533013","LGD_CODE":"533013"}},{"type":"Feature","id":17,"geometry":{"type":"Polygon","coordinates":[[[77.688342771236535,20.828819893306161],[77.686671139410379,20.829308903091228],[77.686088415962132,20.826411865786476],[77.685874928630781,20.824614838183958],[77.687086240529439,20.8258162951571],[77.68806863255621,20.826652658989719],[77.689105438300501,20.827483609680066],[77.689574628441406,20.828165341644308],[77.689318293729372,20.828367214035058],[77.688342771236535,20.828819893306161]]]},"properties":{"FID":17,"Join_Count":2,"TARGET_FID":19,"Layer":"TEXT_PARCEL","Text":"27","vill_code":"533013","LGD_CODE":"533013"}},{"type":"Feature","id":18,"geometry":{"type":"Polygon","coordinates":[[[77.693076097874382,20.829365194193173],[77.692306989396712,20.829397626625891],[77.692250351985649,20.829232503190944],[77.692176815680327,20.828123371546525],[77.691741098578078,20.828185772252379],[77.691858798577073,20.828602596778829],[77.69157715749472,20.828743427776178],[77.691042015295466,20.826883437505238],[77.69101387352211,20.826710540101871],[77.691247591223075,20.826500083831078],[77.691576704614334,20.825130754431616],[77.692293721473717,20.82461195653844],[77.692338010421793,20.827124823392506],[77.692776742582708,20.827006720748209],[77.692798201868143,20.827258605923241],[77.69284009722908,20.827402237945211],[77.693031672644366,20.827596130868468],[77.693042609383099,20.827690539633561],[77.69294391252285,20.827930599984256],[77.692933455335577,20.828009336114413],[77.693261840048237,20.828155280443298],[77.69338525525032,20.828260150122979],[77.693371235596842,20.828343313795958],[77.69328199167937,20.828473017825914],[77.69311712386974,20.828645059398557],[77.693100736423418,20.828745253407455],[77.693245795983245,20.828973485258309],[77.693224672416136,20.829107739968546],[77.693082520142056,20.829162330604191],[77.693054231659787,20.829220968398104],[77.693076097874382,20.829365194193173]]]},"properties":{"FID":18,"Join_Count":2,"TARGET_FID":20,"Layer":"TEXT_PARCEL","Text":"12","vill_code":"533013","LGD_CODE":"533013"}},{"type":"Feature","id":19,"geometry":{"type":"Polygon","coordinates":[[[77.691842337468557,20.829662696616008],[77.691382614628097,20.82971883109899],[77.691318661411628,20.829594270983094],[77.691208033034783,20.829158407932798],[77.69157715749472,20.828743427776178],[77.691858798577073,20.828602596778829],[77.691741098578078,20.828185772252379],[77.692176815680327,20.828123371546525],[77.692250351985649,20.829232503190944],[77.692306989396712,20.829397626625891],[77.692306834597147,20.829499446022364],[77.691842337468557,20.829662696616008]]]},"properties":{"FID":19,"Join_Count":2,"TARGET_FID":21,"Layer":"TEXT_MAPIN","Text":"ग\u093E\u0902वठ\u093Eण","vill_code":"533013","LGD_CODE":"533013"}},{"type":"Feature","id":20,"geometry":{"type":"Polygon","coordinates":[[[77.691318661411628,20.829594270983094],[77.690518469133622,20.829894038150574],[77.69028681660302,20.829318889516763],[77.689895523323543,20.828674181744013],[77.689691384978346,20.828214458634566],[77.689649898636432,20.828107538344589],[77.690033483656393,20.827760534329833],[77.690585013609592,20.827264068944462],[77.690826282487706,20.82677422454239],[77.69101387352211,20.826710540101871],[77.691042015295466,20.826883437505238],[77.69157715749472,20.828743427776178],[77.691208033034783,20.829158407932798],[77.691318661411628,20.829594270983094]]]},"properties":{"FID":20,"Join_Count":2,"TARGET_FID":22,"Layer":"TEXT_PARCEL","Text":"33","vill_code":"533013","LGD_CODE":"533013"}},{"type":"Feature","id":21,"geometry":{"type":"Polygon","coordinates":[[[77.683144158293175,20.830099121709736],[77.68245179896951,20.830339167682098],[77.681850508975586,20.828624819642517],[77.681549942182514,20.827347794509372],[77.681428146211104,20.826716174714257],[77.682051065815003,20.826149088443255],[77.682106519749439,20.825661041115243],[77.68227750719555,20.82488305541705],[77.683063593790166,20.824004575574975],[77.684473656303766,20.825310041254841],[77.683886273981543,20.827490781714666],[77.684004746740769,20.82922312877638],[77.683510700441943,20.829537824661983],[77.683144158293175,20.830099121709736]]]},"properties":{"FID":21,"Join_Count":2,"TARGET_FID":23,"Layer":"TEXT_PARCEL","Text":"29","vill_code":"533013","LGD_CODE":"533013"}},{"type":"Feature","id":22,"geometry":{"type":"Polygon","coordinates":[[[77.695297851582581,20.830107442989167],[77.695463148927701,20.830673967932302],[77.695248141927948,20.830523094253028],[77.695045537902033,20.830464993207627],[77.694570279113492,20.830449941636591],[77.694402919272804,20.830385599212686],[77.694227179862935,20.830190801974545],[77.693796577208715,20.829974680138186],[77.693666034773898,20.829878666056839],[77.693585762254301,20.829724868132761],[77.693325454272298,20.829499004442454],[77.693253123261471,20.829386989079779],[77.693283780259151,20.829311320902438],[77.693421114520334,20.829121846905856],[77.693449362366863,20.828978737117932],[77.693272620641466,20.828752318222868],[77.693327815250996,20.828641457280959],[77.693597133521976,20.828284588177908],[77.694938241180409,20.828100712106959],[77.695297851582581,20.830107442989167]]]},"properties":{"FID":22,"Join_Count":2,"TARGET_FID":24,"Layer":"TEXT_PARCEL","Text":"9","vill_code":"533013","LGD_CODE":"533013"}},{"type":"Feature","id":23,"geometry":{"type":"Polygon","coordinates":[[[77.691021693244849,20.831470242081032],[77.690891782839415,20.831517695097538],[77.690463948424892,20.830031014021678],[77.690197724683017,20.829381574279321],[77.68980939798368,20.828746325635329],[77.68966073176199,20.828420693256845],[77.689574628441406,20.828165341644308],[77.689105438300501,20.827483609680066],[77.68806863255621,20.826652658989719],[77.687086240529439,20.8258162951571],[77.685874928630781,20.824614838183958],[77.684579474888693,20.823271593219456],[77.684229274758266,20.822896803982196],[77.683368097304395,20.822398257465029],[77.68290350038707,20.822025903287678],[77.682576670377387,20.821741952354195],[77.681505471114249,20.820736593056758],[77.681167315865309,20.820569985780587],[77.680748227710779,20.820509817800897],[77.680577630633437,20.820519318922969],[77.680520408408142,20.820384920953135],[77.681284107962426,20.820464725932776],[77.681589984676975,20.820627745660531],[77.682639103484718,20.82163198310878],[77.682972696670831,20.821958544016898],[77.683421555556478,20.822290198112476],[77.684324812943188,20.822787947795515],[77.68471976773526,20.823262291025422],[77.685373050939731,20.823903573715636],[77.685676264416088,20.824271190641962],[77.686428399443969,20.824939698241984],[77.687151507688483,20.825663066652741],[77.688747600780204,20.827051455576672],[77.689116721495765,20.827335082341531],[77.689649898636432,20.828107538344589],[77.689691384978346,20.828214458634566],[77.689895523323543,20.828674181744013],[77.69028681660302,20.829318889516763],[77.690518469133622,20.829894038150574],[77.691318661411628,20.829594270983094],[77.691382614628097,20.82971883109899],[77.69090648182187,20.829903931064905],[77.690531472246818,20.829996714474138],[77.691021693244849,20.831470242081032]]]},"properties":{"FID":23,"Join_Count":1,"TARGET_FID":25,"Layer":"0","Text":"छन\u094Dस\u094Dस\u094D","vill_code":"533013","LGD_CODE":"533013"}},{"type":"Feature","id":24,"geometry":{"type":"Polygon","coordinates":[[[77.697495984846029,20.831718808717692],[77.69686461767165,20.831876516525465],[77.696451184773395,20.831831197385224],[77.695903376842097,20.831281778352068],[77.695727969645375,20.830964476234932],[77.695540325124483,20.830728123794195],[77.695463148927701,20.830673967932302],[77.695297851582581,20.830107442989167],[77.694938241180409,20.828100712106959],[77.696534546193689,20.827985854289796],[77.697052757864085,20.82806866646234],[77.698302443062289,20.828564597480064],[77.69818102872506,20.828869838481168],[77.697929442341007,20.8298224880701],[77.697549188756796,20.830824089798821],[77.697495984846029,20.831718808717692]]]},"properties":{"FID":24,"Join_Count":2,"TARGET_FID":26,"Layer":"TEXT_PARCEL","Text":"8","vill_code":"533013","LGD_CODE":"533013"}},{"type":"Feature","id":25,"geometry":{"type":"Polygon","coordinates":[[[77.684309748183779,20.831859840469427],[77.682946646076346,20.832214308549833],[77.682717489955252,20.831316589322643],[77.68245179896951,20.830339167682098],[77.683144158293175,20.830099121709736],[77.683510700441943,20.829537824661983],[77.684004746740769,20.82922312877638],[77.686067026409788,20.829310989348059],[77.686671139410379,20.829308903091228],[77.68670936459047,20.829914061140485],[77.686522301510564,20.829978565504746],[77.686328670429504,20.830204094195825],[77.68587089608819,20.830994059460163],[77.685141860057342,20.83123245340412],[77.685117669636497,20.831423663467028],[77.685046191803664,20.831527838491589],[77.684728169086213,20.83177725682069],[77.684309748183779,20.831859840469427]]]},"properties":{"FID":25,"Join_Count":2,"TARGET_FID":27,"Layer":"TEXT_PARCEL","Text":"30","vill_code":"533013","LGD_CODE":"533013"}},{"type":"Feature","id":26,"geometry":{"type":"Polygon","coordinates":[[[77.696232305063759,20.831911591112949],[77.695418201814419,20.832107709906033],[77.695029217406585,20.831703965907035],[77.694412846957206,20.831315152669134],[77.694102380702745,20.831093042837917],[77.693800685521239,20.830833299777545],[77.693664889944742,20.830741475386809],[77.692105710365112,20.831331992477391],[77.691178039004171,20.831498706281018],[77.691021693244849,20.831470242081032],[77.690531472246818,20.829996714474138],[77.69090648182187,20.829903931064905],[77.691382614628097,20.82971883109899],[77.691842337468557,20.829662696616008],[77.692306834597147,20.829499446022364],[77.692306989396712,20.829397626625891],[77.693076097874382,20.829365194193173],[77.693127628670538,20.829491312151909],[77.693183867861691,20.829547310705397],[77.693402413715233,20.829764920474947],[77.693612662080781,20.830071785272899],[77.694452705054843,20.830553811511074],[77.695357982920086,20.830799798557109],[77.695430693288912,20.830873777791318],[77.695506232648924,20.831061635264692],[77.695795149394954,20.83146325375089],[77.695929653689575,20.831559039249441],[77.696173938872988,20.831804822277341],[77.696232305063759,20.831911591112949]]]},"properties":{"FID":26,"Join_Count":2,"TARGET_FID":28,"Layer":"TEXT_PARCEL","Text":"1","vill_code":"533013","LGD_CODE":"533013"}},{"type":"Feature","id":27,"geometry":{"type":"Polygon","coordinates":[[[77.69234877653254,20.831879284534072],[77.690564917410413,20.832193218298602],[77.690504558315496,20.831800612485402],[77.690491711271875,20.831640877363881],[77.690463948424892,20.830031014021678],[77.690891782839415,20.831517695097538],[77.691021693244849,20.831470242081032],[77.691178039004171,20.831498706281018],[77.692105710365112,20.831331992477391],[77.69234877653254,20.831879284534072]]]},"properties":{"FID":27,"Join_Count":2,"TARGET_FID":29,"Layer":"TEXT_PARCEL","Text":"2","vill_code":"533013","LGD_CODE":"533013"}},{"type":"Feature","id":28,"geometry":{"type":"Polygon","coordinates":[[[77.683796214277578,20.832670722161648],[77.683087386626639,20.832862228679929],[77.682946646076346,20.832214308549833],[77.684309748183779,20.831859840469427],[77.684728169086213,20.83177725682069],[77.685046191803664,20.831527838491589],[77.685117669636497,20.831423663467028],[77.685141860057342,20.83123245340412],[77.68587089608819,20.830994059460163],[77.686328670429504,20.830204094195825],[77.686522301510564,20.829978565504746],[77.68670936459047,20.829914061140485],[77.686862437830015,20.83184649784975],[77.684006599499313,20.832613881055281],[77.683796214277578,20.832670722161648]]]},"properties":{"FID":28,"Join_Count":2,"TARGET_FID":30,"Layer":"TEXT_PARCEL","Text":"31","vill_code":"533013","LGD_CODE":"533013"}},{"type":"Feature","id":29,"geometry":{"type":"Polygon","coordinates":[[[77.691700909535186,20.833295762309366],[77.690687193214004,20.833382392480331],[77.690564917410413,20.832193218298602],[77.69234877653254,20.831879284534072],[77.692519718895738,20.832029372337299],[77.69241988120838,20.832062838264321],[77.692620045274069,20.832322425144749],[77.693000328180659,20.83283687904563],[77.692226348586175,20.832929563147253],[77.692078271833154,20.832957475650911],[77.692036693672421,20.833179504768573],[77.691700909535186,20.833295762309366]]]},"properties":{"FID":29,"Join_Count":2,"TARGET_FID":31,"Layer":"TEXT_PARCEL","Text":"5","vill_code":"533013","LGD_CODE":"533013"}},{"type":"Feature","id":30,"geometry":{"type":"Polygon","coordinates":[[[77.688815773064618,20.833567171149191],[77.687299302168356,20.83364908898545],[77.686862437830015,20.83184649784975],[77.68670936459047,20.829914061140485],[77.686671139410379,20.829308903091228],[77.688342771236535,20.828819893306161],[77.689318293729372,20.828367214035058],[77.689574628441406,20.828165341644308],[77.68966073176199,20.828420693256845],[77.68980939798368,20.828746325635329],[77.690197724683017,20.829381574279321],[77.690463948424892,20.830031014021678],[77.690491711271875,20.831640877363881],[77.690504558315496,20.831800612485402],[77.689890081545656,20.832504442040751],[77.689636631658985,20.832968313201299],[77.688815773064618,20.833567171149191]]]},"properties":{"FID":30,"Join_Count":2,"TARGET_FID":32,"Layer":"TEXT_PARCEL","Text":"32","vill_code":"533013","LGD_CODE":"533013"}},{"type":"Feature","id":31,"geometry":{"type":"MultiPolygon","coordinates":[[[[77.697804927545633,20.834316265431934],[77.697254790955469,20.83443640110346],[77.697072005271309,20.834476316230337],[77.696978712276064,20.834162064345886],[77.696892811553653,20.833465844956383],[77.69677164972552,20.833132768979624],[77.696641272588352,20.832987382865266],[77.6965674879566,20.83274319803099],[77.696469797750296,20.832615740910228],[77.696400666724912,20.832180431156985],[77.696451184773537,20.831831197385327],[77.696864617671736,20.831876516525597],[77.697495984846114,20.83171880871771],[77.697804927545633,20.834316265431934]]],[[[77.69625341925223,20.831950215797349],[77.696263248687103,20.832200963898003],[77.69625250092173,20.832486678490056],[77.696313823021342,20.832668407856211],[77.696496257831143,20.833016387572915],[77.69664915962619,20.833217672618787],[77.696832048523675,20.833917034185504],[77.696857010806013,20.834327416867442],[77.696804111834979,20.834544723341768],[77.696699994806693,20.834571309246432],[77.696684255918683,20.833654326160175],[77.696493300840586,20.833233487135772],[77.69622819520589,20.832791473903175],[77.695418201814448,20.832107709906097],[77.696232305063802,20.831911591112892],[77.69625341925223,20.831950215797349]]]]},"properties":{"FID":31,"Join_Count":2,"TARGET_FID":33,"Layer":"TEXT_PARCEL","Text":"7","vill_code":"533013","LGD_CODE":"533013"}},{"type":"Feature","id":32,"geometry":{"type":"Polygon","coordinates":[[[77.696861924435424,20.834529960665694],[77.696804111834936,20.834544723341768],[77.6968570108059,20.834327416867445],[77.696832048523632,20.8339170341855],[77.69664915962619,20.833217672618666],[77.696496257831086,20.833016387572926],[77.69631382302137,20.832668407856168],[77.696252500921688,20.83248667849001],[77.696263248687089,20.832200963897904],[77.696253419252145,20.831950215797228],[77.696232305063759,20.831911591112949],[77.696173938872988,20.831804822277341],[77.695929653689575,20.831559039249441],[77.695795149394954,20.83146325375089],[77.695506232648924,20.831061635264692],[77.695430693288912,20.830873777791318],[77.695357982920086,20.830799798557109],[77.694452705054843,20.830553811511074],[77.693612662080781,20.830071785272899],[77.693402413715233,20.829764920474947],[77.693183867861691,20.829547310705397],[77.693127628670538,20.829491312151909],[77.693076097874382,20.829365194193173],[77.693054231659787,20.829220968398104],[77.693082520142056,20.829162330604191],[77.693224672416136,20.829107739968546],[77.693245795983245,20.828973485258309],[77.693100736423418,20.828745253407455],[77.69311712386974,20.828645059398557],[77.69328199167937,20.828473017825914],[77.693371235596842,20.828343313795958],[77.69338525525032,20.828260150122979],[77.693261840048237,20.828155280443298],[77.692933455335577,20.828009336114413],[77.69294391252285,20.827930599984256],[77.693042609383099,20.827690539633561],[77.693031672644366,20.827596130868468],[77.69284009722908,20.827402237945211],[77.692798201868143,20.827258605923241],[77.692776742582708,20.827006720748209],[77.692797806078275,20.826745758045945],[77.692840876102778,20.825288226674541],[77.692897521416597,20.824898517660408],[77.693060166335982,20.824640017464894],[77.69331060027919,20.824405048708368],[77.69333926760774,20.824455152973407],[77.693381994606113,20.824529830651006],[77.693456358099951,20.824607694411132],[77.693220812673502,20.824759653086122],[77.692996477034129,20.825207525551459],[77.692955146207098,20.825737852855262],[77.692998511192499,20.826153519560574],[77.692961606823474,20.826415388583047],[77.692972283335266,20.826949796030163],[77.693008924265968,20.827229969247274],[77.693237525286307,20.827415409779523],[77.693279890524551,20.827513204683495],[77.693168016251974,20.827972276478487],[77.693448308812336,20.828051925123852],[77.69351594266729,20.828101458898914],[77.693597133521976,20.828284588177908],[77.693327815250996,20.828641457280959],[77.693272620641466,20.828752318222868],[77.693449362366863,20.828978737117932],[77.693421114520334,20.829121846905856],[77.693283780259151,20.829311320902438],[77.693253123261471,20.829386989079779],[77.693325454272298,20.829499004442454],[77.693585762254301,20.829724868132761],[77.693666034773898,20.829878666056839],[77.693796577208715,20.829974680138186],[77.694227179862935,20.830190801974545],[77.694402919272804,20.830385599212686],[77.694570279113492,20.830449941636591],[77.695045537902033,20.830464993207627],[77.695248141927948,20.830523094253028],[77.695463148927701,20.830673967932302],[77.695540325124483,20.830728123794195],[77.695727969645375,20.830964476234932],[77.695903376842097,20.831281778352068],[77.696451184773395,20.831831197385224],[77.696400666724841,20.832180431156971],[77.696469797750197,20.832615740910256],[77.696567487956628,20.832743198030954],[77.69664127258828,20.832987382865237],[77.69677164972542,20.83313276897951],[77.696892811553525,20.833465844956326],[77.696978712275993,20.834162064345804],[77.697072005271195,20.83447631623028],[77.697002868050731,20.834493970353027],[77.696861924435424,20.834529960665694]]]},"properties":{"FID":32,"Join_Count":1,"TARGET_FID":34,"Layer":"0","Text":"छन\u094Dस\u094Dस\u094D","vill_code":"533013","LGD_CODE":"533013"}},{"type":"Feature","id":33,"geometry":{"type":"Polygon","coordinates":[[[77.694566428313465,20.834749722410685],[77.694531135108022,20.834864949100169],[77.693723109353471,20.834091978384603],[77.693000328180659,20.83283687904563],[77.692620045274069,20.832322425144749],[77.69241988120838,20.832062838264321],[77.692519718895738,20.832029372337299],[77.692710403571695,20.832219485335195],[77.693064131939039,20.832754534054391],[77.693767892206282,20.833953174947382],[77.694566428313465,20.834749722410685]]]},"properties":{"FID":33,"Join_Count":1,"TARGET_FID":36,"Layer":"0","Text":"छन\u094Dस\u094Dस\u094D","vill_code":"533013","LGD_CODE":"533013"}},{"type":"Feature","id":34,"geometry":{"type":"Polygon","coordinates":[[[77.695796213986156,20.834802085647251],[77.694593103262179,20.835105057771411],[77.694531135108022,20.834864949100169],[77.694566428313465,20.834749722410685],[77.693767892206282,20.833953174947382],[77.693064131939039,20.832754534054391],[77.692710403571695,20.832219485335195],[77.692519718895738,20.832029372337299],[77.69234877653254,20.831879284534072],[77.692105710365112,20.831331992477391],[77.693664889944742,20.830741475386809],[77.693800685521239,20.830833299777545],[77.694102380702745,20.831093042837917],[77.694412846957206,20.831315152669134],[77.695029217406585,20.831703965907035],[77.695418201814419,20.832107709906033],[77.696228195205833,20.832791473903054],[77.696493300840473,20.83323348713575],[77.696684255918655,20.833654326160119],[77.696699994806636,20.834571309246368],[77.696121440446291,20.834719041611994],[77.695796213986156,20.834802085647251]]]},"properties":{"FID":34,"Join_Count":2,"TARGET_FID":37,"Layer":"TEXT_PARCEL","Text":"6","vill_code":"533013","LGD_CODE":"533013"}},{"type":"Feature","id":35,"geometry":{"type":"Polygon","coordinates":[[[77.692637733918119,20.835678209889064],[77.692171198463555,20.835792771025286],[77.691093132387792,20.835787186793652],[77.691081277324656,20.835339753072496],[77.691312179532716,20.835136370253224],[77.69167630477358,20.834442764709308],[77.691855774165091,20.833886525934226],[77.692036693672421,20.833179504768573],[77.692078271833154,20.832957475650911],[77.692226348586175,20.832929563147253],[77.693000328180659,20.83283687904563],[77.693723109353471,20.834091978384603],[77.694531135108022,20.834864949100169],[77.694593103262179,20.835105057771411],[77.692637733918119,20.835678209889064]]]},"properties":{"FID":35,"Join_Count":2,"TARGET_FID":38,"Layer":"TEXT_PARCEL","Text":"4","vill_code":"533013","LGD_CODE":"533013"}},{"type":"Feature","id":36,"geometry":{"type":"Polygon","coordinates":[[[77.689792513638267,20.835956070769356],[77.688665100351841,20.836068176206169],[77.688272095237309,20.836021061958093],[77.687414002373274,20.834100438048463],[77.687299302168356,20.83364908898545],[77.688815773064618,20.833567171149191],[77.689636631658985,20.832968313201299],[77.689890081545656,20.832504442040751],[77.690504558315496,20.831800612485402],[77.690564917410413,20.832193218298602],[77.690687193214004,20.833382392480331],[77.691700909535186,20.833295762309366],[77.692036693672421,20.833179504768573],[77.691855774165091,20.833886525934226],[77.69167630477358,20.834442764709308],[77.691312179532716,20.835136370253224],[77.691081277324656,20.835339753072496],[77.691093132387792,20.835787186793652],[77.689878275350821,20.835947542304897],[77.689792513638267,20.835956070769356]]]},"properties":{"FID":36,"Join_Count":2,"TARGET_FID":39,"Layer":"TEXT_PARCEL","Text":"3","vill_code":"533013","LGD_CODE":"533013"}}]
}