{
  "type" : "FeatureCollection",
  "features" : [{"type":"Feature","id":0,"geometry":{"type":"LineString","coordinates":[[77.690531471947509,20.829996714678259],[77.690906481007403,20.829903931677585],[77.691382613778771,20.829718831851281]]},"properties":{"FID":0,"LGD_CODE":"533013","ROAD_TYPE":"A"}},{"type":"Feature","id":1,"geometry":{"type":"LineString","coordinates":[[77.683421554825827,20.822290198109688],[77.682972696595158,20.821958544213629]]},"properties":{"FID":1,"LGD_CODE":"533013","ROAD_TYPE":"A"}},{"type":"Feature","id":2,"geometry":{"type":"LineString","coordinates":[[77.682972696595158,20.821958544213629],[77.682639103321804,20.821631983762302],[77.681589983920489,20.820627746184272],[77.681284107178811,20.820464726451366],[77.681284107178811,20.820464726451366]]},"properties":{"FID":2,"LGD_CODE":"533013","ROAD_TYPE":"A"}},{"type":"Feature","id":3,"geometry":{"type":"LineString","coordinates":[[77.681284107178811,20.820464726451366],[77.680520408011034,20.820384920882002]]},"properties":{"FID":3,"LGD_CODE":"533013","ROAD_TYPE":"A"}},{"type":"Feature","id":4,"geometry":{"type":"LineString","coordinates":[[77.691021692466592,20.831470242227322],[77.690531471947509,20.829996714678259]]},"properties":{"FID":4,"LGD_CODE":"533013","ROAD_TYPE":"A"}},{"type":"Feature","id":5,"geometry":{"type":"LineString","coordinates":[[77.692419880847524,20.832062838288778],[77.692620044980714,20.832322425448055]]},"properties":{"FID":5,"LGD_CODE":"533013","ROAD_TYPE":"A"}},{"type":"Feature","id":6,"geometry":{"type":"LineString","coordinates":[[77.689660731165091,20.828420693510981],[77.689663291705756,20.828416559005284]]},"properties":{"FID":6,"LGD_CODE":"533013","ROAD_TYPE":"B"}},{"type":"Feature","id":7,"geometry":{"type":"LineString","coordinates":[[77.689707595806311,20.828510817016362],[77.689357427102891,20.82897961204446],[77.688966347537587,20.829346917705273],[77.687891028778168,20.830031892432395],[77.686507949136455,20.830714244459191],[77.685951197704412,20.831056373132718],[77.685378253493198,20.831514889463513],[77.684783652648221,20.831974641569108],[77.684224482029919,20.832377521849462],[77.684006598707967,20.832613881382283]]},"properties":{"FID":7,"LGD_CODE":"533013","ROAD_TYPE":"B"}},{"type":"Feature","id":8,"geometry":{"type":"LineString","coordinates":[[77.692534741245126,20.823468196227839],[77.692645513282926,20.823260239505604]]},"properties":{"FID":8,"LGD_CODE":"533013","ROAD_TYPE":"B"}},{"type":"Feature","id":9,"geometry":{"type":"LineString","coordinates":[[77.691936899588541,20.824511078223356],[77.691710191506104,20.824961177744203],[77.691563595906487,20.825467497805334],[77.691363404768893,20.826255438741942],[77.691305457981912,20.82649112302202],[77.691135985990528,20.826698545114336],[77.69087421950006,20.826908357679308],[77.690662065690091,20.827297188686707],[77.690397073508649,20.827559143761398],[77.690100391339499,20.827773838149621],[77.689657245181039,20.828126472105016]]},"properties":{"FID":9,"LGD_CODE":"533013","ROAD_TYPE":"B"}},{"type":"Feature","id":10,"geometry":{"type":"LineString","coordinates":[[77.69047688978597,20.831854085021718],[77.6903772268289,20.832538546859183],[77.69017283966123,20.833769925044056],[77.689792513264067,20.83595607094859]]},"properties":{"FID":10,"LGD_CODE":"533013","ROAD_TYPE":"B"}},{"type":"Feature","id":11,"geometry":{"type":"LineString","coordinates":[[77.689878275236396,20.83594754281809],[77.690010931135191,20.835281456530979],[77.690210813143381,20.834098640629204],[77.690360027466525,20.833053974577616],[77.690519038037849,20.832136755655842],[77.690540139686249,20.831734620612771]]},"properties":{"FID":11,"LGD_CODE":"533013","ROAD_TYPE":"B"}},{"type":"Feature","id":12,"geometry":{"type":"LineString","coordinates":[[77.690540139686249,20.831734620612771],[77.690594789381237,20.831398193866239],[77.69056088316934,20.830559631819707],[77.690559905808414,20.830353784332313]]},"properties":{"FID":12,"LGD_CODE":"533013","ROAD_TYPE":"C"}},{"type":"Feature","id":13,"geometry":{"type":"LineString","coordinates":[[77.690891782739612,20.831517695826673],[77.691032182646339,20.831568817975278],[77.692273195566301,20.831954330711117],[77.692419880847524,20.832062838288778]]},"properties":{"FID":13,"LGD_CODE":"533013","ROAD_TYPE":"B"}},{"type":"Feature","id":14,"geometry":{"type":"LineString","coordinates":[[77.692348775752038,20.831879284407169],[77.691858879011875,20.831738916130675],[77.691021692466592,20.831470242227322]]},"properties":{"FID":14,"LGD_CODE":"533013","ROAD_TYPE":"B"}},{"type":"Feature","id":15,"geometry":{"type":"LineString","coordinates":[[77.694531135110836,20.834864949576005],[77.694814399972742,20.834840584998762],[77.695796213099626,20.834802086323272]]},"properties":{"FID":15,"LGD_CODE":"533013","ROAD_TYPE":"B"}},{"type":"Feature","id":16,"geometry":{"type":"LineString","coordinates":[[77.694566428200829,20.834749722339321],[77.696121439655471,20.834719041653209]]},"properties":{"FID":16,"LGD_CODE":"533013","ROAD_TYPE":"B"}},{"type":"Feature","id":17,"geometry":{"type":"LineString","coordinates":[[77.691382613778771,20.829718831851281],[77.691318660945882,20.829594271416916]]},"properties":{"FID":17,"LGD_CODE":"533013","ROAD_TYPE":"A"}},{"type":"Feature","id":18,"geometry":{"type":"LineString","coordinates":[[77.692620044980714,20.832322425448055],[77.693000327932864,20.83283687908639],[77.693000327932864,20.83283687908639]]},"properties":{"FID":18,"LGD_CODE":"533013","ROAD_TYPE":"A"}},{"type":"Feature","id":19,"geometry":{"type":"LineString","coordinates":[[77.693000327932864,20.83283687908639],[77.693000327932864,20.83283687908639],[77.69372310939761,20.834091978536023],[77.694531135110836,20.834864949576005]]},"properties":{"FID":19,"LGD_CODE":"533013","ROAD_TYPE":"A"}},{"type":"Feature","id":20,"geometry":{"type":"LineString","coordinates":[[77.694566428200829,20.834749722339321],[77.693767892187168,20.833953174923909],[77.693064131535706,20.832754533908314],[77.692710403462883,20.832219485616683],[77.692519718624339,20.832029373001522]]},"properties":{"FID":20,"LGD_CODE":"533013","ROAD_TYPE":"A"}},{"type":"Feature","id":21,"geometry":{"type":"LineString","coordinates":[[77.689657245181039,20.828126472105016],[77.689645001413766,20.828094916297353]]},"properties":{"FID":21,"LGD_CODE":"533013","ROAD_TYPE":"A"}},{"type":"Feature","id":22,"geometry":{"type":"LineString","coordinates":[[77.689645001413766,20.828094916297353],[77.689116721105279,20.82733508231043],[77.68874760000719,20.827051455768203],[77.687151507282621,20.825663066583509],[77.686428398723578,20.82493969823625]]},"properties":{"FID":22,"LGD_CODE":"533013","ROAD_TYPE":"A"}},{"type":"Feature","id":23,"geometry":{"type":"LineString","coordinates":[[77.686428398723578,20.82493969823625],[77.685676263772791,20.824271191374741],[77.685373050272517,20.823903574404152],[77.684719767037151,20.823262291748922]]},"properties":{"FID":23,"LGD_CODE":"533013","ROAD_TYPE":"A"}},{"type":"Feature","id":24,"geometry":{"type":"LineString","coordinates":[[77.684719767037151,20.823262291748922],[77.684324812917367,20.82278794808067],[77.683421554825827,20.822290198109688]]},"properties":{"FID":24,"LGD_CODE":"533013","ROAD_TYPE":"A"}},{"type":"Feature","id":25,"geometry":{"type":"LineString","coordinates":[[77.680577630414959,20.82051931923127],[77.680748227749078,20.820509818544036],[77.681167315354486,20.82056998623591],[77.681505470626192,20.820736593746641],[77.682576669483652,20.82174195308415]]},"properties":{"FID":25,"LGD_CODE":"533013","ROAD_TYPE":"A"}},{"type":"Feature","id":26,"geometry":{"type":"LineString","coordinates":[[77.682902696038383,20.822020950852533],[77.683368097015872,20.822398257392496],[77.684229274760497,20.822896804273157],[77.684579474254079,20.823271593495775],[77.685874928083422,20.824614838295375]]},"properties":{"FID":26,"LGD_CODE":"533013","ROAD_TYPE":"A"}},{"type":"Feature","id":27,"geometry":{"type":"LineString","coordinates":[[77.685874928083422,20.824614838295375],[77.687086239970128,20.825816295462822],[77.688068631880469,20.826652658881763],[77.689105437909689,20.827483609970745],[77.689574628297706,20.828165342344683]]},"properties":{"FID":27,"LGD_CODE":"533013","ROAD_TYPE":"A"}},{"type":"Feature","id":28,"geometry":{"type":"LineString","coordinates":[[77.689809397641866,20.828746325734674],[77.690197724636505,20.829381574312944],[77.690463947763234,20.830031014045328]]},"properties":{"FID":28,"LGD_CODE":"533013","ROAD_TYPE":"A"}},{"type":"Feature","id":29,"geometry":{"type":"LineString","coordinates":[[77.689574628297706,20.828165342344683],[77.689660731165091,20.828420693510981]]},"properties":{"FID":29,"LGD_CODE":"533013","ROAD_TYPE":"A"}},{"type":"Feature","id":30,"geometry":{"type":"LineString","coordinates":[[77.689660731165091,20.828420693510981],[77.689809397641866,20.828746325734674]]},"properties":{"FID":30,"LGD_CODE":"533013","ROAD_TYPE":"A"}},{"type":"Feature","id":31,"geometry":{"type":"LineString","coordinates":[[77.691318660945882,20.829594271416916],[77.690518468696496,20.829894038250448],[77.69028681612329,20.82931888965194],[77.689895522668422,20.828674182471143],[77.689691384516578,20.828214459177477]]},"properties":{"FID":31,"LGD_CODE":"533013","ROAD_TYPE":"A"}},{"type":"Feature","id":32,"geometry":{"type":"LineString","coordinates":[[77.689691384516578,20.828214459177477],[77.689657245181039,20.828126472105016]]},"properties":{"FID":32,"LGD_CODE":"533013","ROAD_TYPE":"A"}},{"type":"Feature","id":33,"geometry":{"type":"LineString","coordinates":[[77.690463947763234,20.830031014045328],[77.690891782739612,20.831517695826673]]},"properties":{"FID":33,"LGD_CODE":"533013","ROAD_TYPE":"A"}},{"type":"Feature","id":34,"geometry":{"type":"LineString","coordinates":[[77.692586501110725,20.823159984226233],[77.69254208164115,20.823254919081879]]},"properties":{"FID":34,"LGD_CODE":"533013","ROAD_TYPE":"B"}},{"type":"Feature","id":35,"geometry":{"type":"LineString","coordinates":[[77.69254208164115,20.823254919081879],[77.692296285230313,20.823780241791724],[77.69197816336893,20.824429154054766],[77.691936899588541,20.824511078223356]]},"properties":{"FID":35,"LGD_CODE":"533013","ROAD_TYPE":"B"}},{"type":"Feature","id":36,"geometry":{"type":"LineString","coordinates":[[77.689691384516578,20.828214459177477],[77.69004321739969,20.827931539518765],[77.690134112517043,20.827828198446721],[77.690465435963688,20.827605750250015],[77.690743131580959,20.827305543068547],[77.690963418229586,20.826945112959962],[77.691318240934265,20.826626061939944],[77.691471379407034,20.826217512088789],[77.691587129653328,20.825730275390967],[77.69170204993479,20.825205560387474],[77.691845992394789,20.824814855729226],[77.691981905929808,20.824543943906207]]},"properties":{"FID":36,"LGD_CODE":"533013","ROAD_TYPE":"B"}},{"type":"Feature","id":37,"geometry":{"type":"LineString","coordinates":[[77.691981905929808,20.824543943906207],[77.692089761650692,20.824328958099823],[77.692368414525021,20.823780446888097],[77.692534741245126,20.823468196227839]]},"properties":{"FID":37,"LGD_CODE":"533013","ROAD_TYPE":"B"}},{"type":"Feature","id":38,"geometry":{"type":"LineString","coordinates":[[77.683796213917276,20.832670722521421],[77.684014344510956,20.832471797097785],[77.684660221717522,20.831964375130653],[77.685245356042799,20.831519597384634],[77.685972268761702,20.83096279769218],[77.686365820024449,20.830650202489391],[77.686913671395047,20.830386519378138],[77.687459345207358,20.830099866325902],[77.688218526890836,20.829711522422834],[77.689006867684,20.829171405419832],[77.689284336232276,20.828954924571413],[77.689525219386411,20.828639504078495],[77.689660731165091,20.828420693510981]]},"properties":{"FID":38,"LGD_CODE":"533013","ROAD_TYPE":"B"}},{"type":"Feature","id":39,"geometry":{"type":"LineString","coordinates":[[77.692419880847524,20.832062838288778],[77.692519718624339,20.832029373001522]]},"properties":{"FID":39,"LGD_CODE":"533013","ROAD_TYPE":"A"}},{"type":"Feature","id":40,"geometry":{"type":"LineString","coordinates":[[77.682576669483652,20.82174195308415],[77.682902696038383,20.822020950852533]]},"properties":{"FID":40,"LGD_CODE":"533013","ROAD_TYPE":"A"}}]
}