{
  "type" : "FeatureCollection",
  "features" : [{"type":"Feature","id":0,"geometry":{"type":"Polygon","coordinates":[[[77.69461786505066,20.837415238063937],[77.692623975712763,20.837740377115566],[77.692564037022308,20.836687541544006],[77.692514877998633,20.8354682472179],[77.69407923531557,20.835224593964451],[77.694125707187368,20.835435758144406],[77.694244565057502,20.835843873448184],[77.694270738710003,20.836015029288227],[77.694427635056783,20.836606984212334],[77.694474113738181,20.836817010511712],[77.694555927541629,20.837124944305504],[77.694607242704436,20.837336085241702],[77.69461786505066,20.837415238063937]]]},"properties":{"FID":0,"Join_Count":2,"TARGET_FID":1,"Layer":"TEXT_PARCEL","Text":"1","vill_code":"533014","LGD_CODE":"533014"}},{"type":"Feature","id":1,"geometry":{"type":"Polygon","coordinates":[[[77.69090025735423,20.838415476587212],[77.690678956517232,20.838555344883954],[77.690432716079457,20.837385102917526],[77.690124021192929,20.835977620687093],[77.690057882894948,20.835623525764646],[77.69016975274991,20.835616468484918],[77.691086232678231,20.835641352298548],[77.691413695421772,20.835634933084442],[77.692514877998633,20.8354682472179],[77.692564037022308,20.836687541544006],[77.692623975712763,20.837740377115566],[77.691514323429104,20.838126656149154],[77.691079781666971,20.838283325777237],[77.69090025735423,20.838415476587212]]]},"properties":{"FID":1,"Join_Count":2,"TARGET_FID":2,"Layer":"TEXT_PARCEL","Text":"2","vill_code":"533014","LGD_CODE":"533014"}},{"type":"Feature","id":2,"geometry":{"type":"Polygon","coordinates":[[[77.689864932012966,20.839491757742056],[77.689216239072607,20.840264187116841],[77.688892775736718,20.839033688612563],[77.688852147209005,20.838838724165623],[77.688697105723762,20.838094729438783],[77.68851823850288,20.837177986450389],[77.688348095703674,20.836305601298989],[77.688247154613308,20.835728974000133],[77.690057882894948,20.835623525764646],[77.690124021192929,20.835977620687093],[77.690432716079457,20.837385102917526],[77.690678956517232,20.838555344883954],[77.689864932012966,20.839491757742056]]]},"properties":{"FID":2,"Join_Count":2,"TARGET_FID":3,"Layer":"TEXT_PARCEL","Text":"3","vill_code":"533014","LGD_CODE":"533014"}},{"type":"Feature","id":3,"geometry":{"type":"Polygon","coordinates":[[[77.693134549866315,20.84004627907354],[77.692456436453341,20.840455288685867],[77.69151438470054,20.840460756766614],[77.689992265143786,20.840324242974805],[77.689216239072607,20.840264187116841],[77.689864932012966,20.839491757742056],[77.690678956517232,20.838555344883954],[77.69090025735423,20.838415476587212],[77.691079781666971,20.838283325777237],[77.691514323429104,20.838126656149154],[77.692623975712763,20.837740377115566],[77.69461786505066,20.837415238063937],[77.694639109775522,20.837573542798246],[77.694669436947393,20.83765275292409],[77.694674919646289,20.837709912418898],[77.694716297831533,20.837912232835393],[77.69473206003984,20.838013378043822],[77.694762643919333,20.838118963003019],[77.694903565408595,20.838784871920279],[77.694446403118135,20.839035875377203],[77.694008749482748,20.839495617649824],[77.693817776115225,20.839687849907961],[77.693513344283744,20.839821070538054],[77.693134549866315,20.84004627907354]]]},"properties":{"FID":3,"Join_Count":2,"TARGET_FID":4,"Layer":"TEXT_PARCEL","Text":"4","vill_code":"533014","LGD_CODE":"533014"}},{"type":"Feature","id":4,"geometry":{"type":"Polygon","coordinates":[[[77.693564559700178,20.842276593654134],[77.693515532861156,20.842330112124014],[77.693433955020154,20.842251785940309],[77.693475273055,20.842206749911643],[77.693530240014795,20.84211499698473],[77.693597031540037,20.842050767665285],[77.693679550450369,20.842019227010269],[77.693781415734946,20.841996332532904],[77.693850450939962,20.841964752102729],[77.693924965022504,20.841902263680872],[77.694003230362597,20.84182947719021],[77.694099165972034,20.841791103836449],[77.694212705187596,20.841780270481735],[77.694335958545338,20.841778055151796],[77.694439766374543,20.841756884832275],[77.694502806031622,20.841702952361626],[77.694583331167962,20.841664533326096],[77.694681494290563,20.841657089881586],[77.694785719441327,20.841678871268545],[77.694874519142658,20.841698889345572],[77.694941861800402,20.841691355855243],[77.695008937537054,20.841656333554894],[77.695079697749847,20.841604140977907],[77.695146940253423,20.841586299570611],[77.695225890296385,20.841583953253075],[77.695307018726439,20.84160738541404],[77.695370859880001,20.841635919880893],[77.695469123020374,20.841638784732176],[77.695460688528485,20.84176159950152],[77.695159777611309,20.841717766200375],[77.695042328122071,20.841722575760002],[77.694925354273337,20.841776349974069],[77.694759773090681,20.841783595459219],[77.694605683084291,20.841784002424152],[77.694515459891107,20.841815520318892],[77.694427463484743,20.841877970206149],[77.694329667998474,20.841923211055111],[77.69422743604494,20.841908307390817],[77.69412929842062,20.841918326868786],[77.693953095451675,20.842021749402949],[77.693730546129416,20.842113009598862],[77.693564559700178,20.842276593654134]]]},"properties":{"FID":4,"Join_Count":1,"TARGET_FID":5,"Layer":"POLY_PARCEL","Text":"छन\u094Dस\u094Dस\u094D","vill_code":"533014","LGD_CODE":"533014"}},{"type":"Feature","id":5,"geometry":{"type":"Polygon","coordinates":[[[77.694022265741083,20.842174420091403],[77.693720841146245,20.842541218830245],[77.69357707047395,20.842389195586488],[77.693515532861156,20.842330112124014],[77.693564559700178,20.842276593654134],[77.693730546129416,20.842113009598862],[77.693953095451675,20.842021749402949],[77.69412929842062,20.841918326868786],[77.69422743604494,20.841908307390817],[77.694329667998474,20.841923211055111],[77.694427463484743,20.841877970206149],[77.694515459891107,20.841815520318892],[77.694605683084291,20.841784002424152],[77.694759773090681,20.841783595459219],[77.694925354273337,20.841776349974069],[77.695042328122071,20.841722575760002],[77.695159777611309,20.841717766200375],[77.695460688528485,20.84176159950152],[77.695469123020374,20.841638784732176],[77.695370859880001,20.841635919880893],[77.695307018726439,20.84160738541404],[77.695225890296385,20.841583953253075],[77.695146940253423,20.841586299570611],[77.695079697749847,20.841604140977907],[77.695008937537054,20.841656333554894],[77.694941861800402,20.841691355855243],[77.694874519142658,20.841698889345572],[77.694785719441327,20.841678871268545],[77.694681494290563,20.841657089881586],[77.694583331167962,20.841664533326096],[77.694502806031622,20.841702952361626],[77.694439766374543,20.841756884832275],[77.694335958545338,20.841778055151796],[77.694212705187596,20.841780270481735],[77.694099165972034,20.841791103836449],[77.694003230362597,20.84182947719021],[77.693924965022504,20.841902263680872],[77.693850450939962,20.841964752102729],[77.693781415734946,20.841996332532904],[77.693679550450369,20.842019227010269],[77.693597031540037,20.842050767665285],[77.693530240014795,20.84211499698473],[77.693475273055,20.842206749911643],[77.693433955020154,20.842251785940309],[77.692995257530825,20.841830577420673],[77.692750773319318,20.84120694749965],[77.692501461167936,20.840562677467535],[77.692456436453341,20.840455288685867],[77.693134549866315,20.84004627907354],[77.693513344283744,20.839821070538054],[77.693817776115225,20.839687849907961],[77.694008749482748,20.839495617649824],[77.694446403118135,20.839035875377203],[77.694903565408595,20.838784871920279],[77.694973904907158,20.839073434205559],[77.695075029224867,20.839433953998395],[77.695121560881276,20.839566177663492],[77.695433996560809,20.840645861862654],[77.695636548785984,20.841310747606105],[77.695838524197001,20.841854712455181],[77.695875605843156,20.842013153789551],[77.695752349969112,20.842051608069255],[77.695045617703897,20.842249364207312],[77.694808596422831,20.842320606758395],[77.694713471201013,20.842224409930406],[77.694357030563651,20.842007548029812],[77.694022265741083,20.842174420091403]]]},"properties":{"FID":5,"Join_Count":2,"TARGET_FID":6,"Layer":"TEXT_PARCEL","Text":"6","vill_code":"533014","LGD_CODE":"533014"}},{"type":"Feature","id":6,"geometry":{"type":"MultiPolygon","coordinates":[[[[77.696101207646393,20.843142052211423],[77.695950939586737,20.843161742540929],[77.695876515206123,20.843167704244255],[77.695744830557715,20.843163456599374],[77.695659493503797,20.843116084770944],[77.695574006051174,20.843053264233728],[77.695487238363171,20.843036788007456],[77.69534701283726,20.843044873579515],[77.695172976217464,20.843049384446722],[77.695067956408764,20.843026288744113],[77.694980917057421,20.842982002140051],[77.694890384299924,20.842934615095203],[77.6947792601689,20.842907251930686],[77.694722571503064,20.842955752435781],[77.694637806261824,20.842967090235277],[77.694542317221305,20.842944408426494],[77.694465641919635,20.842897062109955],[77.694392430981338,20.842849725322647],[77.694319325344622,20.842813204557391],[77.694232633010245,20.842804452002436],[77.694140818882374,20.842803409838606],[77.694062636599142,20.842779233813875],[77.694022232194698,20.842721178517653],[77.693968165925412,20.842683167999493],[77.693855370522499,20.842661979683726],[77.693723686181556,20.842657730427444],[77.693665568777703,20.842619110947794],[77.693720841146217,20.842541218830316],[77.694022265741012,20.842174420091336],[77.694357030563651,20.842007548029752],[77.694713471200998,20.842224409930456],[77.694808596422831,20.842320606758388],[77.695045617704011,20.842249364207369],[77.695752349969098,20.842051608069315],[77.695875605843241,20.842013153789541],[77.69591814419897,20.842194910511409],[77.696029722669039,20.842769400410763],[77.696101207646393,20.843142052211423]]],[[[77.696141374479282,20.843351444752557],[77.694623372713579,20.843352090199801],[77.694801325458741,20.844209021334962],[77.693314228773488,20.844601156893074],[77.693158511331546,20.843290920557312],[77.693184257389078,20.843171099797583],[77.69331262215411,20.84299562813499],[77.693564567947931,20.842761446259313],[77.693615987942792,20.842688983021045],[77.693694254240256,20.842737729384794],[77.693777578323875,20.842740705648684],[77.693873289629039,20.842757921381288],[77.693959365790533,20.842792043433516],[77.694028398480498,20.842837040139269],[77.694126809808836,20.842879938482103],[77.694239665067869,20.8428966584517],[77.694355034389787,20.842919941170184],[77.694453700675012,20.842989060715805],[77.694564510337102,20.843047291396033],[77.694674787715257,20.843050892890972],[77.694765296921275,20.843036955674791],[77.69488324345275,20.843073355291775],[77.695001338665804,20.843125050937431],[77.695080215490691,20.843174446956937],[77.695173386483418,20.843182368461271],[77.695280958825549,20.843159739794892],[77.695403230784677,20.843137154950849],[77.695511187041575,20.843153860007185],[77.695580199613232,20.843196671493839],[77.695667804178299,20.84326193423658],[77.695769725393063,20.843287907814901],[77.695887225146805,20.843278418389108],[77.696031738114414,20.843275564434354],[77.696123753215545,20.843259583148381],[77.696141374479282,20.843351444752557]]]]},"properties":{"FID":6,"Join_Count":2,"TARGET_FID":7,"Layer":"TEXT_PARCEL","Text":"7","vill_code":"533014","LGD_CODE":"533014"}},{"type":"Feature","id":7,"geometry":{"type":"Polygon","coordinates":[[[77.695887225146762,20.843278418389044],[77.695769725393063,20.843287907814762],[77.695667804178186,20.843261934236615],[77.695580199613261,20.843196671493846],[77.695511187041575,20.84315386000717],[77.695403230784606,20.843137154950821],[77.69528095882545,20.843159739794842],[77.695173386483376,20.843182368461299],[77.69508021549062,20.843174446956851],[77.695001338665804,20.843125050937331],[77.694883243452693,20.843073355291796],[77.694765296921162,20.843036955674812],[77.694674787715201,20.843050892890883],[77.694564510337074,20.843047291395965],[77.694453700674956,20.842989060715787],[77.694355034389702,20.842919941170177],[77.69423966506784,20.842896658451583],[77.694126809808765,20.842879938482039],[77.694028398480427,20.842837040139297],[77.693959365790477,20.842792043433505],[77.693873289629096,20.842757921381356],[77.693777578323832,20.842740705648556],[77.693694254240242,20.842737729384758],[77.693615987942692,20.842688983020999],[77.693665568777703,20.842619110947656],[77.693723686181414,20.842657730427469],[77.693855370522471,20.842661979683648],[77.693968165925398,20.842683167999571],[77.694022232194769,20.842721178517621],[77.694062636599156,20.8427792338139],[77.694140818882261,20.842803409838563],[77.694232633010188,20.842804452002362],[77.694319325344608,20.842813204557419],[77.694392430981395,20.842849725322665],[77.694465641919578,20.842897062109927],[77.694542317221192,20.842944408426458],[77.694637806261795,20.842967090235209],[77.694722571502993,20.842955752435799],[77.694779260168886,20.842907251930587],[77.694890384299867,20.842934615095128],[77.694980917057393,20.84298200213998],[77.695067956408835,20.843026288744106],[77.695172976217393,20.843049384446712],[77.695347012837118,20.843044873579412],[77.695487238363057,20.843036788007399],[77.695574006051089,20.843053264233646],[77.695659493503811,20.843116084770816],[77.695744830557601,20.843163456599235],[77.69587651520601,20.843167704244156],[77.695950939586652,20.843161742540847],[77.696101207646407,20.843142052211306],[77.696123753215502,20.843259583148246],[77.696031738114286,20.843275564434215],[77.695887225146762,20.843278418389044]]]},"properties":{"FID":7,"Join_Count":1,"TARGET_FID":8,"Layer":"POLY_PARCEL","Text":"छन\u094Dस\u094Dस\u094D","vill_code":"533014","LGD_CODE":"533014"}},{"type":"Feature","id":8,"geometry":{"type":"MultiPolygon","coordinates":[[[[77.691848561807205,20.842896039536473],[77.691766091414365,20.842932733791201],[77.691710672177351,20.84297809865382],[77.691655236728764,20.843021744764027],[77.691588042485023,20.843044739302915],[77.691503312388136,20.843047066560587],[77.69141479648988,20.843056254337682],[77.691347669713196,20.843086120987323],[77.691288381756408,20.843129756241975],[77.691230951928048,20.843166524213071],[77.691157113152428,20.84319937816656],[77.69103682528015,20.843209759561713],[77.690946500474581,20.843230967868635],[77.690893073117593,20.843283210559154],[77.690834961229143,20.843348753374585],[77.690695677522967,20.843386567796244],[77.690549791105184,20.843438535778493],[77.690490709961296,20.843503646828591],[77.6904421648739,20.843591625319558],[77.690108604624413,20.843575001403618],[77.689954976866431,20.843559351929002],[77.689770703400086,20.842775024320307],[77.689496949302679,20.841481174396566],[77.689216239072664,20.840264187116869],[77.689992265143815,20.840324242974756],[77.691514384700611,20.840460756766674],[77.692456436453313,20.840455288685973],[77.692501461167922,20.840562677467577],[77.69275077331929,20.8412069474997],[77.692995257530811,20.841830577420748],[77.693433955020168,20.842251785940384],[77.693399033888227,20.842289849859529],[77.693328205101523,20.842335169645999],[77.693258952489145,20.84234441455914],[77.693166501085443,20.842345001550541],[77.693091686541891,20.842376564319636],[77.693044123055074,20.842437415015521],[77.693002455608678,20.842510307896415],[77.692935563672449,20.842564229171671],[77.692864718413546,20.842607830057947],[77.692781797263933,20.84259813715812],[77.69269309805685,20.842588425868598],[77.692616123439791,20.842595930370472],[77.692549080921594,20.842634388374901],[77.692488016276513,20.842693480435575],[77.692430688796321,20.842740557496025],[77.692373276559238,20.842779043625168],[77.692278915297095,20.842781342176405],[77.692190599484832,20.842811147866769],[77.692114042425828,20.842861604128139],[77.692039176928745,20.84288801211062],[77.691942772859875,20.842878278971511],[77.691848561807205,20.842896039536473]]],[[[77.691572758264158,20.84332861425526],[77.690982146950375,20.843532001315506],[77.69075692776039,20.843607310806757],[77.690611084247507,20.843600042438993],[77.690706465089193,20.843504717124635],[77.690819959489033,20.843489160263232],[77.690911927800073,20.843438750239155],[77.691025168252452,20.843396993434915],[77.691136516200004,20.843358666382073],[77.691244061174359,20.843325482903364],[77.691287922637798,20.843280085019501],[77.691351013567953,20.843231307019206],[77.691414137751167,20.843185965558117],[77.69150072705969,20.84317677195542],[77.691614318124607,20.843171094572085],[77.691689049705019,20.843130941440226],[77.691757851912314,20.843075308575184],[77.691821009183002,20.843033402638298],[77.691880631849983,20.843024130053152],[77.691986750169804,20.843042482356456],[77.692075316425303,20.84303844866395],[77.692144152688059,20.842986251301799],[77.692241999113037,20.842946165952355],[77.692342005298428,20.84293013954516],[77.692422699237795,20.842908902359625],[77.692475040740987,20.84284420100369],[77.692550345932261,20.842764105366371],[77.692634875911324,20.842741160984868],[77.692771547289055,20.842732114269666],[77.692881000854015,20.842697216929878],[77.69297690402118,20.842655407563768],[77.693059372944617,20.842618712787672],[77.693116601158579,20.842561327670069],[77.693181499716388,20.842500528326013],[77.693242713490577,20.842456899200272],[77.693350491473382,20.842447766762689],[77.693471168367978,20.842378541992954],[77.693515532861227,20.842330112123989],[77.693577070474078,20.842389195586517],[77.693720841146217,20.842541218830316],[77.693459026378662,20.842650399422666],[77.692435187037006,20.843019661223021],[77.691572758264158,20.84332861425526]]]]},"properties":{"FID":8,"Join_Count":2,"TARGET_FID":9,"Layer":"TEXT_PARCEL","Text":"5","vill_code":"533014","LGD_CODE":"533014"}},{"type":"Feature","id":9,"geometry":{"type":"Polygon","coordinates":[[[77.69070646508905,20.843504717124546],[77.69061108424745,20.84360004243889],[77.690442164873886,20.843591625319458],[77.690490709961168,20.843503646828548],[77.690549791105198,20.843438535778411],[77.69069567752301,20.843386567796134],[77.690834961229129,20.84334875337451],[77.690893073117664,20.843283210559161],[77.690946500474467,20.843230967868578],[77.691036825280023,20.843209759561638],[77.691157113152357,20.843199378166567],[77.691230951927935,20.843166524212979],[77.691288381756323,20.843129756241908],[77.691347669713224,20.843086120987184],[77.691414796489795,20.843056254337682],[77.691503312388164,20.84304706656053],[77.691588042484909,20.843044739302897],[77.691655236728664,20.843021744763906],[77.691710672177365,20.842978098653678],[77.691766091414351,20.842932733791169],[77.691848561807205,20.842896039536459],[77.691942772859846,20.842878278971401],[77.692039176928802,20.84288801211051],[77.692114042425757,20.842861604128068],[77.692190599484846,20.842811147866644],[77.692278915297123,20.842781342176405],[77.692373276559195,20.84277904362504],[77.692430688796293,20.842740557496001],[77.692488016276414,20.842693480435511],[77.692549080921466,20.842634388374986],[77.69261612343972,20.842595930370504],[77.692693098056864,20.842588425868531],[77.692781797263933,20.842598137158067],[77.692864718413503,20.842607830057901],[77.69293556367235,20.842564229171685],[77.69300245560855,20.842510307896305],[77.693044123054932,20.842437415015503],[77.693091686541877,20.842376564319693],[77.6931665010854,20.842345001550459],[77.693258952489103,20.842344414559129],[77.69332820510148,20.842335169645981],[77.69339903388817,20.842289849859448],[77.693433955020154,20.842251785940309],[77.693515532861156,20.842330112124014],[77.693471168367992,20.842378541992865],[77.693350491473282,20.842447766762636],[77.693242713490577,20.84245689920014],[77.693181499716417,20.842500528325989],[77.69311660115865,20.842561327670019],[77.693059372944646,20.842618712787598],[77.692976904021066,20.842655407563836],[77.692881000853902,20.842697216929892],[77.692771547289013,20.842732114269566],[77.692634875911352,20.842741160984882],[77.692550345932219,20.842764105366232],[77.692475040740959,20.842844201003686],[77.692422699237682,20.842908902359554],[77.692342005298343,20.842930139545025],[77.692241999112994,20.84294616595222],[77.69214415268803,20.842986251301696],[77.692075316425161,20.843038448663897],[77.69198675016986,20.843042482356402],[77.691880631849997,20.843024130053021],[77.691821009183059,20.843033402638259],[77.691757851912243,20.843075308575116],[77.691689049704962,20.843130941440212],[77.691614318124493,20.843171094572025],[77.691500727059775,20.84317677195536],[77.69141413775121,20.843185965558149],[77.691351013567939,20.843231307019199],[77.691287922637827,20.843280085019501],[77.691244061174274,20.843325482903392],[77.69113651619999,20.843358666381956],[77.691025168252452,20.843396993434862],[77.690911927799945,20.843438750239059],[77.690819959488962,20.843489160263136],[77.69070646508905,20.843504717124546]]]},"properties":{"FID":9,"Join_Count":1,"TARGET_FID":10,"Layer":"POLY_PARCEL","Text":"छन\u094Dस\u094Dस\u094D","vill_code":"533014","LGD_CODE":"533014"}},{"type":"Feature","id":10,"geometry":{"type":"Polygon","coordinates":[[[77.704391717809415,20.844865235754426],[77.704227346763531,20.845267345483617],[77.704079274423037,20.84526691961781],[77.70233695385437,20.845225569539281],[77.702153965422042,20.845223670050643],[77.70127783402171,20.844820868234819],[77.701453855820105,20.844434996459213],[77.700560212730537,20.844277084965078],[77.700400697226982,20.844234073060047],[77.69944244408623,20.844053243580579],[77.699249789406309,20.844004523679875],[77.699105902263256,20.843891017719432],[77.698674056595578,20.843531649934338],[77.698538723704729,20.843431714371896],[77.698778765537725,20.843412026476845],[77.699690372928416,20.843429787759078],[77.700033980399155,20.843453450685185],[77.700250925217901,20.843529627936849],[77.700519038755047,20.843636172210161],[77.700872012438211,20.843750517216566],[77.701208324634209,20.843895031419965],[77.701808142836455,20.844108300579197],[77.701965442399271,20.844154084396671],[77.702402909602711,20.844238450914073],[77.702933865134938,20.844345750529154],[77.703269810487583,20.844452486514538],[77.70418467871454,20.844802639612531],[77.704391717809415,20.844865235754426]]]},"properties":{"FID":10,"Join_Count":2,"TARGET_FID":13,"Layer":"TEXT_PARCEL","Text":"27","vill_code":"533014","LGD_CODE":"533014"}},{"type":"Feature","id":11,"geometry":{"type":"Polygon","coordinates":[[[77.702137076529397,20.845537544119786],[77.701135272891634,20.845605056206647],[77.700931094233781,20.845588306136488],[77.700590111538702,20.845490365526672],[77.700481726103746,20.845069923773689],[77.69884786956014,20.845356035316357],[77.697290279574375,20.845429933390136],[77.697255909854206,20.844661293868743],[77.69738541460228,20.844676147602051],[77.697880889533437,20.844674901031585],[77.698021501519065,20.844516234353609],[77.698171859616536,20.844339921649595],[77.698033083138029,20.843455182418865],[77.698538723704729,20.843431714371896],[77.698674056595578,20.843531649934338],[77.699105902263256,20.843891017719432],[77.699249789406309,20.844004523679875],[77.69944244408623,20.844053243580579],[77.700400697226982,20.844234073060047],[77.700560212730537,20.844277084965078],[77.701453855820105,20.844434996459213],[77.70127783402171,20.844820868234819],[77.702153965422042,20.845223670050643],[77.7021510754536,20.845468683956707],[77.702137076529397,20.845537544119786]]]},"properties":{"FID":11,"Join_Count":2,"TARGET_FID":14,"Layer":"TEXT_PARCEL","Text":"28","vill_code":"533014","LGD_CODE":"533014"}},{"type":"Feature","id":12,"geometry":{"type":"Polygon","coordinates":[[[77.695815592410256,20.845317571500082],[77.693434465935297,20.845776953469418],[77.693431165255518,20.845437641248186],[77.693314228773403,20.844601156893116],[77.694801325458755,20.844209021334937],[77.694623372713551,20.843352090199875],[77.696141374479211,20.843351444752543],[77.696291445487887,20.843525643564934],[77.696516131936889,20.843526300384895],[77.697020467848489,20.84351266568039],[77.698033083138029,20.843455182418865],[77.698171859616536,20.844339921649595],[77.698021501519065,20.844516234353609],[77.697880889533437,20.844674901031585],[77.69738541460228,20.844676147602051],[77.697255909854206,20.844661293868743],[77.696552156985902,20.844706372494549],[77.695590981262271,20.844797827309133],[77.695815592410256,20.845317571500082]]]},"properties":{"FID":12,"Join_Count":2,"TARGET_FID":15,"Layer":"TEXT_PARCEL","Text":"8","vill_code":"533014","LGD_CODE":"533014"}},{"type":"Feature","id":13,"geometry":{"type":"Polygon","coordinates":[[[77.701049551428042,20.846482354809059],[77.699735146660899,20.846723567082122],[77.699016021893925,20.84673090096954],[77.69884786956014,20.845356035316357],[77.700481726103746,20.845069923773689],[77.700590111538702,20.845490365526672],[77.700931094233781,20.845588306136488],[77.701135272891634,20.845605056206647],[77.701070081192896,20.846356249019333],[77.701049551428042,20.846482354809059]]]},"properties":{"FID":13,"Join_Count":4,"TARGET_FID":16,"Layer":"TEXT_PARCEL","Text":"29","vill_code":"533014","LGD_CODE":"533014"}},{"type":"Feature","id":14,"geometry":{"type":"Polygon","coordinates":[[[77.696000623917485,20.846470487102696],[77.696082734750291,20.847315219525843],[77.69494659151475,20.847012719723864],[77.693517168412058,20.846589101500811],[77.693434465935297,20.845776953469418],[77.695815592410256,20.845317571500082],[77.695880696780293,20.845681756796662],[77.696000623917485,20.846470487102696]]]},"properties":{"FID":14,"Join_Count":2,"TARGET_FID":17,"Layer":"TEXT_PARCEL","Text":"9","vill_code":"533014","LGD_CODE":"533014"}},{"type":"Feature","id":15,"geometry":{"type":"Polygon","coordinates":[[[77.697429848464296,20.847515835257116],[77.696923633463953,20.847573480613715],[77.696082734750291,20.847315219525843],[77.696000623917485,20.846470487102696],[77.695880696780293,20.845681756796662],[77.695815592410256,20.845317571500082],[77.695590981262271,20.844797827309133],[77.696552156985902,20.844706372494549],[77.697255909854206,20.844661293868743],[77.697290279574375,20.845429933390136],[77.697373237449057,20.846628282014382],[77.697429848464296,20.847515835257116]]]},"properties":{"FID":15,"Join_Count":2,"TARGET_FID":18,"Layer":"TEXT_PARCEL","Text":"12","vill_code":"533014","LGD_CODE":"533014"}},{"type":"Feature","id":16,"geometry":{"type":"Polygon","coordinates":[[[77.696923633463953,20.847573480613715],[77.696114959033451,20.847612114627587],[77.696082734750291,20.847315219525843],[77.696923633463953,20.847573480613715]]]},"properties":{"FID":16,"Join_Count":0,"TARGET_FID":19,"Layer":" ","Text":" ","vill_code":"533014","LGD_CODE":"533014"}},{"type":"Feature","id":17,"geometry":{"type":"Polygon","coordinates":[[[77.697429848464296,20.847515835257116],[77.69744130934248,20.847723790866709],[77.697213722375125,20.847662572878185],[77.696923633463953,20.847573480613715],[77.697429848464296,20.847515835257116]]]},"properties":{"FID":17,"Join_Count":0,"TARGET_FID":20,"Layer":" ","Text":" ","vill_code":"533014","LGD_CODE":"533014"}},{"type":"Feature","id":18,"geometry":{"type":"Polygon","coordinates":[[[77.697589160697092,20.847771854460838],[77.697457131425963,20.847791959620416],[77.69744130934248,20.847723790866709],[77.697589160697092,20.847771854460838]]]},"properties":{"FID":18,"Join_Count":0,"TARGET_FID":21,"Layer":" ","Text":" ","vill_code":"533014","LGD_CODE":"533014"}},{"type":"Feature","id":19,"geometry":{"type":"Polygon","coordinates":[[[77.698009633544842,20.847728934251855],[77.69803769583919,20.847901984696527],[77.697940474118383,20.847874113205734],[77.697589160697092,20.847771854460838],[77.69776949581113,20.84774439346852],[77.698009633544842,20.847728934251855]]]},"properties":{"FID":19,"Join_Count":0,"TARGET_FID":22,"Layer":" ","Text":" ","vill_code":"533014","LGD_CODE":"533014"}},{"type":"Feature","id":20,"geometry":{"type":"Polygon","coordinates":[[[77.695447185420662,20.84770988560085],[77.69547839483468,20.848057668636734],[77.694791979174056,20.847766229326968],[77.69357110564934,20.847240396960412],[77.693517168412058,20.846589101500811],[77.69494659151475,20.847012719723864],[77.696082734750291,20.847315219525843],[77.696114959033451,20.847612114627587],[77.695447185420662,20.84770988560085]]]},"properties":{"FID":20,"Join_Count":0,"TARGET_FID":23,"Layer":" ","Text":" ","vill_code":"533014","LGD_CODE":"533014"}},{"type":"Feature","id":21,"geometry":{"type":"Polygon","coordinates":[[[77.704238111862509,20.846252282690177],[77.70411867220399,20.84799750542976],[77.70361762624718,20.847598786718475],[77.703179317266049,20.847232028468245],[77.70273748472566,20.846960606020176],[77.702399060358559,20.846776881359354],[77.701895663510427,20.846592679139938],[77.701709925839381,20.84652063251735],[77.701439356605945,20.846436421145352],[77.701070081192896,20.846356249019333],[77.701135272891634,20.845605056206647],[77.702137076529397,20.845537544119786],[77.7021510754536,20.845468683956707],[77.702153965422042,20.845223670050643],[77.70233695385437,20.845225569539281],[77.704079274423037,20.84526691961781],[77.704227346763531,20.845267345483617],[77.704391717809415,20.844865235754426],[77.704563092723745,20.8449170493937],[77.705178690924129,20.84500947619771],[77.705675289623329,20.845071338964733],[77.705890478643866,20.846467091870149],[77.704238111862509,20.846252282690177]]]},"properties":{"FID":21,"Join_Count":2,"TARGET_FID":24,"Layer":"TEXT_PARCEL","Text":"26","vill_code":"533014","LGD_CODE":"533014"}},{"type":"Feature","id":22,"geometry":{"type":"Polygon","coordinates":[[[77.700801021663793,20.847565389461071],[77.700757839376564,20.848270154639845],[77.699419791628856,20.84820971898246],[77.699292087202721,20.847668029924101],[77.698009633544842,20.847728934251855],[77.69776949581113,20.84774439346852],[77.697589160697092,20.847771854460838],[77.69744130934248,20.847723790866709],[77.697429848464296,20.847515835257116],[77.697373237449057,20.846628282014382],[77.697290279574375,20.845429933390136],[77.69884786956014,20.845356035316357],[77.699016021893925,20.84673090096954],[77.699735146660899,20.846723567082122],[77.701049551428042,20.846482354809059],[77.700801021663793,20.847565389461071]]]},"properties":{"FID":22,"Join_Count":2,"TARGET_FID":25,"Layer":"TEXT_PARCEL","Text":"13","vill_code":"533014","LGD_CODE":"533014"}},{"type":"Feature","id":23,"geometry":{"type":"Polygon","coordinates":[[[77.700847460263375,20.848625906514545],[77.700872723224194,20.848752318798859],[77.700740777455636,20.848680041695882],[77.699346218437014,20.848277100066184],[77.69803769583919,20.847901984696527],[77.698009633544842,20.847728934251855],[77.699292087202721,20.847668029924101],[77.699419791628856,20.84820971898246],[77.700757839376564,20.848270154639845],[77.700847460263375,20.848625906514545]]]},"properties":{"FID":23,"Join_Count":0,"TARGET_FID":26,"Layer":" ","Text":" ","vill_code":"533014","LGD_CODE":"533014"}},{"type":"Feature","id":24,"geometry":{"type":"Polygon","coordinates":[[[77.698096744010385,20.848266105943271],[77.698262364960726,20.849256811150902],[77.697872859122725,20.849061790462017],[77.696677854244342,20.848549352618786],[77.695624287185098,20.848140344083166],[77.69547839483468,20.848057668636734],[77.695447185420662,20.84770988560085],[77.696114959033451,20.847612114627587],[77.696923633463953,20.847573480613715],[77.697213722375125,20.847662572878185],[77.69744130934248,20.847723790866709],[77.697457131425963,20.847791959620416],[77.697589160697092,20.847771854460838],[77.697940474118383,20.847874113205734],[77.69803769583919,20.847901984696527],[77.698096744010385,20.848266105943271]]]},"properties":{"FID":24,"Join_Count":2,"TARGET_FID":27,"Layer":"TEXT_PARCEL","Text":"11","vill_code":"533014","LGD_CODE":"533014"}},{"type":"Feature","id":25,"geometry":{"type":"Polygon","coordinates":[[[77.706999371169104,20.849047574765333],[77.706288424175753,20.849134412881028],[77.706258365233779,20.848843471311319],[77.706016286823541,20.84727538606726],[77.705890478643866,20.846467091870149],[77.705675289623329,20.845071338964733],[77.706188550526889,20.845103030759663],[77.706574407156737,20.845111690544815],[77.706701428470012,20.84552756356781],[77.706876504315105,20.845656494957904],[77.707085568874319,20.845793078048217],[77.707243687506278,20.845921960322457],[77.707419877654971,20.846164214732884],[77.707746533794349,20.846187812691827],[77.707877865259661,20.847041868892237],[77.708010846176563,20.84720089780479],[77.708083955489499,20.847248180989368],[77.708052405784443,20.847431712135453],[77.708037712501849,20.847895699261354],[77.707641608938317,20.848122784520097],[77.707700853262097,20.848920309774289],[77.706999371169104,20.849047574765333]]]},"properties":{"FID":25,"Join_Count":2,"TARGET_FID":28,"Layer":"TEXT_PARCEL","Text":"24","vill_code":"533014","LGD_CODE":"533014"}},{"type":"Feature","id":26,"geometry":{"type":"Polygon","coordinates":[[[77.703819195895974,20.849305071116998],[77.703051537352508,20.849402905517174],[77.702971719733213,20.849344666486331],[77.700872723224194,20.848752318798859],[77.700847460263375,20.848625906514545],[77.700757839376564,20.848270154639845],[77.700801021663793,20.847565389461071],[77.701049551428042,20.846482354809059],[77.701674674666165,20.846596323987363],[77.702322712933935,20.846890338824863],[77.702906594806009,20.847180435699951],[77.703141181825018,20.847307354052269],[77.703551802602178,20.847657221875423],[77.704097325986353,20.848077810415024],[77.70400763961517,20.849103629252316],[77.703877594133104,20.849186377636173],[77.703819195895974,20.849305071116998]]]},"properties":{"FID":26,"Join_Count":2,"TARGET_FID":29,"Layer":"TEXT_PARCEL","Text":"15","vill_code":"533014","LGD_CODE":"533014"}},{"type":"Feature","id":27,"geometry":{"type":"Polygon","coordinates":[[[77.706288424175753,20.849134412881028],[77.706263265021107,20.849427004112627],[77.705999724665872,20.849309945057428],[77.705508873999349,20.849042362947401],[77.705007345068083,20.848758568107897],[77.704485217298355,20.848320353947287],[77.70411867220399,20.84799750542976],[77.704238111862509,20.846252282690177],[77.705890478643866,20.846467091870149],[77.706016286823541,20.84727538606726],[77.706258365233779,20.848843471311319],[77.706288424175753,20.849134412881028]]]},"properties":{"FID":27,"Join_Count":2,"TARGET_FID":30,"Layer":"TEXT_PARCEL","Text":"25","vill_code":"533014","LGD_CODE":"533014"}},{"type":"Feature","id":28,"geometry":{"type":"Polygon","coordinates":[[[77.702229262097404,20.849377486680396],[77.701057621961596,20.849717229351874],[77.700872723224194,20.848752318798859],[77.702971719733213,20.849344666486331],[77.703051537352508,20.849402905517174],[77.70236452322743,20.849373592930828],[77.702229262097404,20.849377486680396]]]},"properties":{"FID":28,"Join_Count":0,"TARGET_FID":31,"Layer":" ","Text":" ","vill_code":"533014","LGD_CODE":"533014"}},{"type":"Feature","id":29,"geometry":{"type":"Polygon","coordinates":[[[77.70019065412329,20.849797972658148],[77.699546629507125,20.849840691406264],[77.698262364960726,20.849256811150902],[77.698096744010385,20.848266105943271],[77.69803769583919,20.847901984696527],[77.699346218437014,20.848277100066184],[77.700740777455636,20.848680041695882],[77.700872723224194,20.848752318798859],[77.701057621961596,20.849717229351874],[77.70088119454887,20.849757115682532],[77.70019065412329,20.849797972658148]]]},"properties":{"FID":29,"Join_Count":2,"TARGET_FID":32,"Layer":"TEXT_PARCEL","Text":"14","vill_code":"533014","LGD_CODE":"533014"}},{"type":"Feature","id":30,"geometry":{"type":"Polygon","coordinates":[[[77.706296924179469,20.849538403837347],[77.706363242822675,20.850289971919707],[77.703051537352508,20.849402905517174],[77.703819195895974,20.849305071116998],[77.703877594133104,20.849186377636173],[77.70400763961517,20.849103629252316],[77.704097325986353,20.848077810415024],[77.704865988502092,20.848791001908932],[77.70489787721354,20.848841023523718],[77.705139765367065,20.848969533255651],[77.706296924179469,20.849538403837347]]]},"properties":{"FID":30,"Join_Count":0,"TARGET_FID":33,"Layer":" ","Text":" ","vill_code":"533014","LGD_CODE":"533014"}},{"type":"Feature","id":31,"geometry":{"type":"MultiPolygon","coordinates":[[[[77.698676508742722,20.849871044048712],[77.69905523661987,20.850027802848444],[77.698696503462372,20.850104828282326],[77.697849249257274,20.85024637507826],[77.696667301041487,20.850333586927036],[77.695070316604358,20.850464904556361],[77.694676184931836,20.850478859631497],[77.69435461236111,20.850107732994502],[77.694110162623701,20.849819934231387],[77.693985229907639,20.849615589046156],[77.693837969638196,20.848859678811319],[77.693734577700695,20.848254992520197],[77.693623369533043,20.847718275890312],[77.694581152030082,20.848121491040505],[77.695615619206194,20.848562697791639],[77.696547827325787,20.848950716379196],[77.697309795825106,20.849270239259678],[77.697808031036971,20.849498334022883],[77.69776668432263,20.849563583200503],[77.697987424949133,20.849666324421719],[77.698067600982199,20.849597302192198],[77.698676508742722,20.849871044048712]]],[[[77.700999339695557,20.850504372775958],[77.700735070349197,20.850390953483888],[77.699650273348368,20.849916444865869],[77.699546629507097,20.849840691406371],[77.700190654123332,20.84979797265817],[77.700881194548913,20.849757115682621],[77.700999339695557,20.850504372775958]]]]},"properties":{"FID":31,"Join_Count":2,"TARGET_FID":34,"Layer":"TEXT_PARCEL","Text":"10","vill_code":"533014","LGD_CODE":"533014"}},{"type":"Feature","id":32,"geometry":{"type":"Polygon","coordinates":[[[77.709008228358741,20.849660386858311],[77.708496477691554,20.850886317625264],[77.70798410469024,20.850698137153977],[77.707530056842018,20.85052130333758],[77.707308407045048,20.850032944364212],[77.707222628965326,20.849807812104967],[77.706872547448185,20.849654100329381],[77.706440828248304,20.849505873453484],[77.706263265021107,20.849427004112627],[77.706288424175753,20.849134412881028],[77.706999371169104,20.849047574765333],[77.707700853262097,20.848920309774289],[77.708261960355898,20.84947726365116],[77.709047921170651,20.849547388778326],[77.709008228358741,20.849660386858311]]]},"properties":{"FID":32,"Join_Count":2,"TARGET_FID":36,"Layer":"TEXT_PARCEL","Text":"22","vill_code":"533014","LGD_CODE":"533014"}},{"type":"Feature","id":33,"geometry":{"type":"Polygon","coordinates":[[[77.708141804515193,20.850884843149654],[77.708811803225714,20.851173404388323],[77.706363242822675,20.850289971919707],[77.706296924179469,20.849538403837347],[77.706624475887892,20.84965245198218],[77.707109489625537,20.849846844319757],[77.707440222117285,20.850584151880241],[77.708141804515193,20.850884843149654]]]},"properties":{"FID":33,"Join_Count":0,"TARGET_FID":37,"Layer":" ","Text":" ","vill_code":"533014","LGD_CODE":"533014"}},{"type":"Feature","id":34,"geometry":{"type":"Polygon","coordinates":[[[77.710048885477065,20.850107703892405],[77.710065768209944,20.851392047994118],[77.709406939521045,20.851202756401641],[77.708804660583041,20.851029846919495],[77.708496477691554,20.850886317625264],[77.709008228358741,20.849660386858311],[77.709047921170651,20.849547388778326],[77.708261960355898,20.84947726365116],[77.707700853262097,20.848920309774289],[77.707641608938317,20.848122784520097],[77.708037712501849,20.847895699261354],[77.708052405784443,20.847431712135453],[77.708083955489499,20.847248180989368],[77.708245499476234,20.847352661481985],[77.709197059260234,20.847982413037762],[77.709353770397811,20.847967749424956],[77.709646068921259,20.847945917418873],[77.709720369261433,20.848172769307546],[77.709883102419866,20.848770052311011],[77.7100279869953,20.849276628636073],[77.710048885477065,20.850107703892405]]]},"properties":{"FID":34,"Join_Count":2,"TARGET_FID":38,"Layer":"TEXT_PARCEL","Text":"23","vill_code":"533014","LGD_CODE":"533014"}},{"type":"Feature","id":35,"geometry":{"type":"Polygon","coordinates":[[[77.710065768209944,20.851392047994118],[77.710092320820848,20.851505444290471],[77.709990549820176,20.851463502239586],[77.708811803225714,20.851173404388323],[77.708141804515193,20.850884843149654],[77.707440222117285,20.850584151880241],[77.707109489625537,20.849846844319757],[77.706624475887892,20.84965245198218],[77.706296924179469,20.849538403837347],[77.705139765367065,20.848969533255651],[77.70489787721354,20.848841023523718],[77.704865988502092,20.848791001908932],[77.704097325986353,20.848077810415024],[77.703551802602178,20.847657221875423],[77.703141181825018,20.847307354052269],[77.702906594806009,20.847180435699951],[77.702322712933935,20.846890338824863],[77.701674674666165,20.846596323987363],[77.701049551428042,20.846482354809059],[77.701070081192896,20.846356249019333],[77.701439356605945,20.846436421145352],[77.701709925839381,20.84652063251735],[77.701895663510427,20.846592679139938],[77.702399060358559,20.846776881359354],[77.70273748472566,20.846960606020176],[77.703179317266049,20.847232028468245],[77.70361762624718,20.847598786718475],[77.70411867220399,20.84799750542976],[77.704485217298355,20.848320353947287],[77.705007345068083,20.848758568107897],[77.705508873999349,20.849042362947401],[77.705999724665872,20.849309945057428],[77.706263265021107,20.849427004112627],[77.706440828248304,20.849505873453484],[77.706872547448185,20.849654100329381],[77.707222628965326,20.849807812104967],[77.707308407045048,20.850032944364212],[77.707530056842018,20.85052130333758],[77.70798410469024,20.850698137153977],[77.708496477691554,20.850886317625264],[77.708804660583041,20.851029846919495],[77.709406939521045,20.851202756401641],[77.710065768209944,20.851392047994118]]]},"properties":{"FID":35,"Join_Count":1,"TARGET_FID":39,"Layer":"POLY_PARCEL","Text":"छन\u094Dस\u094Dस\u094D","vill_code":"533014","LGD_CODE":"533014"}},{"type":"Feature","id":36,"geometry":{"type":"Polygon","coordinates":[[[77.708811803225714,20.851173404388323],[77.70872579933507,20.852077513582728],[77.707309832361318,20.851999951976236],[77.707437526653777,20.85118984851611],[77.706805958947243,20.851050695798484],[77.706410950747269,20.850993010448242],[77.706363242822675,20.850289971919707],[77.708811803225714,20.851173404388323]]]},"properties":{"FID":36,"Join_Count":2,"TARGET_FID":40,"Layer":"TEXT_PARCEL","Text":"21","vill_code":"533014","LGD_CODE":"533014"}},{"type":"Feature","id":37,"geometry":{"type":"Polygon","coordinates":[[[77.707124231077401,20.852006774255102],[77.707087666447848,20.852484581175478],[77.705803918175391,20.852429394588096],[77.705680416253969,20.851394885491583],[77.70441130357878,20.851431641651715],[77.704275619275421,20.851003046808792],[77.702644606217021,20.850659019061752],[77.70236452322743,20.849373592930828],[77.703051537352508,20.849402905517174],[77.706363242822675,20.850289971919707],[77.706410950747269,20.850993010448242],[77.706805958947243,20.851050695798484],[77.707437526653777,20.85118984851611],[77.707309832361318,20.851999951976236],[77.707124231077401,20.852006774255102]]]},"properties":{"FID":37,"Join_Count":2,"TARGET_FID":42,"Layer":"TEXT_PARCEL","Text":"20","vill_code":"533014","LGD_CODE":"533014"}},{"type":"Feature","id":38,"geometry":{"type":"Polygon","coordinates":[[[77.707087666447848,20.852484581175478],[77.707107060501656,20.853106936617774],[77.706669371705217,20.852940658119994],[77.70551511427449,20.85242840542881],[77.705700202518415,20.851927620353308],[77.704637968947935,20.851481763558596],[77.704399849507269,20.851969466214857],[77.703330333715684,20.851537526552416],[77.701957419606899,20.850915557125195],[77.700999339695571,20.850504372775944],[77.70088119454887,20.849757115682532],[77.701057621961596,20.849717229351874],[77.702229262097404,20.849377486680396],[77.70236452322743,20.849373592930828],[77.702644606217021,20.850659019061752],[77.704275619275421,20.851003046808792],[77.70441130357878,20.851431641651715],[77.705680416253969,20.851394885491583],[77.705803918175391,20.852429394588096],[77.707087666447848,20.852484581175478]]]},"properties":{"FID":38,"Join_Count":2,"TARGET_FID":43,"Layer":"TEXT_PARCEL","Text":"16","vill_code":"533014","LGD_CODE":"533014"}},{"type":"Feature","id":39,"geometry":{"type":"Polygon","coordinates":[[[77.710223015186955,20.853066093996095],[77.710317341318955,20.854444855597936],[77.70885442635992,20.853855726786463],[77.707107060501656,20.853106936617774],[77.707087666447848,20.852484581175478],[77.707124231077401,20.852006774255102],[77.707309832361318,20.851999951976236],[77.70872579933507,20.852077513582728],[77.708811803225714,20.851173404388323],[77.709990549820176,20.851463502239586],[77.710092320820848,20.851505444290471],[77.710223015186955,20.853066093996095]]]},"properties":{"FID":39,"Join_Count":2,"TARGET_FID":44,"Layer":"TEXT_PARCEL","Text":"19","vill_code":"533014","LGD_CODE":"533014"}},{"type":"Feature","id":40,"geometry":{"type":"MultiPolygon","coordinates":[[[[77.705700202518472,20.851927620353369],[77.705515114274533,20.852428405428842],[77.70439984950724,20.851969466214882],[77.70463796894802,20.851481763558695],[77.705700202518472,20.851927620353369]]],[[[77.704138258548539,20.85217591531147],[77.705752399143762,20.85292846213952],[77.705827231199009,20.854564525166268],[77.705305641319967,20.854558166619885],[77.703729948726846,20.854539048155743],[77.703546712790057,20.854509326470691],[77.70230720440378,20.854350845124088],[77.702506435727514,20.853143321501136],[77.702554923078878,20.852869929548838],[77.702680766679123,20.851500282765979],[77.704138258548539,20.85217591531147]]]]},"properties":{"FID":40,"Join_Count":2,"TARGET_FID":45,"Layer":"TEXT_PARCEL","Text":"17","vill_code":"533014","LGD_CODE":"533014"}},{"type":"Feature","id":41,"geometry":{"type":"Polygon","coordinates":[[[77.709080703511916,20.854473755577573],[77.709481743252994,20.854652804712604],[77.708492758916577,20.854620789614302],[77.707343183959196,20.854617514428487],[77.705827231198867,20.854564525166161],[77.705752399143734,20.852928462139403],[77.706829989004049,20.853437709510736],[77.709080703511916,20.854473755577573]]]},"properties":{"FID":41,"Join_Count":2,"TARGET_FID":46,"Layer":"TEXT_PARCEL","Text":"18","vill_code":"533014","LGD_CODE":"533014"}},{"type":"Feature","id":42,"geometry":{"type":"Polygon","coordinates":[[[77.710317341318955,20.854444855597936],[77.710241383757946,20.855018795638323],[77.709481743252994,20.854652804712604],[77.709080703511916,20.854473755577573],[77.706829989004049,20.853437709510736],[77.705752399143734,20.852928462139403],[77.704138258548411,20.852175915311442],[77.702680766678981,20.851500282766029],[77.70239990851266,20.851381808913537],[77.699055236619756,20.85002780284837],[77.698676508742679,20.849871044048776],[77.698067600982199,20.84959730219213],[77.697987424949005,20.849666324421722],[77.697766684322545,20.8495635832004],[77.697808031036971,20.849498334022911],[77.697309795825021,20.849270239259695],[77.696547827325688,20.848950716379136],[77.695615619206094,20.848562697791607],[77.694581152030068,20.848121491040487],[77.693623369533029,20.847718275890198],[77.69357110564934,20.847240396960412],[77.694791979174056,20.847766229326968],[77.69547839483468,20.848057668636734],[77.695624287185098,20.848140344083166],[77.696677854244342,20.848549352618786],[77.697872859122725,20.849061790462017],[77.698262364960726,20.849256811150902],[77.699546629507125,20.849840691406264],[77.699650273348382,20.849916444865865],[77.700735070349168,20.850390953483782],[77.700999339695571,20.850504372775944],[77.701957419606899,20.850915557125195],[77.703330333715684,20.851537526552416],[77.704399849507269,20.851969466214857],[77.70551511427449,20.85242840542881],[77.706669371705217,20.852940658119994],[77.707107060501656,20.853106936617774],[77.70885442635992,20.853855726786463],[77.710317341318955,20.854444855597936]]]},"properties":{"FID":42,"Join_Count":5,"TARGET_FID":47,"Layer":"TEXT_MAPIN","Text":"र\u0947","vill_code":"533014","LGD_CODE":"533014"}}]
}