{
  "type" : "FeatureCollection",
  "features" : [{"type":"Feature","id":0,"geometry":{"type":"LineString","coordinates":[[77.702299033956322,20.854430229449047],[77.703663095417397,20.854603586277907],[77.704633821784512,20.85462735066119],[77.70661303224027,20.854665819910771],[77.708067164387657,20.854711605263908],[77.709610752958611,20.854714961442326]]},"properties":{"FID":0,"LGD_CODE":"533014","ROAD_TYPE":"C"}},{"type":"Feature","id":1,"geometry":{"type":"LineString","coordinates":[[77.709460127086871,20.854714634555133],[77.7103227483328,20.855272376658775]]},"properties":{"FID":1,"LGD_CODE":"533014","ROAD_TYPE":"B"}},{"type":"Feature","id":2,"geometry":{"type":"LineString","coordinates":[[77.694098017252429,20.835309934993411],[77.692518045366938,20.835546801765759],[77.691086241704568,20.835797800270672],[77.69051090878267,20.835906363401616],[77.690124021348439,20.835977620812045],[77.689138021351113,20.836714790493343],[77.688518238895497,20.837177986235215]]},"properties":{"FID":2,"LGD_CODE":"533014","ROAD_TYPE":"C"}},{"type":"Feature","id":3,"geometry":{"type":"LineString","coordinates":[[77.688602133595992,20.835708303036185],[77.68864394583052,20.837084039274501],[77.688607403013236,20.837634978338478]]},"properties":{"FID":3,"LGD_CODE":"533014","ROAD_TYPE":"B"}},{"type":"Feature","id":4,"geometry":{"type":"LineString","coordinates":[[77.688653328316164,20.8378703574509],[77.688726078490077,20.837354155204551],[77.68873110464078,20.837018901103676],[77.68866769596994,20.835704485200345]]},"properties":{"FID":4,"LGD_CODE":"533014","ROAD_TYPE":"B"}},{"type":"Feature","id":5,"geometry":{"type":"LineString","coordinates":[[77.693166093131026,20.843354710790248],[77.693441976213421,20.843301169387633],[77.694641909903225,20.842962330329026],[77.695985488521728,20.842541649428817]]},"properties":{"FID":5,"LGD_CODE":"533014","ROAD_TYPE":"B"}},{"type":"Feature","id":6,"geometry":{"type":"LineString","coordinates":[[77.693158512031445,20.843290921201252],[77.694187332637483,20.843006043307774],[77.695968020697848,20.842451711465884]]},"properties":{"FID":6,"LGD_CODE":"533014","ROAD_TYPE":"B"}},{"type":"Feature","id":7,"geometry":{"type":"LineString","coordinates":[[77.704118672492115,20.847997505817496],[77.703617626600632,20.847598786803584],[77.703179317139686,20.847232029014645],[77.702737484719492,20.846960606203631],[77.702399060396601,20.846776881748987],[77.701895663662384,20.846592679716174],[77.701709926337728,20.846520632766008],[77.701439356729082,20.846436421783078]]},"properties":{"FID":7,"LGD_CODE":"533014","ROAD_TYPE":"A"}},{"type":"Feature","id":8,"geometry":{"type":"LineString","coordinates":[[77.70104955212814,20.846482355490156],[77.701674674858495,20.846596324528434],[77.702322713439059,20.846890339421996],[77.702906594923149,20.847180436145575],[77.703141182191686,20.847307354073006],[77.703551803180162,20.847657222585287],[77.704097326604099,20.84807781057809]]},"properties":{"FID":8,"LGD_CODE":"533014","ROAD_TYPE":"A"}},{"type":"Feature","id":9,"geometry":{"type":"LineString","coordinates":[[77.701439356729082,20.846436421783078],[77.701070081247465,20.846356249074091]]},"properties":{"FID":9,"LGD_CODE":"533014","ROAD_TYPE":"A"}},{"type":"Feature","id":10,"geometry":{"type":"LineString","coordinates":[[77.710065768394571,20.851392048649917],[77.709406940138109,20.851202756289492],[77.708804660710058,20.851029847168864]]},"properties":{"FID":10,"LGD_CODE":"533014","ROAD_TYPE":"A"}},{"type":"Feature","id":11,"geometry":{"type":"LineString","coordinates":[[77.70881180320535,20.85117340441257],[77.70999055016074,20.851463502235802],[77.710092321381893,20.851505444302216]]},"properties":{"FID":11,"LGD_CODE":"533014","ROAD_TYPE":"A"}},{"type":"Feature","id":12,"geometry":{"type":"LineString","coordinates":[[77.706296924245621,20.849538404351939],[77.706624475951216,20.849652452382802],[77.707109489560537,20.849846844274126],[77.707440222235917,20.850584151775461],[77.708141804352849,20.850884843435889],[77.70881180320535,20.85117340441257]]},"properties":{"FID":12,"LGD_CODE":"533014","ROAD_TYPE":"A"}},{"type":"Feature","id":13,"geometry":{"type":"LineString","coordinates":[[77.708496477827254,20.850886317510501],[77.707984104808418,20.850698137513085],[77.707530057338005,20.850521304060852],[77.707308407077392,20.850032945096157],[77.707222629317101,20.849807812203998],[77.70687254733275,20.849654100805914],[77.706440828777119,20.84950587367549],[77.706263265432867,20.849427004208142]]},"properties":{"FID":13,"LGD_CODE":"533014","ROAD_TYPE":"A"}},{"type":"Feature","id":14,"geometry":{"type":"LineString","coordinates":[[77.704097326604099,20.84807781057809],[77.704865988777556,20.848791002362322],[77.704897877329387,20.848841024076108],[77.70513976540451,20.848969533858984],[77.706296924245621,20.849538404351939]]},"properties":{"FID":14,"LGD_CODE":"533014","ROAD_TYPE":"A"}},{"type":"Feature","id":15,"geometry":{"type":"LineString","coordinates":[[77.706263265432867,20.849427004208142],[77.705999725342693,20.849309945373498],[77.705508874464599,20.849042363370341],[77.70500734553795,20.848758568650791],[77.704485217528315,20.848320353963835],[77.704118672492115,20.847997505817496]]},"properties":{"FID":15,"LGD_CODE":"533014","ROAD_TYPE":"A"}},{"type":"Feature","id":16,"geometry":{"type":"LineString","coordinates":[[77.708804660710058,20.851029847168864],[77.708496477827254,20.850886317510501]]},"properties":{"FID":16,"LGD_CODE":"533014","ROAD_TYPE":"A"}}]
}