{
  "type" : "FeatureCollection",
  "features" : [{"type":"Feature","id":0,"geometry":{"type":"LineString","coordinates":[[77.702392614462525,20.799416279457809],[77.702781471668118,20.79957642564214],[77.703442045539276,20.799830035156447],[77.704188326310756,20.800138465997954],[77.705023298729827,20.800664875219827],[77.705058460598238,20.800975195317683],[77.705682814894928,20.801358015078442],[77.705839817526993,20.801409251929837],[77.706043198776655,20.801366444636084],[77.706646685173993,20.801825039158757],[77.707306820428016,20.802205408478503],[77.707984845773325,20.802584552867255],[77.708669831260067,20.802938434526148],[77.709363763148247,20.80329170200562],[77.710022586305712,20.80365562690768],[77.710629738141193,20.804047864369352],[77.711248485859116,20.804472352868505],[77.711887773476775,20.804928481005142],[77.71253667058123,20.805392211186355],[77.71319517766274,20.805863543331039],[77.713815926881878,20.806312669327106],[77.714627145012201,20.806558759997454],[77.714749375076181,20.806736286644679],[77.714888167710953,20.806896158134684],[77.715075322026706,20.806986632021324],[77.715336343629474,20.806989441686259],[77.715585108743667,20.806951781658551],[77.715860704432117,20.806912286981582],[77.716023346104436,20.806921821382282],[77.716280724721599,20.806990970058706]]},"properties":{"FID":0,"LGD_CODE":"533018","ROAD_TYPE":"B"}},{"type":"Feature","id":1,"geometry":{"type":"LineString","coordinates":[[77.716221763837126,20.807040438978007],[77.716027321824257,20.806971118147331],[77.715802406156257,20.806969971912963],[77.71540491242429,20.807059106996594],[77.715155484659803,20.807088550614889],[77.714962699267844,20.80703976889906],[77.714783163626279,20.806932251241154],[77.714657290058184,20.806821065124108],[77.714583753285908,20.806689778353984],[77.714524460307914,20.806623609377201],[77.714311800992931,20.806551401126267],[77.714053098865975,20.806465817019948],[77.713805327966995,20.806404269621055],[77.713546957964709,20.806211263416511],[77.713287263731303,20.806001824454402],[77.712982189906768,20.805787225237513],[77.712648299117333,20.805549810664854],[77.712303478536171,20.805288358066431],[77.711913941407019,20.805029960741074],[77.711495588069354,20.804748747432246],[77.711065643387556,20.80443527942484],[77.710635038157619,20.804113593922324],[77.710152760541916,20.803820222429085],[77.709616823859136,20.803530515917402],[77.709052071938828,20.803217992083415],[77.708459167644619,20.802890866804123],[77.707847054563601,20.802548528766039],[77.707227324966652,20.802223231591089],[77.706596006178458,20.801865677864541],[77.706023321943121,20.80145454789962],[77.705717591316727,20.801454777353605],[77.705205190661417,20.801122141309463],[77.704986584997428,20.800975973964988],[77.704975339394494,20.800724767725661],[77.704708046262326,20.800532356598254],[77.704413923688662,20.800341777385785],[77.704233740811205,20.800226030619068],[77.703983335178691,20.80013160236081],[77.70364913050453,20.80000158928565],[77.703193368366357,20.799813785003611],[77.702728002145392,20.799618373795486],[77.702385517925279,20.799497185006974]]},"properties":{"FID":1,"LGD_CODE":"533018","ROAD_TYPE":"B"}},{"type":"Feature","id":2,"geometry":{"type":"LineString","coordinates":[[77.718583591455655,20.808900087660501],[77.718964598539898,20.80884710543787],[77.72017111739315,20.808656446725003],[77.721290160859866,20.808488544184801],[77.722385875729813,20.80833341780821],[77.722723052720298,20.808286113185684],[77.723175689235831,20.808008164978563]]},"properties":{"FID":2,"LGD_CODE":"533018","ROAD_TYPE":"B"}},{"type":"Feature","id":3,"geometry":{"type":"LineString","coordinates":[[77.723096579329109,20.807973277304136],[77.72267729431907,20.808222117479289],[77.722044209704478,20.808325090609557],[77.721012191436628,20.808464670595075],[77.719941294644599,20.808625549334558],[77.71885394680497,20.808783817175325],[77.718559982299524,20.808834132732947]]},"properties":{"FID":3,"LGD_CODE":"533018","ROAD_TYPE":"B"}},{"type":"Feature","id":4,"geometry":{"type":"LineString","coordinates":[[77.710338749745745,20.813049873946824],[77.71101209596462,20.812854613067781],[77.711464018352004,20.812761971519873],[77.712394274790199,20.812556867148139],[77.712587837072078,20.81252562514717],[77.713413054766846,20.812199033810565],[77.714352795353363,20.811833731471374],[77.715338134384098,20.811408696215786],[77.716359786134959,20.811017197680727],[77.717406812580379,20.810593079701583],[77.7185031502854,20.810155290693441],[77.718989722880593,20.810006222732664],[77.719955429619674,20.809546479279657],[77.721050302077032,20.809021285563627],[77.722220275079223,20.808454923041189],[77.722588599203092,20.808298494434172]]},"properties":{"FID":4,"LGD_CODE":"533018","ROAD_TYPE":"C"}},{"type":"Feature","id":5,"geometry":{"type":"LineString","coordinates":[[77.711793011433286,20.81731453990696],[77.711995560452479,20.816622680549504],[77.712174027655379,20.816024483341685],[77.712273650966523,20.815560013584307],[77.712703982828501,20.814947023066772],[77.713159556248215,20.814254818787969],[77.713617650116802,20.813528540347633],[77.713853977744265,20.813190328631805]]},"properties":{"FID":5,"LGD_CODE":"533018","ROAD_TYPE":"C"}},{"type":"Feature","id":6,"geometry":{"type":"LineString","coordinates":[[77.713853977744265,20.813190328631805],[77.714410131184835,20.812568733625124],[77.714739082872342,20.812202395782258],[77.715289986168131,20.811581157068154],[77.715447275000656,20.811374263896241]]},"properties":{"FID":6,"LGD_CODE":"533018","ROAD_TYPE":"C"}},{"type":"Feature","id":7,"geometry":{"type":"LineString","coordinates":[[77.708755676936022,20.812794319439778],[77.709401643731226,20.812480960758659],[77.710085739319737,20.812112887024632],[77.710704191319252,20.811751467617064],[77.711438945780429,20.811425520693319],[77.712102310908449,20.811152214826485],[77.712390116167654,20.811086950651795],[77.712726498750996,20.810862043916522],[77.713325612514922,20.810436803038872],[77.714013866502796,20.809944675139064],[77.714738330209073,20.809432700228914],[77.715233142293741,20.809062348102518],[77.715517280460688,20.808541390886877],[77.715820741973857,20.807967004968962],[77.71616407122545,20.807359497000178],[77.716311882901692,20.807082341667133]]},"properties":{"FID":7,"LGD_CODE":"533018","ROAD_TYPE":"C"}},{"type":"Feature","id":8,"geometry":{"type":"LineString","coordinates":[[77.716097065983774,20.806447446650445],[77.716697798941595,20.806292636541293],[77.71740431122069,20.806144458255002]]},"properties":{"FID":8,"LGD_CODE":"533018","ROAD_TYPE":"C"}},{"type":"Feature","id":9,"geometry":{"type":"LineString","coordinates":[[77.719693129595498,20.799857217586112],[77.719558245140306,20.80031925145391],[77.719307250210903,20.800339145760834],[77.718648967926299,20.801153481976286],[77.718035033745494,20.801943100949813],[77.717403963352652,20.802685064100931],[77.717196220654671,20.803239399168771],[77.717153892108442,20.803538297296598],[77.716900874984503,20.803943148119284],[77.716558292800258,20.804225955468453],[77.716223784733629,20.804526519705142],[77.715906894713456,20.80488080747477],[77.715606370621643,20.805225426006224]]},"properties":{"FID":9,"LGD_CODE":"533018","ROAD_TYPE":"C"}},{"type":"Feature","id":10,"geometry":{"type":"LineString","coordinates":[[77.702265961090063,20.798395738170321],[77.702939403082212,20.798131372387751],[77.704367083457583,20.797697905452814],[77.707207588569261,20.797100725913619],[77.709277004217427,20.796690572702843],[77.709545697695802,20.796621819031127],[77.71121105203693,20.796188854932549],[77.711580834117314,20.796062834540233],[77.713228250441688,20.795765051027974],[77.713713233325109,20.795680074671598]]},"properties":{"FID":10,"LGD_CODE":"533018","ROAD_TYPE":"C"}},{"type":"Feature","id":11,"geometry":{"type":"LineString","coordinates":[[77.727872769640726,20.81690211270039],[77.727792954131232,20.816218234668991],[77.727654194922948,20.815108965217167],[77.727570753074957,20.814380132479108],[77.727555265055628,20.813578845105116],[77.727480022432388,20.813256275046733],[77.727499481873181,20.813040230647914]]},"properties":{"FID":11,"LGD_CODE":"533018","ROAD_TYPE":"C"}},{"type":"Feature","id":12,"geometry":{"type":"LineString","coordinates":[[77.712053858527156,20.818910914010882],[77.711924087936097,20.817734847451529],[77.711874978917152,20.817389783127176]]},"properties":{"FID":12,"LGD_CODE":"533018","ROAD_TYPE":"C"}},{"type":"Feature","id":13,"geometry":{"type":"LineString","coordinates":[[77.726897766695288,20.807556927010157],[77.725751034970628,20.807690468362303],[77.725080400932285,20.807760212024018],[77.724913111750752,20.807787242595015],[77.724706249192621,20.807820734064062],[77.724345303238763,20.807881171642478],[77.724121661254514,20.807918720718959],[77.723177363030516,20.808082214076279]]},"properties":{"FID":13,"LGD_CODE":"533018","ROAD_TYPE":"A"}},{"type":"Feature","id":14,"geometry":{"type":"LineString","coordinates":[[77.711404196886932,20.796307019186024],[77.711668221128278,20.796714665801449],[77.711983404479653,20.797225304383055],[77.71233424584068,20.797769591701027],[77.712492216018433,20.798035634498774],[77.712666711909961,20.798346173181361],[77.712924100380221,20.798832332097415],[77.713442990625353,20.799791637744725],[77.713888328479385,20.800202092540658],[77.714010628668916,20.80034810778875],[77.714074279860739,20.800602886057888],[77.71411055554529,20.800974699023328],[77.714185690252833,20.801324249949328],[77.714403218477528,20.802278671104109],[77.714500606024515,20.802717845535422],[77.714588954271363,20.802984323435243],[77.715135885257652,20.804587034687611],[77.715198844378605,20.804744713114541],[77.715223916092469,20.804808914282656],[77.715431230894509,20.805341675727039],[77.715832561383337,20.80639373176983],[77.715954975359949,20.806638540835731],[77.716064605973443,20.806858590025438],[77.716491786754986,20.807747325486332],[77.716911720777361,20.80795977352961],[77.717161701691765,20.808079011937632],[77.717280304336384,20.8081268157189],[77.717531851652453,20.808213299825685],[77.717806849875672,20.808388834694046],[77.718037070977118,20.808598524602928],[77.718106613537429,20.808669219306566],[77.718232407592552,20.808798836916399],[77.718379373364172,20.809034456299315],[77.718735786464819,20.810181066440133],[77.718761996011267,20.810236226898155],[77.718783938711866,20.810282381485159],[77.718925921451159,20.810743286864437],[77.719376072863341,20.812402477407598],[77.719524828743218,20.812970038448235],[77.719814843333253,20.813980441675891],[77.719962551641103,20.814568896540091],[77.72021635291182,20.815301204823463],[77.720287404785694,20.815497782876275],[77.72034421542817,20.815634044317619],[77.72085055373833,20.817140358175305],[77.720928323147092,20.817323703082529],[77.720953721827726,20.817388185910531]]},"properties":{"FID":14,"LGD_CODE":"533018","ROAD_TYPE":"A"}},{"type":"Feature","id":15,"geometry":{"type":"LineString","coordinates":[[77.721051653873758,20.817370580043168],[77.721021093699875,20.817294781190292],[77.720969596792102,20.817074301502998],[77.72045844281935,20.815573480465517],[77.720401502176358,20.815419154359343],[77.720201622359511,20.814838933543228],[77.720033989948391,20.814318350595645],[77.719746934368089,20.813302283795963],[77.719711261068454,20.813183389421802],[77.719598076240331,20.812804163186605],[77.719461314059558,20.812318385953539],[77.719038908935431,20.810761203793383],[77.718912014073453,20.810311494262752],[77.718907077981385,20.810292895280998],[77.718472056209933,20.808900073121219],[77.718170328595363,20.808597119498948],[77.717872175356291,20.808290190938422],[77.717811324575706,20.808259524406832],[77.717608886282704,20.808156923617208],[77.717239685860932,20.807987627745995],[77.717084296458978,20.807916344656327],[77.716569421793878,20.807690945892112],[77.716127015483877,20.806771820680215],[77.716030833531008,20.806585559901929],[77.715926130697923,20.80638298071019],[77.715570478795129,20.805422659273106],[77.715522253012054,20.805310617016431],[77.715383691908926,20.80499025907713],[77.715373265020105,20.804959274339797],[77.714652909310317,20.802861977731574],[77.714563041309276,20.802550909697157],[77.714349511617641,20.801568236105322],[77.714212448746693,20.800953169875463],[77.714209979074411,20.800943587988691],[77.714180984515792,20.800666574323238],[77.714154201207322,20.800363012644425],[77.714135123387109,20.800213525743814],[77.713880477935106,20.800027694632359],[77.713555679567392,20.7997689119731],[77.713472956064621,20.799617002131153],[77.71249645575007,20.797788897246818],[77.712439395943434,20.797700055778993],[77.712226324574431,20.797367176679092],[77.711898498980034,20.796851536889971],[77.711543608063096,20.796244043717053]]},"properties":{"FID":15,"LGD_CODE":"533018","ROAD_TYPE":"A"}},{"type":"Feature","id":16,"geometry":{"type":"LineString","coordinates":[[77.723174652558555,20.808205867851328],[77.723515186162572,20.808144997279108],[77.724150129156158,20.808037095926139],[77.724355795609839,20.80800417719918]]},"properties":{"FID":16,"LGD_CODE":"533018","ROAD_TYPE":"A"}},{"type":"Feature","id":17,"geometry":{"type":"LineString","coordinates":[[77.724355795609839,20.80800417719918],[77.724736575354683,20.807947001122752],[77.725493490879728,20.807854693648316],[77.72592400084865,20.807819800127373],[77.726912959942609,20.807673965318092]]},"properties":{"FID":17,"LGD_CODE":"533018","ROAD_TYPE":"A"}}]
}