{
  "type" : "FeatureCollection",
  "features" : [{"type":"Feature","id":0,"geometry":{"type":"Polygon","coordinates":[[[77.71434218822624,20.818406479025242],[77.711981898047441,20.81888609191072],[77.711827219245947,20.819028717813548],[77.711678579176294,20.81783727184774],[77.711673343242765,20.817808995884445],[77.711647358291188,20.81766866818602],[77.711736819644713,20.817418013106074],[77.712206535342133,20.815772799483767],[77.712715536272967,20.815005771681054],[77.713273127326175,20.814150367321648],[77.71345202028094,20.81498929009998],[77.713678602776113,20.815445149557139],[77.714202772249863,20.816547237556623],[77.714264960917802,20.816680644105631],[77.714439307204316,20.817051019430398],[77.714968689321594,20.818041291072987],[77.715069623214234,20.818225498723582],[77.714885177025764,20.818248890042685],[77.71434218822624,20.818406479025242]]]},"properties":{"FID":0,"Join_Count":0,"TARGET_FID":0,"Layer":"TEXT_PARCEL","Text":"59","vill_code":"533018","LGD_CODE":"533018"}},{"type":"Feature","id":1,"geometry":{"type":"Polygon","coordinates":[[[77.717218878854027,20.817937037082267],[77.716792176823759,20.818007034915734],[77.715069623214234,20.818225498723582],[77.714968689321594,20.818041291072984],[77.714439307204316,20.817051019430401],[77.714264960917802,20.816680644105631],[77.714468242576402,20.816648315823855],[77.715918302629362,20.81643256762705],[77.717548779322158,20.816177846420921],[77.717563522854476,20.816224610858757],[77.717415483796302,20.816927840201647],[77.717263382164816,20.81773440657015],[77.717218878854027,20.817937037082267]]]},"properties":{"FID":1,"Join_Count":0,"TARGET_FID":0,"Layer":"TEXT_PARCEL","Text":"61","vill_code":"533018","LGD_CODE":"533018"}},{"type":"Feature","id":2,"geometry":{"type":"Polygon","coordinates":[[[77.717746502029044,20.817850482751254],[77.717218878854027,20.817937037082267],[77.717263382164816,20.81773440657015],[77.717415483796302,20.816927840201647],[77.717563522854476,20.816224610858757],[77.717548779322158,20.816177846420921],[77.717756233524099,20.816141536502357],[77.718845567283878,20.816020626020819],[77.719166336485813,20.815963840229092],[77.720287404785708,20.815497782876292],[77.72034421542817,20.815634044317616],[77.72085055373833,20.817140358175294],[77.720928323147078,20.817323703082533],[77.720953721827726,20.817388185910541],[77.720331567042081,20.81750003293179],[77.719070360071242,20.81763131281739],[77.717746502029044,20.817850482751254]]]},"properties":{"FID":2,"Join_Count":0,"TARGET_FID":0,"Layer":"TEXT_PARCEL","Text":"62","vill_code":"533018","LGD_CODE":"533018"}},{"type":"Feature","id":3,"geometry":{"type":"Polygon","coordinates":[[[77.713273127326175,20.814150367321648],[77.712715536272967,20.815005771681054],[77.712206535342133,20.815772799483767],[77.711736819644713,20.817418013106074],[77.711647358291188,20.81766866818602],[77.711505699134278,20.816998876046945],[77.711342437928991,20.816162113039578],[77.711158594763759,20.815301202954313],[77.711060064184622,20.815122294894163],[77.710261038183631,20.813440435204775],[77.710179290177905,20.813257469742513],[77.710555179531255,20.813185674368142],[77.711346270140155,20.812998929497159],[77.712192602080606,20.812814092791001],[77.712432356179221,20.812761778411115],[77.712820942308554,20.812702883631061],[77.713431591878205,20.812636382881308],[77.713634417840268,20.813128523603432],[77.713757205012143,20.813425268806437],[77.713287880459305,20.814114708129864],[77.713273127326175,20.814150367321648]]]},"properties":{"FID":3,"Join_Count":0,"TARGET_FID":0,"Layer":"TEXT_PARCEL","Text":"58","vill_code":"533018","LGD_CODE":"533018"}},{"type":"Feature","id":4,"geometry":{"type":"Polygon","coordinates":[[[77.721051653873772,20.817370580043153],[77.720953721827726,20.817388185910541],[77.720928323147078,20.817323703082533],[77.72085055373833,20.817140358175294],[77.72034421542817,20.815634044317616],[77.720287404785708,20.815497782876292],[77.720216352911834,20.815301204823456],[77.719962551641103,20.814568896540084],[77.719814843333253,20.813980441675888],[77.719524828743204,20.812970038448245],[77.719376072863355,20.812402477407595],[77.718925921451159,20.810743286864433],[77.718783938711866,20.810282381485152],[77.718761996011267,20.810236226898155],[77.718735786464819,20.810181066440119],[77.718379373364172,20.809034456299315],[77.718232407592552,20.808798836916395],[77.718106613537415,20.808669219306555],[77.718037070977118,20.808598524602925],[77.717806849875686,20.808388834694053],[77.717531851652453,20.808213299825667],[77.717280304336384,20.8081268157189],[77.717161701691751,20.80807901193764],[77.716911720777347,20.80795977352961],[77.716491786755,20.807747325486321],[77.716064605973429,20.806858590025438],[77.715954975359949,20.806638540835728],[77.715832561383337,20.806393731769834],[77.715431230894509,20.805341675727032],[77.715223916092469,20.804808914282653],[77.715198844378619,20.804744713114541],[77.715135885257652,20.8045870346876],[77.714588954271363,20.802984323435247],[77.714500606024515,20.802717845535437],[77.714403218477514,20.802278671104116],[77.714185690252833,20.801324249949349],[77.71411055554529,20.800974699023328],[77.714074279860739,20.800602886057892],[77.714010628668916,20.800348107788743],[77.713888328479385,20.800202092540662],[77.713442990625367,20.799791637744725],[77.712924100380235,20.798832332097415],[77.712666711909947,20.798346173181361],[77.712492216018433,20.798035634498774],[77.71233424584068,20.797769591701034],[77.711983404479668,20.797225304383055],[77.711668221128278,20.79671466580146],[77.711404196886932,20.796307019186024],[77.71154360806311,20.796244043717067],[77.711898498980034,20.796851536889982],[77.712226324574431,20.797367176679096],[77.712439395943434,20.797700055779007],[77.712496455750056,20.797788897246818],[77.713472956064621,20.799617002131153],[77.713555679567378,20.7997689119731],[77.713880477935106,20.800027694632359],[77.714135123387109,20.800213525743807],[77.714154201207322,20.800363012644425],[77.714180984515792,20.800666574323248],[77.714209979074411,20.800943587988701],[77.714212448746707,20.800953169875466],[77.714349511617641,20.801568236105329],[77.714563041309276,20.802550909697164],[77.714652909310331,20.802861977731574],[77.715373265020105,20.804959274339804],[77.715383691908926,20.80499025907714],[77.71552225301204,20.805310617016442],[77.715570478795129,20.805422659273106],[77.715926130697909,20.80638298071019],[77.716030833531008,20.806585559901919],[77.716127015483877,20.806771820680215],[77.716569421793878,20.807690945892102],[77.717084296458978,20.807916344656324],[77.717239685860932,20.807987627745995],[77.717608886282704,20.808156923617208],[77.717811324575706,20.808259524406832],[77.717872175356291,20.808290190938415],[77.718170328595363,20.808597119498952],[77.718472056209947,20.808900073121215],[77.718907077981399,20.810292895280995],[77.718912014073439,20.810311494262745],[77.719038908935417,20.81076120379338],[77.719461314059572,20.812318385953546],[77.719598076240331,20.812804163186605],[77.719711261068468,20.813183389421802],[77.719746934368089,20.813302283795959],[77.720033989948405,20.814318350595645],[77.720201622359511,20.814838933543221],[77.720401502176358,20.815419154359343],[77.72045844281935,20.81557348046551],[77.720969596792102,20.817074301502998],[77.721021093699861,20.817294781190288],[77.721051653873772,20.817370580043153]]]},"properties":{"FID":4,"Join_Count":0,"TARGET_FID":0,"Layer":" ","Text":" ","vill_code":"533018","LGD_CODE":"533018"}},{"type":"Feature","id":5,"geometry":{"type":"Polygon","coordinates":[[[77.723005010714218,20.816946021906574],[77.722506424206642,20.81704565917893],[77.721292753149868,20.817327236009366],[77.721051653873772,20.817370580043153],[77.721021093699861,20.817294781190288],[77.720969596792102,20.817074301502998],[77.72045844281935,20.81557348046551],[77.720401502176358,20.815419154359343],[77.721842825785259,20.814576203953276],[77.72210329303924,20.814482534530701],[77.723630573467645,20.813990174880857],[77.723849303107286,20.8139362858536],[77.723945350816805,20.814518290577293],[77.723863085477319,20.814515424663657],[77.723768003119901,20.81481636660126],[77.723547209789814,20.815416750522669],[77.723321056932534,20.816023377851813],[77.723171117017955,20.816459593307712],[77.723005010714218,20.816946021906574]]]},"properties":{"FID":5,"Join_Count":0,"TARGET_FID":0,"Layer":"TEXT_PARCEL","Text":"13","vill_code":"533018","LGD_CODE":"533018"}},{"type":"Feature","id":6,"geometry":{"type":"Polygon","coordinates":[[[77.72759241390645,20.814944521108306],[77.727842587087579,20.817022726163188],[77.727815510138143,20.817009572958103],[77.726970299997831,20.816863545995151],[77.725115316169678,20.816595565007468],[77.725080469687981,20.816334016426246],[77.725022734022943,20.815488126497723],[77.72497699676272,20.814641030762424],[77.725956990165116,20.81426164575738],[77.726135981483409,20.814191634514096],[77.727440117302876,20.813642512575974],[77.727514750063776,20.813611397877466],[77.727567262157578,20.81470418387002],[77.72759241390645,20.814944521108306]]]},"properties":{"FID":6,"Join_Count":0,"TARGET_FID":0,"Layer":"TEXT_PARCEL","Text":"15","vill_code":"533018","LGD_CODE":"533018"}},{"type":"Feature","id":7,"geometry":{"type":"Polygon","coordinates":[[[77.725016377786105,20.816581271163653],[77.723685572047486,20.816784156010886],[77.72342953115205,20.816861184218325],[77.723005010714218,20.816946021906574],[77.723171117017955,20.816459593307712],[77.723321056932534,20.816023377851813],[77.723547209789814,20.815416750522669],[77.723768003119901,20.81481636660126],[77.723863085477319,20.814515424663657],[77.723945350816805,20.814518290577293],[77.72497699676272,20.814641030762424],[77.725022734022943,20.815488126497723],[77.725080469687981,20.816334016426246],[77.725115316169678,20.816595565007468],[77.725016377786105,20.816581271163653]]]},"properties":{"FID":7,"Join_Count":0,"TARGET_FID":0,"Layer":"TEXT_PARCEL","Text":"14","vill_code":"533018","LGD_CODE":"533018"}},{"type":"Feature","id":8,"geometry":{"type":"Polygon","coordinates":[[[77.717548779322158,20.816177846420921],[77.715918302629362,20.81643256762705],[77.714468242576402,20.816648315823855],[77.714264960917802,20.816680644105631],[77.714202772249863,20.816547237556623],[77.713678602776113,20.815445149557139],[77.71345202028094,20.814989290099977],[77.713273127326175,20.814150367321648],[77.713287880459305,20.814114708129864],[77.713757205012143,20.813425268806437],[77.715964439307172,20.813488162438091],[77.716394957466889,20.813919024108785],[77.716638723483896,20.814677369805],[77.716687516533597,20.814784326439842],[77.717075523709184,20.815230132205208],[77.717333321637199,20.815516991004177],[77.717508819764305,20.816047123461864],[77.717548779322158,20.816177846420921]]]},"properties":{"FID":8,"Join_Count":0,"TARGET_FID":0,"Layer":"TEXT_PARCEL","Text":"60","vill_code":"533018","LGD_CODE":"533018"}},{"type":"Feature","id":9,"geometry":{"type":"Polygon","coordinates":[[[77.720287404785708,20.815497782876292],[77.719166336485813,20.815963840229092],[77.718845567283878,20.816020626020819],[77.717756233524099,20.816141536502357],[77.717548779322158,20.816177846420921],[77.717508819764305,20.816047123461864],[77.717333321637199,20.815516991004177],[77.717075523709184,20.815230132205208],[77.716687516533597,20.814784326439842],[77.716638723483896,20.814677369805],[77.716394957466889,20.813919024108785],[77.716513124112694,20.813821742092721],[77.71742825951118,20.81301883327809],[77.717558110789511,20.812876877555464],[77.717752241073953,20.812824844164247],[77.719376072863355,20.812402477407595],[77.719524828743204,20.812970038448245],[77.719814843333253,20.813980441675888],[77.719962551641103,20.814568896540084],[77.720216352911834,20.815301204823456],[77.720287404785708,20.815497782876292]]]},"properties":{"FID":9,"Join_Count":0,"TARGET_FID":0,"Layer":"TEXT_PARCEL","Text":"63","vill_code":"533018","LGD_CODE":"533018"}},{"type":"Feature","id":10,"geometry":{"type":"Polygon","coordinates":[[[77.723849303107286,20.8139362858536],[77.723630573467645,20.813990174880857],[77.72210329303924,20.814482534530701],[77.721842825785259,20.814576203953276],[77.720401502176358,20.815419154359343],[77.720201622359511,20.814838933543221],[77.720033989948405,20.814318350595645],[77.719746934368089,20.813302283795959],[77.719711261068468,20.813183389421802],[77.72104598013108,20.812627907348411],[77.722337509324419,20.812244876463165],[77.723456515726056,20.811913739232516],[77.723469030314163,20.811984228565972],[77.723658724095543,20.812982277884032],[77.723849303107286,20.8139362858536]]]},"properties":{"FID":10,"Join_Count":0,"TARGET_FID":0,"Layer":"TEXT_PARCEL","Text":"12","vill_code":"533018","LGD_CODE":"533018"}},{"type":"Feature","id":11,"geometry":{"type":"Polygon","coordinates":[[[77.727514750063776,20.813611397877466],[77.727440117302876,20.813642512575974],[77.726135981483409,20.814191634514096],[77.725956990165116,20.81426164575738],[77.72497699676272,20.814641030762424],[77.723945350816805,20.814518290577293],[77.723849303107286,20.8139362858536],[77.723658724095543,20.812982277884032],[77.723469030314163,20.811984228565972],[77.723456515726056,20.811913739232516],[77.723333767494267,20.811208265894539],[77.723245142862979,20.810656133412923],[77.727212056244454,20.811990963631647],[77.727347763176979,20.812030514174925],[77.727494621766965,20.813210286818808],[77.727507191031236,20.813454091789229],[77.727514750063776,20.813611397877466]]]},"properties":{"FID":11,"Join_Count":0,"TARGET_FID":0,"Layer":"TEXT_PARCEL","Text":"16","vill_code":"533018","LGD_CODE":"533018"}},{"type":"Feature","id":12,"geometry":{"type":"Polygon","coordinates":[[[77.717558110789511,20.812876877555464],[77.71742825951118,20.81301883327809],[77.716513124112694,20.813821742092721],[77.716394957466889,20.813919024108785],[77.715964439307172,20.813488162438091],[77.713757205012143,20.813425268806437],[77.713634417840268,20.813128523603432],[77.713431591878205,20.812636382881308],[77.712820942308554,20.812702883631061],[77.712432356179221,20.812761778411115],[77.711736457224447,20.811314691384851],[77.712121675907667,20.811205009645104],[77.712271352446109,20.811148744337608],[77.713400855468223,20.810352975471218],[77.714246221802824,20.809783676949039],[77.714277494673027,20.809875501924257],[77.714561810709782,20.810430359915379],[77.714859074124277,20.811032557930332],[77.71496838682792,20.81120800958168],[77.7151258177323,20.811312589755584],[77.716131746019386,20.811954924456717],[77.717406716313889,20.812777342374808],[77.717558110789511,20.812876877555464]]]},"properties":{"FID":12,"Join_Count":0,"TARGET_FID":0,"Layer":"TEXT_PARCEL","Text":"56","vill_code":"533018","LGD_CODE":"533018"}},{"type":"Feature","id":13,"geometry":{"type":"Polygon","coordinates":[[[77.710179290177905,20.813257469742513],[77.709960472828371,20.813299488037007],[77.708882104077418,20.813441168059352],[77.708846324150471,20.813387837938102],[77.708770459235339,20.813274760859183],[77.70798971310262,20.81204900300072],[77.707872549164264,20.811865055922713],[77.708160059980685,20.811606387802598],[77.709248683736774,20.812568339887093],[77.709736666619904,20.812305026958917],[77.710296195588967,20.811972953976667],[77.710429025027636,20.811911150240949],[77.710630662106198,20.81181730036004],[77.711659773600658,20.811336625379056],[77.711736457224447,20.811314691384851],[77.712432356179221,20.812761778411115],[77.712192602080606,20.812814092791001],[77.711346270140155,20.812998929497159],[77.710555179531255,20.813185674368142],[77.710179290177905,20.813257469742513]]]},"properties":{"FID":13,"Join_Count":0,"TARGET_FID":0,"Layer":"TEXT_PARCEL","Text":"57","vill_code":"533018","LGD_CODE":"533018"}},{"type":"Feature","id":14,"geometry":{"type":"Polygon","coordinates":[[[77.723456515726056,20.811913739232516],[77.722337509324419,20.812244876463165],[77.72104598013108,20.812627907348411],[77.719711261068468,20.813183389421802],[77.719598076240331,20.812804163186605],[77.719461314059572,20.812318385953546],[77.719792888447373,20.812012000098797],[77.720395104743858,20.811441388128781],[77.720599699926296,20.811258874785032],[77.721461454724718,20.810216913181062],[77.723048390866637,20.808344982481952],[77.723174652558555,20.808205867851331],[77.723515186162587,20.808144997279115],[77.724150129156158,20.808037095926139],[77.724355795609839,20.808004177199187],[77.72431853474356,20.808164745859372],[77.724034509201147,20.809235240456445],[77.723245142862979,20.810656133412923],[77.723333767494267,20.811208265894539],[77.723456515726056,20.811913739232516]]]},"properties":{"FID":14,"Join_Count":0,"TARGET_FID":0,"Layer":"TEXT_PARCEL","Text":"11","vill_code":"533018","LGD_CODE":"533018"}},{"type":"Feature","id":15,"geometry":{"type":"Polygon","coordinates":[[[77.719376072863355,20.812402477407595],[77.717752241073953,20.812824844164247],[77.717558110789511,20.812876877555464],[77.717406716313889,20.812777342374808],[77.716131746019386,20.811954924456717],[77.7151258177323,20.811312589755584],[77.71496838682792,20.81120800958168],[77.715729655320388,20.811050225883648],[77.716690594985621,20.810860131045754],[77.717192437767054,20.810522755390721],[77.717485715320947,20.80989877296469],[77.717624168099974,20.809617318768996],[77.717828883498115,20.809200519077404],[77.718106613537415,20.808669219306555],[77.718232407592552,20.808798836916395],[77.718379373364172,20.809034456299315],[77.718735786464819,20.810181066440119],[77.718761996011267,20.810236226898155],[77.718783938711866,20.810282381485152],[77.718925921451159,20.810743286864433],[77.719376072863355,20.812402477407595]]]},"properties":{"FID":15,"Join_Count":0,"TARGET_FID":0,"Layer":"TEXT_PARCEL","Text":"64","vill_code":"533018","LGD_CODE":"533018"}},{"type":"Feature","id":16,"geometry":{"type":"Polygon","coordinates":[[[77.710429025027636,20.811911150240949],[77.710296195588967,20.811972953976667],[77.709736666619904,20.812305026958917],[77.709248683736774,20.812568339887093],[77.708160059980685,20.811606387802598],[77.707804855846135,20.810873002270409],[77.707431054026827,20.810140861032451],[77.706719161520851,20.808716435036889],[77.706641229956247,20.808562799782464],[77.706569993908602,20.808422107302246],[77.706729717974966,20.808343765948582],[77.708420747603412,20.807750011492921],[77.70859890164401,20.808236668256264],[77.708633756752732,20.808326213626806],[77.708896645796585,20.808994124688375],[77.709298933399339,20.80984802814196],[77.709683442491311,20.810649538459799],[77.710429025027636,20.811911150240949]]]},"properties":{"FID":16,"Join_Count":0,"TARGET_FID":0,"Layer":"TEXT_PARCEL","Text":"49","vill_code":"533018","LGD_CODE":"533018"}},{"type":"Feature","id":17,"geometry":{"type":"Polygon","coordinates":[[[77.723174652558555,20.808205867851331],[77.723048390866637,20.808344982481952],[77.721461454724718,20.810216913181062],[77.720599699926296,20.811258874785032],[77.720395104743858,20.811441388128781],[77.719792888447373,20.812012000098797],[77.719461314059572,20.812318385953546],[77.719038908935417,20.81076120379338],[77.718912014073439,20.810311494262745],[77.718907077981399,20.810292895280995],[77.718472056209947,20.808900073121215],[77.718746610898322,20.808846401957418],[77.71930728730068,20.808761567421818],[77.719803806439003,20.808687298412035],[77.720111919095146,20.808625509600638],[77.720927986485151,20.808410339009345],[77.721580963599735,20.808222165984269],[77.722203168134172,20.808095721495235],[77.722200458007663,20.80805283279274],[77.722373423535387,20.808313689514382],[77.722644138463764,20.808227293104405],[77.723001427139593,20.808158978202986],[77.72317736303053,20.808082214076268],[77.723174652558555,20.808205867851331]]]},"properties":{"FID":17,"Join_Count":0,"TARGET_FID":0,"Layer":"TEXT_PARCEL","Text":"10","vill_code":"533018","LGD_CODE":"533018"}},{"type":"Feature","id":18,"geometry":{"type":"Polygon","coordinates":[[[77.727328271740546,20.811873927964044],[77.727347763176979,20.812030514174925],[77.727212056244454,20.811990963631647],[77.723245142862979,20.810656133412923],[77.724034509201147,20.809235240456445],[77.72431853474356,20.808164745859372],[77.724355795609839,20.808004177199187],[77.724736575354683,20.807947001122745],[77.725493490879742,20.80785469364832],[77.725924000848664,20.807819800127373],[77.726912959942595,20.807673965318088],[77.727159740167679,20.810069569836564],[77.727300331874559,20.811662964070994],[77.727328271740546,20.811873927964044]]]},"properties":{"FID":18,"Join_Count":0,"TARGET_FID":0,"Layer":"TEXT_PARCEL","Text":"17","vill_code":"533018","LGD_CODE":"533018"}},{"type":"Feature","id":19,"geometry":{"type":"Polygon","coordinates":[[[77.711736457224447,20.811314691384851],[77.711659773600658,20.811336625379056],[77.710630662106198,20.81181730036004],[77.710429025027636,20.811911150240949],[77.709683442491311,20.810649538459799],[77.709298933399339,20.80984802814196],[77.708896645796585,20.808994124688375],[77.708633756752732,20.808326213626806],[77.710268328180831,20.808065881005795],[77.710400943246682,20.808563547844578],[77.711312515235278,20.808438712189108],[77.711456207230043,20.808469425665134],[77.711638370120568,20.808675472801539],[77.711620442721184,20.808770994262677],[77.71162348878434,20.808861303177551],[77.711675354873023,20.809903701429977],[77.711733213136228,20.811112603178795],[77.711736457224447,20.811314691384851]]]},"properties":{"FID":19,"Join_Count":0,"TARGET_FID":0,"Layer":"TEXT_PARCEL","Text":"50","vill_code":"533018","LGD_CODE":"533018"}},{"type":"Feature","id":20,"geometry":{"type":"Polygon","coordinates":[[[77.708160059980685,20.811606387802598],[77.707872549164264,20.811865055922713],[77.707744263133137,20.811721898124425],[77.707455492861811,20.811297469767208],[77.707068453120741,20.810729694217702],[77.706685331092146,20.810205928843075],[77.706428249049509,20.809825272173136],[77.706391083028478,20.80977024105389],[77.706072266857674,20.809002751015974],[77.706012492256406,20.808869890710966],[77.706498225127305,20.808628616494826],[77.706641229956247,20.808562799782464],[77.706719161520851,20.808716435036889],[77.707431054026827,20.810140861032451],[77.707804855846135,20.810873002270409],[77.708160059980685,20.811606387802598]]]},"properties":{"FID":20,"Join_Count":0,"TARGET_FID":0,"Layer":"TEXT_PARCEL","Text":"48","vill_code":"533018","LGD_CODE":"533018"}},{"type":"Feature","id":21,"geometry":{"type":"Polygon","coordinates":[[[77.714246221802824,20.809783676949039],[77.713400855468223,20.810352975471218],[77.712271352446109,20.811148744337608],[77.712121675907667,20.811205009645104],[77.711736457224447,20.811314691384851],[77.711733213136228,20.811112603178795],[77.711675354873023,20.809903701429977],[77.71162348878434,20.808861303177551],[77.711620442721184,20.808770994262677],[77.711638370120568,20.808675472801539],[77.711654347863572,20.808643193192356],[77.711955969214003,20.808596701071604],[77.712873582412797,20.80839334758711],[77.714726830692186,20.807989336709795],[77.714819543508781,20.808361921405059],[77.714996447223271,20.809006654021964],[77.715057257360826,20.809199347557851],[77.71435852134563,20.809705627501721],[77.714246221802824,20.809783676949039]]]},"properties":{"FID":21,"Join_Count":0,"TARGET_FID":0,"Layer":"TEXT_PARCEL","Text":"55","vill_code":"533018","LGD_CODE":"533018"}},{"type":"Feature","id":22,"geometry":{"type":"Polygon","coordinates":[[[77.718106613537415,20.808669219306555],[77.717828883498115,20.809200519077404],[77.717624168099974,20.809617318768996],[77.717485715320947,20.80989877296469],[77.717192437767054,20.810522755390721],[77.716690594985621,20.810860131045754],[77.715729655320388,20.811050225883648],[77.71496838682792,20.81120800958168],[77.714859074124277,20.811032557930332],[77.714561810709782,20.810430359915379],[77.714277494673027,20.809875501924257],[77.714246221802824,20.809783676949039],[77.71435852134563,20.809705627501721],[77.715057257360826,20.809199347557851],[77.715580975963604,20.809066769718044],[77.716293417459667,20.808882192371687],[77.716320320750597,20.808866780068708],[77.716382494798395,20.808830821794064],[77.717002054514381,20.808251076927466],[77.717161701691751,20.80807901193764],[77.717280304336384,20.8081268157189],[77.717531851652453,20.808213299825667],[77.717806849875686,20.808388834694053],[77.718037070977118,20.808598524602925],[77.718106613537415,20.808669219306555]]]},"properties":{"FID":22,"Join_Count":0,"TARGET_FID":0,"Layer":"TEXT_PARCEL","Text":"65","vill_code":"533018","LGD_CODE":"533018"}},{"type":"Feature","id":23,"geometry":{"type":"Polygon","coordinates":[[[77.717161701691751,20.80807901193764],[77.717002054514381,20.808251076927466],[77.716382494798395,20.808830821794064],[77.716320320750597,20.808866780068708],[77.716293417459667,20.808882192371687],[77.715580975963604,20.809066769718044],[77.715057257360826,20.809199347557851],[77.714996447223271,20.809006654021964],[77.714819543508781,20.808361921405059],[77.714726830692186,20.807989336709795],[77.714727954460201,20.807978603179514],[77.714732263632996,20.807909700897113],[77.715059292403126,20.807387692279068],[77.715223158635013,20.807050188793042],[77.715772588414126,20.806736791983067],[77.715954975359949,20.806638540835728],[77.716064605973429,20.806858590025438],[77.716491786755,20.807747325486321],[77.716911720777347,20.80795977352961],[77.717161701691751,20.80807901193764]]]},"properties":{"FID":23,"Join_Count":0,"TARGET_FID":0,"Layer":"TEXT_PARCEL","Text":"54","vill_code":"533018","LGD_CODE":"533018"}},{"type":"Feature","id":24,"geometry":{"type":"Polygon","coordinates":[[[77.722200458007663,20.80805283279274],[77.722203168134172,20.808095721495235],[77.721580963599735,20.808222165984269],[77.720927986485151,20.808410339009345],[77.720111919095146,20.808625509600638],[77.719803806439003,20.808687298412035],[77.71930728730068,20.808761567421818],[77.718746610898322,20.808846401957418],[77.718472056209947,20.808900073121215],[77.718170328595363,20.808597119498952],[77.717872175356291,20.808290190938415],[77.717811324575706,20.808259524406832],[77.71797337609668,20.808088008126287],[77.718283935707547,20.807698202801266],[77.718327902070101,20.807634695731743],[77.718421184466195,20.80750030863679],[77.718833050316121,20.8070071147039],[77.718917883226467,20.80711723127445],[77.718934548721165,20.807264473908948],[77.718965847908578,20.807443239006648],[77.719765286341485,20.807337136439738],[77.719906147644437,20.807308019094336],[77.719913455683454,20.807155544139452],[77.719879950053084,20.806252473699814],[77.719891970199328,20.80592044142745],[77.720228826251571,20.805932991500963],[77.720849649901481,20.805949391424271],[77.721491145780334,20.805918800788717],[77.72158419502847,20.806169437669446],[77.721816212982517,20.806795186458409],[77.722173950451932,20.80770636635874],[77.722200458007663,20.80805283279274]]]},"properties":{"FID":24,"Join_Count":0,"TARGET_FID":0,"Layer":"TEXT_PARCEL","Text":"9","vill_code":"533018","LGD_CODE":"533018"}},{"type":"Feature","id":25,"geometry":{"type":"Polygon","coordinates":[[[77.706641229956247,20.808562799782464],[77.706498225127305,20.808628616494826],[77.706012492256406,20.808869890710966],[77.705077106002207,20.806741164035675],[77.704832301103522,20.806152613200986],[77.704801669944544,20.806078970269706],[77.705313302533639,20.806019887344537],[77.706924574880944,20.805777793655789],[77.70874171818862,20.805532139704678],[77.709013442124373,20.80550277573677],[77.709025202496008,20.806142338951904],[77.709029701273678,20.806605242802192],[77.709213529870837,20.806540297566414],[77.709851293249457,20.806238220086389],[77.710113865542027,20.806103905363994],[77.710649182652034,20.807261267326449],[77.710124228161874,20.807556994830467],[77.710268328180831,20.808065881005795],[77.708633756752732,20.808326213626806],[77.70859890164401,20.808236668256264],[77.708420747603412,20.807750011492921],[77.706729717974966,20.808343765948582],[77.706569993908602,20.808422107302246],[77.706641229956247,20.808562799782464]]]},"properties":{"FID":25,"Join_Count":0,"TARGET_FID":0,"Layer":"TEXT_PARCEL","Text":"47","vill_code":"533018","LGD_CODE":"533018"}},{"type":"Feature","id":26,"geometry":{"type":"Polygon","coordinates":[[[77.711654347863572,20.808643193192356],[77.711638370120568,20.808675472801539],[77.711456207230043,20.808469425665134],[77.711312515235278,20.808438712189108],[77.710400943246682,20.808563547844578],[77.710268328180831,20.808065881005795],[77.710124228161874,20.807556994830467],[77.710649182652034,20.807261267326449],[77.710753823639564,20.807203591669527],[77.71184680077873,20.806591537400266],[77.712066732681535,20.806454664856467],[77.712439055401688,20.806221990716995],[77.712833470030802,20.805972805066613],[77.713551198428632,20.806528895640749],[77.713160390317569,20.806862742661863],[77.713032296387681,20.806998475016599],[77.712288171056358,20.807873120513666],[77.711654347863572,20.808643193192356]]]},"properties":{"FID":26,"Join_Count":0,"TARGET_FID":0,"Layer":"TEXT_PARCEL","Text":"51","vill_code":"533018","LGD_CODE":"533018"}},{"type":"Feature","id":27,"geometry":{"type":"Polygon","coordinates":[[[77.714726830692186,20.807989336709795],[77.712873582412797,20.80839334758711],[77.711955969214003,20.808596701071604],[77.711654347863572,20.808643193192356],[77.712288171056358,20.807873120513666],[77.713032296387681,20.806998475016599],[77.713160390317569,20.806862742661863],[77.713551198428632,20.806528895640749],[77.713822083405432,20.806633893364506],[77.714341933509587,20.806800555044511],[77.715223158635013,20.807050188793042],[77.715059292403126,20.807387692279068],[77.714732263632996,20.807909700897113],[77.714727954460201,20.807978603179514],[77.714726830692186,20.807989336709795]]]},"properties":{"FID":27,"Join_Count":0,"TARGET_FID":0,"Layer":"TEXT_PARCEL","Text":"53","vill_code":"533018","LGD_CODE":"533018"}},{"type":"Feature","id":28,"geometry":{"type":"Polygon","coordinates":[[[77.72317736303053,20.808082214076268],[77.723001427139593,20.808158978202986],[77.722644138463764,20.808227293104405],[77.722373423535387,20.808313689514382],[77.722200458007663,20.80805283279274],[77.722173950451932,20.80770636635874],[77.721816212982517,20.806795186458409],[77.72158419502847,20.806169437669446],[77.721739907324661,20.806118772033503],[77.723216758230762,20.805719317381858],[77.723247392192818,20.805888488868739],[77.723677654537696,20.806034239934228],[77.723914722424112,20.80669326283633],[77.724345303238763,20.807881171642489],[77.724121661254514,20.807918720718959],[77.72317736303053,20.808082214076268]]]},"properties":{"FID":28,"Join_Count":0,"TARGET_FID":0,"Layer":"TEXT_PARCEL","Text":"20","vill_code":"533018","LGD_CODE":"533018"}},{"type":"Feature","id":29,"geometry":{"type":"Polygon","coordinates":[[[77.718327902070101,20.807634695731743],[77.718283935707547,20.807698202801266],[77.71797337609668,20.808088008126287],[77.717811324575706,20.808259524406832],[77.717608886282704,20.808156923617208],[77.717239685860932,20.807987627745995],[77.717444049408115,20.807772939310002],[77.717464858163794,20.807577473542587],[77.717451742069542,20.807506422821916],[77.717834283328685,20.807443603806107],[77.718250256798967,20.807438721865129],[77.718244002339191,20.80748731270123],[77.718327902070101,20.807634695731743]]]},"properties":{"FID":29,"Join_Count":0,"TARGET_FID":0,"Layer":"TEXT_PARCEL","Text":"66","vill_code":"533018","LGD_CODE":"533018"}},{"type":"Feature","id":30,"geometry":{"type":"Polygon","coordinates":[[[77.724355795609839,20.808004177199187],[77.724150129156158,20.808037095926139],[77.723515186162587,20.808144997279115],[77.723174652558555,20.808205867851331],[77.72317736303053,20.808082214076268],[77.724121661254514,20.807918720718959],[77.724345303238763,20.807881171642489],[77.724706249192607,20.807820734064055],[77.724913111750752,20.807787242595015],[77.725080400932285,20.807760212024018],[77.725751034970628,20.80769046836231],[77.726897766695288,20.807556927010157],[77.726910528176134,20.80765036094499],[77.726912959942595,20.807673965318088],[77.725924000848664,20.807819800127373],[77.725493490879742,20.80785469364832],[77.724736575354683,20.807947001122745],[77.724355795609839,20.808004177199187]]]},"properties":{"FID":30,"Join_Count":0,"TARGET_FID":0,"Layer":" ","Text":" ","vill_code":"533018","LGD_CODE":"533018"}},{"type":"Feature","id":31,"geometry":{"type":"Polygon","coordinates":[[[77.717451742069542,20.807506422821916],[77.717464858163794,20.807577473542587],[77.717444049408115,20.807772939310002],[77.717239685860932,20.807987627745995],[77.717084296458978,20.807916344656327],[77.716569421793878,20.807690945892102],[77.716127015483877,20.806771820680215],[77.716030833531008,20.806585559901919],[77.716785897171192,20.806570077290601],[77.717221616719385,20.80655660487167],[77.717343901824947,20.806532122886146],[77.717337715987085,20.806590310667261],[77.717352579245713,20.806737564854583],[77.717547371703034,20.806695124561816],[77.717593274331904,20.806901460890902],[77.717370123067028,20.806923756155587],[77.717395510111174,20.807199097048592],[77.717451742069542,20.807506422821916]]]},"properties":{"FID":31,"Join_Count":0,"TARGET_FID":0,"Layer":"TEXT_PARCEL","Text":"ग\u093Eवठ\u093Eण","vill_code":"533018","LGD_CODE":"533018"}},{"type":"Feature","id":32,"geometry":{"type":"Polygon","coordinates":[[[77.724913111750752,20.807787242595015],[77.724706249192607,20.807820734064055],[77.724345303238763,20.807881171642489],[77.723914722424112,20.80669326283633],[77.723677654537696,20.806034239934228],[77.723247392192818,20.805888488868739],[77.723216758230762,20.805719317381858],[77.723196267827021,20.805541613335283],[77.723088184089718,20.804704502617192],[77.723069555766401,20.804535254902593],[77.723944675736362,20.804271145040463],[77.723998909117498,20.804383147127645],[77.725010449878596,20.804390282037815],[77.725819542883542,20.804376679141832],[77.726479100943791,20.804354425761712],[77.726703763805958,20.804332861919288],[77.7267055987639,20.804394254218899],[77.726728692194953,20.805166924783283],[77.726735853291459,20.805263470234856],[77.726444414955836,20.805286157160324],[77.725892671948444,20.805359100571664],[77.72584594750586,20.805538924735512],[77.72569676462436,20.806160878732236],[77.725530649462272,20.806516471463222],[77.724913111750752,20.807787242595015]]]},"properties":{"FID":32,"Join_Count":0,"TARGET_FID":0,"Layer":"TEXT_PARCEL","Text":"19","vill_code":"533018","LGD_CODE":"533018"}},{"type":"Feature","id":33,"geometry":{"type":"Polygon","coordinates":[[[77.726897766695288,20.807556927010157],[77.725751034970628,20.80769046836231],[77.725080400932285,20.807760212024018],[77.724913111750752,20.807787242595015],[77.725530649462272,20.806516471463222],[77.72569676462436,20.806160878732236],[77.72584594750586,20.805538924735512],[77.725892671948444,20.805359100571664],[77.726444414955836,20.805286157160324],[77.726735853291459,20.805263470234856],[77.726863047856099,20.806978282054072],[77.726904400190591,20.807217953832676],[77.72691458392039,20.80746403313551],[77.726896583765779,20.807548265875411],[77.726897766695288,20.807556927010157]]]},"properties":{"FID":33,"Join_Count":0,"TARGET_FID":0,"Layer":"TEXT_PARCEL","Text":"18","vill_code":"533018","LGD_CODE":"533018"}},{"type":"Feature","id":34,"geometry":{"type":"Polygon","coordinates":[[[77.718833050316121,20.8070071147039],[77.718421184466195,20.80750030863679],[77.718327902070101,20.807634695731743],[77.718244002339191,20.80748731270123],[77.718250256798967,20.807438721865129],[77.718270691280409,20.807274873169046],[77.718272756400978,20.807144448849677],[77.717755053296614,20.807194007359058],[77.717395510111174,20.807199097048592],[77.717370123067028,20.806923756155587],[77.717593274331904,20.806901460890902],[77.718245526597968,20.80686347416459],[77.718418725416214,20.806823427419737],[77.718947597147931,20.806741052625359],[77.718910023254253,20.806858716455327],[77.718833050316121,20.8070071147039]]]},"properties":{"FID":34,"Join_Count":0,"TARGET_FID":0,"Layer":"TEXT_PARCEL","Text":"2","vill_code":"533018","LGD_CODE":"533018"}},{"type":"Feature","id":35,"geometry":{"type":"Polygon","coordinates":[[[77.718250256798967,20.807438721865129],[77.717834283328685,20.807443603806107],[77.717451742069542,20.807506422821916],[77.717395510111174,20.807199097048592],[77.717755053296614,20.807194007359058],[77.718272756400978,20.807144448849677],[77.718270691280409,20.807274873169046],[77.718250256798967,20.807438721865129]]]},"properties":{"FID":35,"Join_Count":0,"TARGET_FID":0,"Layer":"TEXT_PARCEL","Text":"1","vill_code":"533018","LGD_CODE":"533018"}},{"type":"Feature","id":36,"geometry":{"type":"Polygon","coordinates":[[[77.719891970199328,20.80592044142745],[77.719879950053084,20.806252473699814],[77.719913455683454,20.807155544139452],[77.719906147644437,20.807308019094336],[77.719765286341485,20.807337136439738],[77.718965847908578,20.807443239006648],[77.718934548721165,20.807264473908948],[77.718917883226467,20.80711723127445],[77.718833050316121,20.8070071147039],[77.718910023254253,20.806858716455327],[77.718947597147931,20.806741052625359],[77.718967564340659,20.806679390496548],[77.718981654606026,20.806551712952313],[77.718981013861267,20.806462517878209],[77.718874080605872,20.806451337273895],[77.7188758124815,20.806441728968551],[77.718924167045458,20.806153502500997],[77.718933658114196,20.805886974232788],[77.718936566287084,20.805790417536407],[77.71893738178187,20.805569672648332],[77.719189323596026,20.805544370997755],[77.719242953974174,20.805155056117282],[77.71931063348427,20.804715971793453],[77.719319418397831,20.804685430503405],[77.719723687892824,20.804639971454787],[77.719872561422164,20.804640160165537],[77.719868627420496,20.804677445466098],[77.71994474392082,20.805662672448566],[77.719904465881243,20.805821565942662],[77.719891970199328,20.80592044142745]]]},"properties":{"FID":36,"Join_Count":0,"TARGET_FID":0,"Layer":"TEXT_PARCEL","Text":"8","vill_code":"533018","LGD_CODE":"533018"}},{"type":"Feature","id":37,"geometry":{"type":"Polygon","coordinates":[[[77.712833470030802,20.805972805066613],[77.712439055401688,20.806221990716995],[77.712066732681535,20.806454664856467],[77.71184680077873,20.806591537400266],[77.710753823639564,20.807203591669527],[77.710649182652034,20.807261267326449],[77.710113865542027,20.806103905363994],[77.710252028454079,20.806033035181205],[77.71074858819037,20.805712644682185],[77.711249259267163,20.805379806877752],[77.711610659073671,20.805130830638255],[77.711882109089828,20.805315429457671],[77.712036539358962,20.805421160558083],[77.712833470030802,20.805972805066613]]]},"properties":{"FID":37,"Join_Count":0,"TARGET_FID":0,"Layer":"TEXT_PARCEL","Text":"46","vill_code":"533018","LGD_CODE":"533018"}},{"type":"Feature","id":38,"geometry":{"type":"Polygon","coordinates":[[[77.715954975359949,20.806638540835728],[77.715772588414126,20.806736791983067],[77.715223158635013,20.807050188793042],[77.714341933509587,20.806800555044511],[77.713822083405432,20.806633893364506],[77.713551198428632,20.806528895640749],[77.712833470030802,20.805972805066613],[77.712036539358962,20.805421160558083],[77.711882109089828,20.805315429457671],[77.712950876780582,20.804929905146221],[77.714264711129488,20.804481862293827],[77.714452616058892,20.804399949701576],[77.714513172905242,20.804725315470328],[77.715198844378619,20.804744713114541],[77.715223916092469,20.804808914282653],[77.715431230894509,20.805341675727032],[77.715832561383337,20.806393731769834],[77.715954975359949,20.806638540835728]]]},"properties":{"FID":38,"Join_Count":0,"TARGET_FID":0,"Layer":"TEXT_PARCEL","Text":"52","vill_code":"533018","LGD_CODE":"533018"}},{"type":"Feature","id":39,"geometry":{"type":"Polygon","coordinates":[[[77.718947597147931,20.806741052625359],[77.718418725416214,20.806823427419737],[77.718245526597968,20.80686347416459],[77.717593274331904,20.806901460890902],[77.717547371703034,20.806695124561816],[77.717352579245713,20.806737564854583],[77.717337715987085,20.806590310667264],[77.717343901824947,20.806532122886146],[77.717668656268046,20.806531204506538],[77.718206977310928,20.806510872797698],[77.718731958478443,20.806471993572078],[77.7188758124815,20.806441728968551],[77.718874080605872,20.806451337273895],[77.718981013861267,20.806462517878209],[77.718981654606026,20.806551712952313],[77.718967564340659,20.806679390496548],[77.718947597147931,20.806741052625359]]]},"properties":{"FID":39,"Join_Count":0,"TARGET_FID":0,"Layer":"TEXT_PARCEL","Text":"3","vill_code":"533018","LGD_CODE":"533018"}},{"type":"Feature","id":40,"geometry":{"type":"Polygon","coordinates":[[[77.717343901824947,20.806532122886146],[77.717221616719385,20.80655660487167],[77.716785897171192,20.806570077290598],[77.716030833531008,20.806585559901919],[77.715926130697909,20.80638298071019],[77.715570478795129,20.805422659273106],[77.71552225301204,20.805310617016442],[77.716175773322931,20.805031565572147],[77.716787402525412,20.80477084145652],[77.717354825004804,20.804540315279322],[77.717821961567921,20.804304774321977],[77.718210956515861,20.804222154309713],[77.719085108819371,20.804073241419054],[77.719366485552385,20.804051140979901],[77.719447233145289,20.804177655394525],[77.719423778575006,20.80433870095052],[77.719319418397831,20.804685430503405],[77.71931063348427,20.804715971793453],[77.719242953974174,20.805155056117282],[77.719189323596026,20.805544370997755],[77.71893738178187,20.805569672648332],[77.718809650592789,20.805587979977403],[77.718019106301355,20.805677650665672],[77.717315405616631,20.805739672184639],[77.717337402264192,20.805960837770289],[77.717369981067051,20.806150886271034],[77.717368528557401,20.806199446857033],[77.717364601194689,20.806321414731453],[77.717343901824947,20.806532122886146]]]},"properties":{"FID":40,"Join_Count":0,"TARGET_FID":0,"Layer":"TEXT_PARCEL","Text":"7","vill_code":"533018","LGD_CODE":"533018"}},{"type":"Feature","id":41,"geometry":{"type":"Polygon","coordinates":[[[77.710113865542027,20.806103905363994],[77.709851293249457,20.806238220086389],[77.709213529870837,20.806540297566414],[77.709029701273678,20.806605242802192],[77.709025202496008,20.806142338951904],[77.709013442124373,20.80550277573677],[77.708951520078315,20.805321377748978],[77.708775099435968,20.804909230167301],[77.708645620831533,20.804513725065167],[77.708652199605027,20.804510296578265],[77.70986552112555,20.803939840370298],[77.710558983253975,20.804378668118765],[77.710645876248179,20.804441917797302],[77.71127768038744,20.804904275952023],[77.711610659073671,20.805130830638255],[77.711249259267163,20.805379806877752],[77.71074858819037,20.805712644682185],[77.710252028454079,20.806033035181205],[77.710113865542027,20.806103905363994]]]},"properties":{"FID":41,"Join_Count":0,"TARGET_FID":0,"Layer":"TEXT_PARCEL","Text":"45","vill_code":"533018","LGD_CODE":"533018"}},{"type":"Feature","id":42,"geometry":{"type":"Polygon","coordinates":[[[77.7188758124815,20.806441728968551],[77.718731958478443,20.806471993572078],[77.718206977310928,20.806510872797698],[77.717668656268046,20.806531204506538],[77.717343901824947,20.806532122886146],[77.717364601194689,20.806321414731453],[77.717368528557401,20.806199446857033],[77.717684732756481,20.80617825849237],[77.718326972200302,20.806167433059979],[77.718768668956301,20.806150532098481],[77.718924167045458,20.806153502500997],[77.7188758124815,20.806441728968551]]]},"properties":{"FID":42,"Join_Count":0,"TARGET_FID":0,"Layer":"TEXT_PARCEL","Text":"4","vill_code":"533018","LGD_CODE":"533018"}},{"type":"Feature","id":43,"geometry":{"type":"Polygon","coordinates":[[[77.718924167045458,20.806153502500997],[77.718768668956301,20.806150532098481],[77.718326972200302,20.806167433059979],[77.717684732756481,20.80617825849237],[77.717368528557401,20.806199446857033],[77.717369981067051,20.806150886271034],[77.717337402264192,20.805960837770289],[77.717624200972395,20.805940963967331],[77.718119840310393,20.805912433324998],[77.718933658114196,20.805886974232788],[77.718924167045458,20.806153502500997]]]},"properties":{"FID":43,"Join_Count":0,"TARGET_FID":0,"Layer":"TEXT_PARCEL","Text":"5","vill_code":"533018","LGD_CODE":"533018"}},{"type":"Feature","id":44,"geometry":{"type":"Polygon","coordinates":[[[77.723216758230762,20.805719317381858],[77.721739907324661,20.806118772033503],[77.72158419502847,20.806169437669446],[77.721491145780334,20.805918800788717],[77.720849649901481,20.805949391424271],[77.720228826251571,20.805932991500963],[77.719891970199328,20.80592044142745],[77.719904465881243,20.805821565942662],[77.71994474392082,20.805662672448566],[77.719868627420496,20.804677445466098],[77.719872561422164,20.804640160165537],[77.719909617986886,20.80428369353854],[77.720332572221253,20.804332395404682],[77.72062593083875,20.804390383848798],[77.720766158395037,20.804523860876159],[77.722029148972311,20.804520953348387],[77.722649318558666,20.804530576949741],[77.723069555766401,20.804535254902593],[77.723088184089718,20.804704502617192],[77.723196267827021,20.805541613335283],[77.723216758230762,20.805719317381858]]]},"properties":{"FID":44,"Join_Count":0,"TARGET_FID":0,"Layer":"TEXT_PARCEL","Text":"21","vill_code":"533018","LGD_CODE":"533018"}},{"type":"Feature","id":45,"geometry":{"type":"Polygon","coordinates":[[[77.709013442124373,20.80550277573677],[77.70874171818862,20.805532139704678],[77.706924574880944,20.805777793655789],[77.705313302533639,20.806019887344537],[77.704801669944544,20.806078970269706],[77.704757701011985,20.805973673825779],[77.70447832020669,20.805178269789522],[77.704238480171824,20.804456009902498],[77.704064725224839,20.804079407922824],[77.70389993985016,20.803782351792716],[77.703904137713664,20.803781760918469],[77.704159628411247,20.803749117593714],[77.705137620742221,20.803682045370554],[77.705945710510619,20.803612077339437],[77.706632079266655,20.803561496704969],[77.707056722333462,20.80367965721511],[77.707397273208315,20.803790438821107],[77.708580168669485,20.804173709738116],[77.708644364011448,20.804505829201748],[77.708645620831533,20.804513725065167],[77.708775099435968,20.804909230167301],[77.708951520078315,20.805321377748978],[77.709013442124373,20.80550277573677]]]},"properties":{"FID":45,"Join_Count":0,"TARGET_FID":0,"Layer":"TEXT_PARCEL","Text":"43","vill_code":"533018","LGD_CODE":"533018"}},{"type":"Feature","id":46,"geometry":{"type":"Polygon","coordinates":[[[77.718933658114196,20.805886974232788],[77.718119840310393,20.805912433324998],[77.717624200972395,20.805940963967331],[77.717337402264192,20.805960837770289],[77.717315405616631,20.805739672184639],[77.718019106301355,20.805677650665672],[77.718809650592789,20.805587979977403],[77.71893738178187,20.805569672648332],[77.718936566287084,20.805790417536407],[77.718933658114196,20.805886974232788]]]},"properties":{"FID":46,"Join_Count":0,"TARGET_FID":0,"Layer":"TEXT_PARCEL","Text":"6","vill_code":"533018","LGD_CODE":"533018"}},{"type":"Feature","id":47,"geometry":{"type":"Polygon","coordinates":[[[77.717821961567921,20.804304774321977],[77.717354825004804,20.804540315279322],[77.716787402525412,20.80477084145652],[77.716175773322931,20.805031565572147],[77.71552225301204,20.805310617016442],[77.715383691908926,20.80499025907714],[77.715373265020105,20.804959274339804],[77.715653988537397,20.804845726047677],[77.716199406798154,20.804560015712543],[77.716775735607442,20.804064660036865],[77.716865987626292,20.803926340526498],[77.717070586662928,20.803661405075978],[77.717174892177724,20.803473880710047],[77.717737467711117,20.804157958980223],[77.717821961567921,20.804304774321977]]]},"properties":{"FID":47,"Join_Count":0,"TARGET_FID":0,"Layer":"TEXT_PARCEL","Text":"25","vill_code":"533018","LGD_CODE":"533018"}},{"type":"Feature","id":48,"geometry":{"type":"Polygon","coordinates":[[[77.714452616058892,20.804399949701576],[77.714264711129488,20.804481862293827],[77.712950876780582,20.804929905146221],[77.711882109089828,20.805315429457671],[77.711610659073671,20.805130830638255],[77.71127768038744,20.804904275952023],[77.710645876248179,20.804441917797302],[77.711275797420356,20.804051813998498],[77.711337982674067,20.803933432491291],[77.711429406866529,20.803622355125562],[77.711557333979002,20.803379359499964],[77.711388656604086,20.80321161642221],[77.711381376717213,20.803116817223081],[77.711436341386701,20.802659749128733],[77.711500144076126,20.802095360283531],[77.711512978612291,20.801959222419065],[77.711507567988605,20.801874008807694],[77.711572830743137,20.801934571123123],[77.711954457416311,20.80224945536348],[77.712236213040143,20.80253278620652],[77.712326146687715,20.803021689058696],[77.712392519347759,20.803237496093782],[77.714083379485245,20.802965485100106],[77.714253082142662,20.8035278417874],[77.714326940994965,20.803866673461421],[77.714452616058892,20.804399949701576]]]},"properties":{"FID":48,"Join_Count":0,"TARGET_FID":0,"Layer":"TEXT_PARCEL","Text":"35","vill_code":"533018","LGD_CODE":"533018"}},{"type":"Feature","id":49,"geometry":{"type":"Polygon","coordinates":[[[77.717174892177724,20.803473880710047],[77.717070586662928,20.803661405075978],[77.716865987626292,20.803926340526498],[77.716775735607442,20.804064660036865],[77.716199406798154,20.804560015712543],[77.715653988537397,20.804845726047677],[77.715373265020105,20.804959274339804],[77.714652909310331,20.802861977731574],[77.714563041309276,20.802550909697164],[77.714349511617641,20.801568236105329],[77.714212448746707,20.800953169875466],[77.714794655687854,20.800944427215182],[77.715561760021899,20.800937341752007],[77.716257389948041,20.800924493320643],[77.716567001939325,20.800906170934674],[77.716643505305925,20.801194740519346],[77.71678821451431,20.801786610073627],[77.716916260357294,20.802314789729873],[77.71716868063433,20.802607895637777],[77.717409441735256,20.802865507812292],[77.717330152417148,20.803109329997476],[77.717247196523616,20.803344142367191],[77.717174892177724,20.803473880710047]]]},"properties":{"FID":49,"Join_Count":0,"TARGET_FID":0,"Layer":"TEXT_PARCEL","Text":"26","vill_code":"533018","LGD_CODE":"533018"}},{"type":"Feature","id":50,"geometry":{"type":"Polygon","coordinates":[[[77.714010628668916,20.800348107788743],[77.714074279860739,20.800602886057892],[77.71411055554529,20.800974699023328],[77.714185690252833,20.801324249949349],[77.714403218477514,20.802278671104116],[77.714500606024515,20.802717845535437],[77.714588954271363,20.802984323435247],[77.715135885257652,20.8045870346876],[77.715198844378619,20.804744713114541],[77.714513172905242,20.804725315470328],[77.714452616058892,20.804399949701576],[77.714326940994965,20.803866673461421],[77.714253082142662,20.8035278417874],[77.714083379485245,20.802965485100106],[77.712392519347759,20.803237496093782],[77.712326146687715,20.803021689058696],[77.712236213040143,20.80253278620652],[77.711954457416311,20.80224945536348],[77.711572830743137,20.801934571123123],[77.711507567988605,20.801874008807694],[77.712601402015366,20.80121903588218],[77.713426294055438,20.80073059622195],[77.714010628668916,20.800348107788743]]]},"properties":{"FID":50,"Join_Count":0,"TARGET_FID":0,"Layer":"TEXT_PARCEL","Text":"34","vill_code":"533018","LGD_CODE":"533018"}},{"type":"Feature","id":51,"geometry":{"type":"Polygon","coordinates":[[[77.719872561422164,20.804640160165537],[77.719723687892824,20.804639971454787],[77.719319418397831,20.804685430503405],[77.719423778575006,20.80433870095052],[77.719447233145289,20.804177655394525],[77.719366485552385,20.804051140979901],[77.719085108819371,20.804073241419054],[77.718210956515861,20.804222154309713],[77.717821961567921,20.804304774321977],[77.717737467711117,20.804157958980223],[77.717174892177724,20.803473880710047],[77.717247196523616,20.803344142367191],[77.717330152417148,20.803109329997476],[77.717409441735256,20.802865507812292],[77.718441471298163,20.801798203091757],[77.71854484871659,20.801816181042156],[77.719759135832533,20.802389440150453],[77.719919728801244,20.802433589942328],[77.719932760309788,20.802492785709674],[77.720033682656151,20.802920643955524],[77.720047926933972,20.802981525688768],[77.720039726180474,20.803761224997032],[77.719969720127594,20.80404337903645],[77.719909617986886,20.80428369353854],[77.719872561422164,20.804640160165537]]]},"properties":{"FID":51,"Join_Count":0,"TARGET_FID":0,"Layer":"TEXT_PARCEL","Text":"24","vill_code":"533018","LGD_CODE":"533018"}},{"type":"Feature","id":52,"geometry":{"type":"Polygon","coordinates":[[[77.723944675736362,20.804271145040463],[77.723069555766401,20.804535254902593],[77.722649318558666,20.804530576949741],[77.722029148972311,20.804520953348387],[77.720766158395037,20.804523860876159],[77.72062593083875,20.804390383848798],[77.720332572221253,20.804332395404682],[77.719909617986886,20.80428369353854],[77.719969720127594,20.80404337903645],[77.720039726180474,20.803761224997032],[77.720047926933972,20.802981525688768],[77.720033682656151,20.802920643955524],[77.720425333597618,20.802790580092676],[77.720927698373799,20.802613522071432],[77.721327943546669,20.802593489874003],[77.723212571889334,20.802473731042504],[77.723271002079031,20.802585142242382],[77.723551153961964,20.803142839865963],[77.723907505904251,20.804194601756603],[77.723944675736362,20.804271145040463]]]},"properties":{"FID":52,"Join_Count":0,"TARGET_FID":0,"Layer":"TEXT_PARCEL","Text":"22","vill_code":"533018","LGD_CODE":"533018"}},{"type":"Feature","id":53,"geometry":{"type":"Polygon","coordinates":[[[77.70986552112555,20.803939840370298],[77.708652199605027,20.804510296578265],[77.708645620831533,20.804513725065167],[77.708644364011448,20.804505829201748],[77.708580168669485,20.804173709738116],[77.707397273208315,20.803790438821107],[77.707056722333462,20.80367965721511],[77.706632079266655,20.803561496704969],[77.705945710510619,20.803612077339437],[77.705910677256469,20.803497127399979],[77.705902043927338,20.802958033550286],[77.705802875539689,20.80192721446258],[77.705801281554727,20.801618413761307],[77.705977490335883,20.801748854372473],[77.706268245311932,20.801948583948917],[77.706475324673548,20.802114962643536],[77.706846027304479,20.802329999295033],[77.70986552112555,20.803939840370298]]]},"properties":{"FID":53,"Join_Count":0,"TARGET_FID":0,"Layer":"TEXT_PARCEL","Text":"44","vill_code":"533018","LGD_CODE":"533018"}},{"type":"Feature","id":54,"geometry":{"type":"Polygon","coordinates":[[[77.711507567988605,20.801874008807694],[77.711512978612291,20.801959222419065],[77.711500144076126,20.802095360283531],[77.711436341386701,20.802659749128733],[77.711381376717213,20.803116817223081],[77.711388656604086,20.80321161642221],[77.711557333979002,20.803379359499964],[77.711429406866529,20.803622355125562],[77.711337982674067,20.803933432491291],[77.711275797420356,20.804051813998498],[77.710645876248179,20.804441917797302],[77.710558983253975,20.804378668118765],[77.70986552112555,20.803939840370298],[77.706846027304479,20.802329999295033],[77.706475324673548,20.802114962643536],[77.706268245311932,20.801948583948917],[77.706554594040497,20.801359659594823],[77.707662407677034,20.801485969543158],[77.708513721819443,20.801586779893832],[77.708632072223139,20.801600153048117],[77.708827319411895,20.80162207764851],[77.710096604711595,20.801747362711509],[77.711328756722324,20.801884163378499],[77.711507567988605,20.801874008807694]]]},"properties":{"FID":54,"Join_Count":0,"TARGET_FID":0,"Layer":"TEXT_PARCEL","Text":"36","vill_code":"533018","LGD_CODE":"533018"}},{"type":"Feature","id":55,"geometry":{"type":"Polygon","coordinates":[[[77.705945710510619,20.803612077339437],[77.705137620742221,20.803682045370554],[77.704159628411247,20.803749117593714],[77.703904137713664,20.803781760918469],[77.70240741405118,20.802481888038937],[77.70240859076867,20.802478493261063],[77.702869459561313,20.802288191824637],[77.704066684882022,20.802155964782227],[77.704090305334049,20.801931689914515],[77.704098740336278,20.801851470766486],[77.70406944998993,20.80043067209629],[77.704306549854635,20.800598559794565],[77.704555643174658,20.800764678709939],[77.705103688238353,20.80110168536838],[77.705801281554727,20.801618413761307],[77.705802875539689,20.80192721446258],[77.705902043927338,20.802958033550286],[77.705910677256469,20.803497127399979],[77.705945710510619,20.803612077339437]]]},"properties":{"FID":55,"Join_Count":0,"TARGET_FID":0,"Layer":"TEXT_PARCEL","Text":"42","vill_code":"533018","LGD_CODE":"533018"}},{"type":"Feature","id":56,"geometry":{"type":"Polygon","coordinates":[[[77.723212571889334,20.802473731042504],[77.721327943546669,20.802593489874003],[77.720927698373799,20.802613522071432],[77.720425333597618,20.802790580092676],[77.720033682656151,20.802920643955524],[77.719932760309788,20.802492785709674],[77.719919728801244,20.802433589942328],[77.719904186704312,20.802359167091943],[77.719909615902623,20.802028869055633],[77.71990895807663,20.801853861621858],[77.720168818295548,20.801678337289445],[77.72053995141286,20.801450170339102],[77.720913046753324,20.801244572370258],[77.72150849120348,20.800572939228527],[77.721571685673155,20.800429142691133],[77.721714868771841,20.800389847150786],[77.722243042222459,20.800130197032921],[77.722295736298292,20.80025787670079],[77.722745236172585,20.801347019079518],[77.723116744854011,20.802254162126541],[77.723212571889334,20.802473731042504]]]},"properties":{"FID":56,"Join_Count":0,"TARGET_FID":0,"Layer":"TEXT_PARCEL","Text":"23","vill_code":"533018","LGD_CODE":"533018"}},{"type":"Feature","id":57,"geometry":{"type":"Polygon","coordinates":[[[77.719919728801244,20.802433589942328],[77.719759135832533,20.802389440150453],[77.71854484871659,20.801816181042156],[77.718441471298163,20.801798203091757],[77.717409441735256,20.802865507812292],[77.71716868063433,20.802607895637777],[77.716916260357294,20.802314789729873],[77.71678821451431,20.801786610073627],[77.716643505305925,20.801194740519346],[77.716567001939325,20.800906170934674],[77.716678876431928,20.800853527124428],[77.717716910012527,20.80062398520251],[77.717999595722077,20.800534131922014],[77.718529028345372,20.800365377404741],[77.719502383658039,20.800074132851524],[77.71952899391863,20.800352290068137],[77.719554882506628,20.8006970691596],[77.719608138850845,20.800840694087668],[77.720445658772789,20.800358354314355],[77.721033265928185,20.800015906961519],[77.721139879390464,20.800066607228789],[77.721571685673155,20.800429142691133],[77.72150849120348,20.800572939228527],[77.720913046753324,20.801244572370258],[77.72053995141286,20.801450170339102],[77.720168818295548,20.801678337289445],[77.71990895807663,20.801853861621858],[77.719909615902623,20.802028869055633],[77.719904186704312,20.802359167091943],[77.719919728801244,20.802433589942328]]]},"properties":{"FID":57,"Join_Count":0,"TARGET_FID":0,"Layer":"TEXT_PARCEL","Text":"27","vill_code":"533018","LGD_CODE":"533018"}},{"type":"Feature","id":58,"geometry":{"type":"Polygon","coordinates":[[[77.70240859076867,20.802478493261063],[77.702406122003467,20.802479184827444],[77.702378614145672,20.802314395083481],[77.702262468968996,20.801171897977426],[77.702243586057278,20.800879012103362],[77.702180283834466,20.799908373821388],[77.7021641860252,20.799669667270948],[77.70238886201507,20.799778921313667],[77.703312763008654,20.800128835736761],[77.704031442025197,20.800403810484426],[77.70406944998993,20.80043067209629],[77.704098740336278,20.801851470766486],[77.704090305334049,20.801931689914515],[77.704066684882022,20.802155964782227],[77.702869459561313,20.802288191824637],[77.70240859076867,20.802478493261063]]]},"properties":{"FID":58,"Join_Count":0,"TARGET_FID":0,"Layer":"TEXT_PARCEL","Text":"41","vill_code":"533018","LGD_CODE":"533018"}},{"type":"Feature","id":59,"geometry":{"type":"Polygon","coordinates":[[[77.708632072223139,20.801600153048117],[77.708513721819443,20.801586779893832],[77.707662407677034,20.801485969543158],[77.706554594040497,20.801359659594823],[77.706268245311932,20.801948583948917],[77.705977490335883,20.801748854372473],[77.705801281554727,20.801618413761307],[77.705103688238353,20.80110168536838],[77.705211636133299,20.801002779378205],[77.705858013535789,20.800478790288938],[77.706243178307119,20.800111118393012],[77.707604287722418,20.800067044753632],[77.708391079990179,20.800043492729415],[77.708507556198285,20.8000467157236],[77.708632072223139,20.801600153048117]]]},"properties":{"FID":59,"Join_Count":0,"TARGET_FID":0,"Layer":"TEXT_PARCEL","Text":"38","vill_code":"533018","LGD_CODE":"533018"}},{"type":"Feature","id":60,"geometry":{"type":"Polygon","coordinates":[[[77.711507567988605,20.801874008807694],[77.711328756722324,20.801884163378499],[77.710096604711595,20.801747362711509],[77.708827319411895,20.80162207764851],[77.708632072223139,20.801600153048117],[77.708507556198285,20.8000467157236],[77.708652852345992,20.800050887377576],[77.709565550856865,20.800090337087987],[77.710287656785752,20.800171060413682],[77.710907805761167,20.80026427601652],[77.711274867859373,20.800305444631981],[77.71146415171539,20.800333049512368],[77.711462049204997,20.800458958255934],[77.711504574236059,20.801706919780415],[77.711507567988605,20.801874008807694]]]},"properties":{"FID":60,"Join_Count":0,"TARGET_FID":0,"Layer":"TEXT_PARCEL","Text":"37","vill_code":"533018","LGD_CODE":"533018"}},{"type":"Feature","id":61,"geometry":{"type":"Polygon","coordinates":[[[77.714010628668916,20.800348107788743],[77.713426294055438,20.80073059622195],[77.712601402015366,20.80121903588218],[77.711507567988605,20.801874008807694],[77.711504574236059,20.801706919780415],[77.711462049204997,20.800458958255934],[77.71146415171539,20.800333049512368],[77.711465444655687,20.800261907584844],[77.711229404897111,20.799570680149312],[77.71116260412947,20.799378586057905],[77.711846231665305,20.798694573308797],[77.712197363244016,20.798354765593587],[77.712492216018433,20.798035634498774],[77.712666711909947,20.798346173181361],[77.712924100380235,20.798832332097415],[77.713442990625367,20.799791637744725],[77.713888328479385,20.800202092540662],[77.714010628668916,20.800348107788743]]]},"properties":{"FID":61,"Join_Count":0,"TARGET_FID":0,"Layer":"TEXT_PARCEL","Text":"33","vill_code":"533018","LGD_CODE":"533018"}},{"type":"Feature","id":62,"geometry":{"type":"Polygon","coordinates":[[[77.706243178307119,20.800111118393012],[77.705858013535789,20.800478790288938],[77.705211636133299,20.801002779378205],[77.705103688238353,20.80110168536838],[77.704555643174658,20.800764678709939],[77.704306549854635,20.800598559794565],[77.70406944998993,20.80043067209629],[77.704031442025197,20.800403810484426],[77.703312763008654,20.800128835736761],[77.70238886201507,20.799778921313667],[77.7021641860252,20.799669667270948],[77.702151386009533,20.799479542785427],[77.702138693113241,20.799291010111194],[77.702108295877622,20.798643655206156],[77.70230633210906,20.798551529131174],[77.703271702207317,20.798236831008456],[77.704244918846939,20.797919568910956],[77.704762708869566,20.797801169977372],[77.70632301415651,20.797493344119097],[77.706316538878554,20.797849054426134],[77.706305801585174,20.798196322848725],[77.706282397264758,20.798450518752492],[77.706284984526249,20.798561155334959],[77.706246743967185,20.799514926872611],[77.706243178307119,20.800111118393012]]]},"properties":{"FID":62,"Join_Count":0,"TARGET_FID":0,"Layer":"TEXT_PARCEL","Text":"40","vill_code":"533018","LGD_CODE":"533018"}},{"type":"Feature","id":63,"geometry":{"type":"Polygon","coordinates":[[[77.716567001939325,20.800906170934674],[77.716257389948041,20.800924493320643],[77.715561760021899,20.800937341752007],[77.714794655687854,20.800944427215182],[77.714212448746707,20.800953169875466],[77.714209979074411,20.800943587988701],[77.714180984515792,20.800666574323248],[77.714154201207322,20.800363012644425],[77.714135123387109,20.800213525743807],[77.713880477935106,20.800027694632359],[77.713555679567378,20.7997689119731],[77.71501750253168,20.799120079380522],[77.715847266724268,20.798727572053998],[77.715797957069285,20.798547789490449],[77.717389060110108,20.798267343111267],[77.717429084156947,20.798407665038891],[77.717557876220496,20.798872610955833],[77.717586203804871,20.799017423911451],[77.71761831989933,20.799181605913052],[77.717734881971396,20.799531459120736],[77.717778102206907,20.79969885922791],[77.717800399926574,20.799794693023028],[77.717849589885518,20.800041093074437],[77.717999595722077,20.800534131922014],[77.717716910012527,20.80062398520251],[77.716678876431928,20.800853527124428],[77.716567001939325,20.800906170934674]]]},"properties":{"FID":63,"Join_Count":0,"TARGET_FID":0,"Layer":"TEXT_PARCEL","Text":"29","vill_code":"533018","LGD_CODE":"533018"}},{"type":"Feature","id":64,"geometry":{"type":"Polygon","coordinates":[[[77.721571685673155,20.800429142691133],[77.721139879390464,20.800066607228789],[77.721033265928185,20.800015906961519],[77.720445658772789,20.800358354314355],[77.719608138850845,20.800840694087668],[77.719554882506628,20.8006970691596],[77.71952899391863,20.800352290068137],[77.719502383658039,20.800074132851524],[77.718529028345372,20.800365377404741],[77.717999595722077,20.800534131922014],[77.717849589885518,20.800041093074437],[77.717800399926574,20.799794693023028],[77.717778102206907,20.79969885922791],[77.719590371953188,20.799788477080781],[77.720363894148477,20.799672937229648],[77.721072613232494,20.799561191874769],[77.721323213810734,20.799684373232544],[77.722094722900948,20.800039677996896],[77.722243042222459,20.800130197032921],[77.721714868771841,20.800389847150786],[77.721571685673155,20.800429142691133]]]},"properties":{"FID":64,"Join_Count":0,"TARGET_FID":0,"Layer":"TEXT_PARCEL","Text":"28","vill_code":"533018","LGD_CODE":"533018"}},{"type":"Feature","id":65,"geometry":{"type":"Polygon","coordinates":[[[77.71116260412947,20.799378586057905],[77.711229404897111,20.799570680149312],[77.711465444655687,20.800261907584844],[77.71146415171539,20.800333049512368],[77.711274867859373,20.800305444631981],[77.710907805761167,20.80026427601652],[77.710287656785752,20.800171060413682],[77.709565550856865,20.800090337087987],[77.708652852345992,20.800050887377576],[77.708507556198285,20.8000467157236],[77.708391079990179,20.800043492729415],[77.707604287722418,20.800067044753632],[77.706243178307119,20.800111118393012],[77.706246743967185,20.799514926872611],[77.706284984526249,20.798561155334959],[77.706282397264758,20.798450518752492],[77.706305801585174,20.798196322848725],[77.707229773684233,20.798218776586658],[77.707823327974765,20.79820320939535],[77.707894523090815,20.798422940510108],[77.708181007350916,20.798444859648825],[77.708532034009153,20.798595092951508],[77.708860393840197,20.79868110824901],[77.710098619095447,20.799336140143001],[77.710482288071276,20.799517780287633],[77.710799419357414,20.799459901224409],[77.711141148402817,20.799400173697691],[77.71116260412947,20.799378586057905]]]},"properties":{"FID":65,"Join_Count":0,"TARGET_FID":0,"Layer":"TEXT_PARCEL","Text":"39","vill_code":"533018","LGD_CODE":"533018"}},{"type":"Feature","id":66,"geometry":{"type":"Polygon","coordinates":[[[77.715797957069285,20.798547789490449],[77.715847266724268,20.798727572053998],[77.71501750253168,20.799120079380522],[77.713555679567378,20.7997689119731],[77.713472956064621,20.799617002131153],[77.712496455750056,20.797788897246818],[77.712439395943434,20.797700055779007],[77.712630589925581,20.797659336363697],[77.715390733052885,20.797089283825954],[77.715797957069285,20.798547789490449]]]},"properties":{"FID":66,"Join_Count":0,"TARGET_FID":0,"Layer":"TEXT_PARCEL","Text":"30","vill_code":"533018","LGD_CODE":"533018"}},{"type":"Feature","id":67,"geometry":{"type":"Polygon","coordinates":[[[77.71116260412947,20.799378586057905],[77.711141148402817,20.799400173697691],[77.710799419357414,20.799459901224409],[77.710482288071276,20.799517780287633],[77.710098619095447,20.799336140143001],[77.708860393840197,20.79868110824901],[77.708532034009153,20.798595092951508],[77.708181007350916,20.798444859648825],[77.707894523090815,20.798422940510108],[77.707823327974765,20.79820320939535],[77.707229773684233,20.798218776586658],[77.706305801585174,20.798196322848725],[77.706316538878554,20.797849054426134],[77.70632301415651,20.797493344119097],[77.707504486058141,20.797261267036596],[77.707514237825052,20.79725868396303],[77.707938858978693,20.797146203957698],[77.709274917860327,20.796875323763238],[77.709661934053031,20.79676958593123],[77.711244276849925,20.796356009866038],[77.711304486741653,20.796337564923977],[77.711404196886932,20.796307019186024],[77.711668221128278,20.79671466580146],[77.711983404479668,20.797225304383055],[77.71233424584068,20.797769591701034],[77.712492216018433,20.798035634498774],[77.712197363244016,20.798354765593587],[77.711846231665305,20.798694573308797],[77.71116260412947,20.799378586057905]]]},"properties":{"FID":67,"Join_Count":0,"TARGET_FID":0,"Layer":"TEXT_PARCEL","Text":"32","vill_code":"533018","LGD_CODE":"533018"}},{"type":"Feature","id":68,"geometry":{"type":"Polygon","coordinates":[[[77.717389060110108,20.798267343111267],[77.715797957069285,20.798547789490449],[77.715390733052885,20.797089283825954],[77.712630589925581,20.797659336363697],[77.712439395943434,20.797700055779007],[77.712226324574431,20.797367176679096],[77.711898498980034,20.796851536889982],[77.71154360806311,20.796244043717067],[77.713775746146936,20.795867998812476],[77.713785283228802,20.795866391927042],[77.714451910075553,20.795745901923652],[77.715341753233602,20.795614407138864],[77.716025108954,20.795501244840953],[77.716030143780912,20.795517392113087],[77.716106505792894,20.795617496137069],[77.716322232889695,20.796068911822353],[77.716522515211324,20.796484635087594],[77.716531841203576,20.796503993019396],[77.716722190959544,20.796931856092222],[77.716904406170698,20.797313476850597],[77.717075640064522,20.797670325854398],[77.717185788901062,20.797880239135964],[77.71724482695177,20.797992749248131],[77.717389060110108,20.798267343111267]]]},"properties":{"FID":68,"Join_Count":0,"TARGET_FID":0,"Layer":"TEXT_PARCEL","Text":"31","vill_code":"533018","LGD_CODE":"533018"}}]
}