{
  "type" : "FeatureCollection",
  "features" : [{"type":"Feature","id":0,"geometry":{"type":"LineString","coordinates":[[77.660965623120674,20.807152703316746],[77.660999859598419,20.807374320263985],[77.661091428908463,20.807811383746298],[77.661231817468632,20.808472461911602],[77.661765573798121,20.808811672369579],[77.662288630166273,20.809190102815855]]},"properties":{"FID":0,"LGD_CODE":"533011","ROAD_TYPE":"B"}},{"type":"Feature","id":1,"geometry":{"type":"LineString","coordinates":[[77.662360887129708,20.80917429521563],[77.662114773381603,20.808961032487158],[77.6617489102794,20.808720322380804],[77.661349485599814,20.808410957276763],[77.661209665363259,20.808022447561118],[77.661132936979499,20.807598901239192],[77.661025745755182,20.807114963630031]]},"properties":{"FID":1,"LGD_CODE":"533011","ROAD_TYPE":"B"}},{"type":"Feature","id":2,"geometry":{"type":"LineString","coordinates":[[77.667595993935947,20.814873522907543],[77.668120946340537,20.815409134129577],[77.668395735707932,20.81576491691246],[77.669318902249501,20.816893432880455],[77.670225282353954,20.81817936654355],[77.670780045948419,20.818955369800484]]},"properties":{"FID":2,"LGD_CODE":"533011","ROAD_TYPE":"B"}},{"type":"Feature","id":3,"geometry":{"type":"LineString","coordinates":[[77.670879377050738,20.818873518984908],[77.67062798711622,20.818526867884049],[77.67031083969394,20.818113337790031],[77.669892601379189,20.817540583387895],[77.669432479602534,20.816929685715095],[77.668951418461987,20.816299715407769],[77.66842985542921,20.815690432840011],[77.667907606997119,20.815051732348302],[77.667671309985863,20.814807765666266]]},"properties":{"FID":3,"LGD_CODE":"533011","ROAD_TYPE":"B"}},{"type":"Feature","id":4,"geometry":{"type":"LineString","coordinates":[[77.673676692778159,20.820312438256934],[77.673698812268867,20.819498361060457],[77.673783380859106,20.819235496886186],[77.674209156053195,20.818572682937567],[77.674406228444468,20.818358188276317],[77.674577536770144,20.817749473191444],[77.67483035959583,20.817099117847444],[77.675175908514632,20.816533194267226],[77.675281362522526,20.816281625627322],[77.675386816223082,20.816030056953881],[77.675438536970205,20.815598251949279],[77.675488216816419,20.815079622783585],[77.675560588272631,20.814473517118213]]},"properties":{"FID":4,"LGD_CODE":"533011","ROAD_TYPE":"B"}},{"type":"Feature","id":5,"geometry":{"type":"LineString","coordinates":[[77.663034218433936,20.806280366657269],[77.663193696344962,20.806750055050991],[77.663287594112148,20.807237264330343],[77.663257797364793,20.807550021106383],[77.663177428294375,20.80781671985708],[77.663694687675743,20.80824145463891],[77.664428511240246,20.808755266019077],[77.665189290773782,20.809363140905514],[77.666014363375069,20.809898237231295],[77.666808685917871,20.810528915015915],[77.667627562188642,20.811151044026548],[77.668486554451817,20.811724723828668],[77.669312576564877,20.812299267267445],[77.670063387338459,20.813183810462519],[77.670846628041019,20.814043800925269],[77.6712301693087,20.814393052773728],[77.672076129930872,20.814761706910808],[77.673047055399692,20.815182347795826],[77.6737673203708,20.815467428902341],[77.674544926706105,20.815735198301059],[77.675347372381779,20.816357718441644],[77.676192530681533,20.817042291121968],[77.676855021623822,20.817676393629778]]},"properties":{"FID":5,"LGD_CODE":"533011","ROAD_TYPE":"B"}},{"type":"Feature","id":6,"geometry":{"type":"LineString","coordinates":[[77.676918378358749,20.817564150140175],[77.676143754507081,20.816897465511911],[77.675705402159196,20.816498335207381],[77.675222729149866,20.816143811777621],[77.674689850777767,20.815759018984227],[77.674425983806969,20.815588273516944],[77.67390710227221,20.815447946792975],[77.673320598946844,20.815238319433373],[77.672649800941457,20.814951932161961],[77.671928798737696,20.81463527342795],[77.671216043290912,20.814318394050169],[77.670602869363336,20.813675068735744],[77.669980160203494,20.812976705819917],[77.66936533047685,20.812262336550777],[77.669141769529588,20.812051030022957],[77.668617904674988,20.811697570394177],[77.667951671906792,20.81125308180745],[77.667268954936461,20.810809024309531],[77.666592820434673,20.810293708145501],[77.665915950487644,20.809746816076153],[77.665223892142492,20.809255606930407],[77.664506736336932,20.808749258808067],[77.66376448374217,20.808227771448902],[77.663297611699718,20.807841201669174],[77.663313692949458,20.807647276423165],[77.663357574392222,20.807231474468452],[77.663258722978199,20.806708854264148],[77.663112627206885,20.806282253328209]]},"properties":{"FID":6,"LGD_CODE":"533011","ROAD_TYPE":"B"}},{"type":"Feature","id":7,"geometry":{"type":"LineString","coordinates":[[77.66138890383337,20.806230117242333],[77.662113810936447,20.806245742034136],[77.66251255007964,20.806256067630358],[77.663219760090769,20.806289496147606],[77.66416127852824,20.806427753314122],[77.66484114933408,20.806531266754668],[77.665649315239207,20.806853392398626],[77.666537459737597,20.807187283078864],[77.667418691859922,20.807535225252519],[77.668343861162768,20.807902817196013],[77.669254064759528,20.808249986233303],[77.670200802431438,20.808610061977777],[77.671254044067553,20.808877141850157],[77.672601970397068,20.808734089157575]]},"properties":{"FID":7,"LGD_CODE":"533011","ROAD_TYPE":"B"}},{"type":"Feature","id":8,"geometry":{"type":"LineString","coordinates":[[77.672557222921228,20.8086797711636],[77.671487506626306,20.808791211598265],[77.67111064821863,20.808787268256179],[77.670625297123436,20.808637032569621],[77.669979668694097,20.808449394619089],[77.669208342595752,20.808154069501661],[77.668363471215955,20.807812116841831],[77.667431711490266,20.807472447378885],[77.666463263128989,20.807112926610905],[77.665465042698159,20.806719497256605],[77.6647666287937,20.806443043389727],[77.663825110113251,20.806304789622327],[77.662935090780167,20.806199862261057],[77.662032699818838,20.806185439742436],[77.661419946787831,20.806163397199551]]},"properties":{"FID":8,"LGD_CODE":"533011","ROAD_TYPE":"B"}},{"type":"Feature","id":9,"geometry":{"type":"LineString","coordinates":[[77.653060585850412,20.795530420804308],[77.653678435327592,20.796358244011923],[77.654253274959871,20.797208033566381],[77.65455205944636,20.797653469476703],[77.65527913682358,20.798264804512289]]},"properties":{"FID":9,"LGD_CODE":"533011","ROAD_TYPE":"C"}},{"type":"Feature","id":10,"geometry":{"type":"LineString","coordinates":[[77.659862798990474,20.804396521250844],[77.659806834080214,20.803907666317958],[77.659752032460347,20.803468524044838],[77.65970141258579,20.803366815003439],[77.659749317409165,20.803035119114341],[77.659942242082778,20.80255748831177],[77.660144576069086,20.80216488413755],[77.660136075268952,20.801642804088502],[77.660140581689888,20.801042214263749],[77.660143759542123,20.800384809938816],[77.660148822408473,20.80012530167906],[77.660365655115228,20.799718104009738],[77.660640160891106,20.799238328556619],[77.660714134914272,20.799069389163169],[77.660750467461327,20.79856034311366],[77.660806891054605,20.797958388684641],[77.660866196763266,20.797796941031333],[77.661224443067695,20.7974073440848],[77.661677610712459,20.796951295537628],[77.662129778636938,20.796452635323256],[77.662460949075196,20.795857669359481],[77.662884711921137,20.795096826367971]]},"properties":{"FID":10,"LGD_CODE":"533011","ROAD_TYPE":"B"}},{"type":"Feature","id":11,"geometry":{"type":"LineString","coordinates":[[77.662789665385446,20.795120490379183],[77.662611182949618,20.795459324836045],[77.66239040372173,20.79585596903841],[77.662094987877097,20.796393145714518],[77.661605569943063,20.796885679140424],[77.661087478339354,20.797421602110507],[77.660759065319837,20.797817520957636],[77.660705465711914,20.798540206129172],[77.660639299289883,20.799042930386118],[77.66026510927594,20.799702980203602],[77.660049937489504,20.800181195915243],[77.660063088143659,20.800902126726189],[77.6600474017511,20.801659346295853],[77.660041068250067,20.802181816376585],[77.659784878679687,20.802810339641624],[77.65963778508312,20.803343615342673],[77.659722724544594,20.803643395295985],[77.659773900713802,20.804086186017134],[77.659763580472372,20.804438212812645]]},"properties":{"FID":11,"LGD_CODE":"533011","ROAD_TYPE":"B"}},{"type":"Feature","id":12,"geometry":{"type":"LineString","coordinates":[[77.646679613059078,20.808000811926387],[77.647289182219282,20.808365192429132],[77.64778073096771,20.808639857320063],[77.648501385302751,20.809079937685791],[77.649559857601972,20.809146188691226],[77.650972263475651,20.8085395730687],[77.651869049579176,20.808112370210402],[77.652604731578748,20.807711509987417],[77.653160352903299,20.807514445213304],[77.654002246010222,20.807210328119574],[77.654749461050045,20.806809156693657],[77.655579802396687,20.806505335662095],[77.656443479762942,20.806145337464411]]},"properties":{"FID":12,"LGD_CODE":"533011","ROAD_TYPE":"B"}},{"type":"Feature","id":13,"geometry":{"type":"LineString","coordinates":[[77.660056421657458,20.808495357707823],[77.659934251207034,20.808997268248536],[77.659728361200791,20.809869331692159],[77.65948186281976,20.810746795500624],[77.659346348890935,20.81172534028088],[77.659184302881613,20.812730581877197],[77.658986475157519,20.813754096903025],[77.658843389310789,20.81402218627737],[77.658752900440376,20.814990880930015],[77.65865559339197,20.816055086516833],[77.658604126835058,20.817144086767083],[77.658606058059078,20.817807024298528],[77.658801009583058,20.818594886171546],[77.659058885362725,20.819363760534308],[77.659123465409422,20.819609058468266],[77.658930019102726,20.820433128768492],[77.658787074979713,20.8214812007514],[77.658635488110562,20.822546832894353],[77.658599078573772,20.823505439302942],[77.658593790334095,20.824246564819433],[77.658718404572838,20.825122939742471],[77.6588366089548,20.826112147488494],[77.658974937470489,20.827187490866294],[77.659157694027641,20.828226999872449],[77.659341467791123,20.829309814118723],[77.659543542783652,20.830400813071176],[77.65969969708317,20.831077027078532],[77.660001018021873,20.831766756184532],[77.659958534161532,20.83214816780821],[77.660321419869462,20.833178186935143]]},"properties":{"FID":13,"LGD_CODE":"533011","ROAD_TYPE":"C"}},{"type":"Feature","id":14,"geometry":{"type":"LineString","coordinates":[[77.660577886827667,20.807684705127272],[77.660263983421203,20.80819561483748],[77.659940018946259,20.808663455936117],[77.659601976876488,20.809110000311271],[77.658700842865798,20.810015377021973]]},"properties":{"FID":14,"LGD_CODE":"533011","ROAD_TYPE":"B"}},{"type":"Feature","id":15,"geometry":{"type":"LineString","coordinates":[[77.657590317634728,20.811197549472649],[77.657931348581457,20.810826541928133],[77.658089724715495,20.810631717035768],[77.658604444144672,20.809998535350349],[77.659076967714384,20.809496459163469],[77.659542670763173,20.809089892835377],[77.65993276046234,20.808546648815582],[77.660321631600752,20.807951437037943],[77.660517770358823,20.807629953190215]]},"properties":{"FID":15,"LGD_CODE":"533011","ROAD_TYPE":"B"}},{"type":"Feature","id":16,"geometry":{"type":"LineString","coordinates":[[77.647455946542678,20.812748191835176],[77.647731157445364,20.812818898014363],[77.64806567309806,20.812801461178488],[77.648548949512815,20.81275845664651],[77.649076245142382,20.812662297109608],[77.649649580297179,20.81259959463128],[77.650151554089135,20.812582094998515],[77.650682283808308,20.812633171881185],[77.651258447908631,20.81269172163152],[77.651889294910731,20.812766167584556],[77.652482945458772,20.812798254664308],[77.653170442444406,20.812585213152179],[77.653947793708554,20.812343810435941],[77.654715488632121,20.812076658358603],[77.655509104934382,20.811756823085659],[77.656286649529733,20.8115240718606],[77.657145810093397,20.811297839651605],[77.657590317634728,20.811197549472649]]},"properties":{"FID":16,"LGD_CODE":"533011","ROAD_TYPE":"C"}},{"type":"Feature","id":17,"geometry":{"type":"LineString","coordinates":[[77.654384080950862,20.795718932997783],[77.654695257799261,20.796900473996274],[77.65478848876397,20.797438156347503],[77.655053536696769,20.798327765690971],[77.655063375134759,20.798364863978779],[77.655165979295006,20.798850683497136],[77.65528501688334,20.799366801666274],[77.655547137616708,20.800386494335111],[77.655756771983292,20.80139639032987],[77.656252494727241,20.802250719359328],[77.656865417778832,20.802811498072469],[77.655694390132126,20.802715474313374],[77.655095651898591,20.802559438291894],[77.654749126240006,20.80245413459523],[77.654397395122814,20.802275666461892],[77.654199789146787,20.802178408281922],[77.652700678277114,20.8008936189173],[77.652421995816766,20.800736634811035],[77.651674442311275,20.80035970314038],[77.651010172149796,20.80000250185574],[77.650464406484531,20.799715480206814],[77.650145570017486,20.799601543767075],[77.649562397800906,20.799422304549303],[77.648956693967392,20.799314153922644]]},"properties":{"FID":17,"LGD_CODE":"533011","ROAD_TYPE":"A"}},{"type":"Feature","id":18,"geometry":{"type":"LineString","coordinates":[[77.648959962223344,20.799478545954827],[77.649660074614388,20.799544422519823],[77.650355110433608,20.79979219710609],[77.650402210051766,20.79980878547498],[77.650787257511482,20.800020830056102],[77.651245366512995,20.800257740527645],[77.652591302858241,20.800955134968078],[77.652713493469875,20.801038805138891],[77.652810278753151,20.801105184400473],[77.654038133643624,20.802155241216045],[77.654176936006607,20.802302991595816],[77.654594658911108,20.802537339344134],[77.654764977594141,20.802603242281016],[77.654815709523504,20.802622621342969],[77.655153741293717,20.802717281744599],[77.655523673246378,20.802803289364686],[77.655741409212084,20.802831159905988],[77.656711176318765,20.802937495376124],[77.65717663097503,20.802963760370222],[77.658119036930074,20.8030246583142],[77.658369201631757,20.803144093974151],[77.658581941458181,20.803367374425765],[77.658765193018468,20.80371359219923],[77.658885803372414,20.803953798275796],[77.658933124757269,20.804012049256475]]},"properties":{"FID":18,"LGD_CODE":"533011","ROAD_TYPE":"A"}},{"type":"Feature","id":19,"geometry":{"type":"LineString","coordinates":[[77.659128612205294,20.803935331711994],[77.658956063541908,20.803790056173934],[77.658850004678413,20.803566084386695],[77.658630554165853,20.803213344690214],[77.658446964736186,20.803031541500218],[77.658135729505119,20.802875340005553],[77.657111490732319,20.802840872750398]]},"properties":{"FID":19,"LGD_CODE":"533011","ROAD_TYPE":"A"}},{"type":"Feature","id":20,"geometry":{"type":"LineString","coordinates":[[77.657111490732319,20.802840872750398],[77.656690671348827,20.802477047400806],[77.656307166020227,20.802102281447009],[77.6558992710995,20.801215289940131],[77.655628357814265,20.800243515247701],[77.655177585021704,20.798420994461331],[77.654725477280039,20.796457150553032],[77.654579386811491,20.795723864289986]]},"properties":{"FID":20,"LGD_CODE":"533011","ROAD_TYPE":"A"}},{"type":"Feature","id":21,"geometry":{"type":"LineString","coordinates":[[77.662567470739916,20.805793602090137],[77.66324452215035,20.805369157286101],[77.664146219670641,20.804797978468265],[77.664940515396424,20.804206661973904],[77.665542278265377,20.80368134883971],[77.665706073118741,20.803312604623105],[77.667862700943928,20.801108611778282]]},"properties":{"FID":21,"LGD_CODE":"533011","ROAD_TYPE":"A"}},{"type":"Feature","id":22,"geometry":{"type":"LineString","coordinates":[[77.667774172002481,20.800989765241816],[77.666603505664725,20.802169937674176],[77.666409738171012,20.802342371533459],[77.666319749610082,20.802421786704571],[77.665486858813054,20.80334725434939],[77.665348603661016,20.803644886707318],[77.665201785851764,20.803805751909543],[77.665054806288964,20.803936212967457],[77.664439515079025,20.804411500548714],[77.662559725417552,20.805583069572663]]},"properties":{"FID":22,"LGD_CODE":"533011","ROAD_TYPE":"A"}},{"type":"Feature","id":23,"geometry":{"type":"LineString","coordinates":[[77.663151008075133,20.809901795450219],[77.662293113129621,20.809302656103512]]},"properties":{"FID":23,"LGD_CODE":"533011","ROAD_TYPE":"A"}},{"type":"Feature","id":24,"geometry":{"type":"LineString","coordinates":[[77.667406271538653,20.814945474986313],[77.66615523272165,20.813762784460444],[77.666098789908645,20.81369051888127],[77.665655756556021,20.813125288232442],[77.665230962902186,20.8124754795145],[77.664560163925444,20.811584033363207],[77.664356828828474,20.811319033720281],[77.663486478373542,20.810191837096099],[77.663313146752003,20.810014477178804],[77.663151008075133,20.809901795450219]]},"properties":{"FID":24,"LGD_CODE":"533011","ROAD_TYPE":"A"}},{"type":"Feature","id":25,"geometry":{"type":"LineString","coordinates":[[77.662138538941861,20.809366160238209],[77.663247638555134,20.810164675833626],[77.663344492855231,20.810242309974829],[77.664552013301289,20.81175187630145],[77.66499259974664,20.812425232179073],[77.665246480317592,20.812786746526392],[77.665580446527159,20.813245709436032],[77.665982136081368,20.813744206636258],[77.666758384055328,20.814512212910678],[77.667332137491243,20.815060258505095]]},"properties":{"FID":25,"LGD_CODE":"533011","ROAD_TYPE":"A"}},{"type":"Feature","id":26,"geometry":{"type":"LineString","coordinates":[[77.671000773141941,20.819361063931172],[77.670645739253445,20.819025558425377]]},"properties":{"FID":26,"LGD_CODE":"533011","ROAD_TYPE":"A"}},{"type":"Feature","id":27,"geometry":{"type":"LineString","coordinates":[[77.672832473028535,20.821347323722588],[77.672570037080902,20.820969549246918],[77.67221629255711,20.820425710384892],[77.672040581468778,20.820257947146203],[77.671435655492587,20.819748409309575],[77.671000773141941,20.819361063931172]]},"properties":{"FID":27,"LGD_CODE":"533011","ROAD_TYPE":"A"}},{"type":"Feature","id":28,"geometry":{"type":"LineString","coordinates":[[77.670546708177454,20.819106159737117],[77.670645460498434,20.81919897960055],[77.670999409601052,20.819557014150107],[77.671351910707699,20.819869450426264],[77.671704370935245,20.820174003559959],[77.672030111078413,20.82044156983072],[77.672219972724633,20.82066272998162],[77.672503498875543,20.8210392404829],[77.672708504143785,20.821386423830624]]},"properties":{"FID":28,"LGD_CODE":"533011","ROAD_TYPE":"A"}},{"type":"Feature","id":29,"geometry":{"type":"LineString","coordinates":[[77.649962080061812,20.822520676245148],[77.650265226512275,20.821815477549439],[77.650279473923064,20.821782522672375],[77.650280116777395,20.821781035722204],[77.650553710192,20.821304060893574],[77.650841074867316,20.820809542245996],[77.651108069860669,20.820339365323484],[77.651617674842385,20.819808503767053],[77.651838410877872,20.819599315448095],[77.652109249270453,20.819288454830691],[77.652133745082565,20.819246631191763],[77.652431845507863,20.818731770245016],[77.652657836346236,20.818145303509237],[77.652851902259656,20.817563546641875],[77.653242143239609,20.816803162090746],[77.653306601937871,20.816680563998219],[77.653534308705545,20.816307480386214],[77.653986725889538,20.815680135125447],[77.654357778468963,20.81517042887295],[77.655427593018956,20.813769397555369],[77.656726583055345,20.812280164939427],[77.657141225629147,20.811809583288834],[77.657491662180263,20.811394595679158]]},"properties":{"FID":29,"LGD_CODE":"533011","ROAD_TYPE":"A"}},{"type":"Feature","id":30,"geometry":{"type":"LineString","coordinates":[[77.657381100812842,20.811346326220196],[77.656610876393771,20.812170555630946],[77.655721416058142,20.813247237036656],[77.655324715694363,20.813692361654979],[77.653912653823667,20.815578701322355],[77.653574795997557,20.815981775566925],[77.653522159885611,20.816059816466751],[77.65332358177983,20.816355011093055],[77.653121282301427,20.816745385006833],[77.652764010527591,20.817470647488054],[77.652573233713852,20.817989884543895],[77.652499456916928,20.81817504090613],[77.652350121046396,20.818550432402144],[77.65202560302869,20.819200595531239],[77.65147972048652,20.819825158463235],[77.650934462521604,20.82033935790291],[77.650505830762441,20.82113939610176],[77.650397112269957,20.82132928059535],[77.65037724991214,20.821365614120673],[77.650102741361763,20.821867761219032],[77.649857565033216,20.822476868288962]]},"properties":{"FID":30,"LGD_CODE":"533011","ROAD_TYPE":"A"}}]
}