{
  "type" : "FeatureCollection",
  "features" : [{"type":"Feature","id":0,"geometry":{"type":"Polygon","coordinates":[[[77.611820676481997,20.799874086226215],[77.611917108347882,20.802146409411463],[77.610728582839556,20.802024167873498],[77.610682101222068,20.799637834519178],[77.611129602863627,20.799659310444262],[77.611820676481997,20.799874086226215]]]},"properties":{"FID":0,"Join_Count":2,"TARGET_FID":1,"Layer":"TEXT_PARCEL","Text":"42","vill_code":"533009","LGD_CODE":"533009"}},{"type":"Feature","id":1,"geometry":{"type":"Polygon","coordinates":[[[77.615666821109301,20.80173709092805],[77.616064670508948,20.802945974495],[77.615459323375006,20.802803862857473],[77.61383240764458,20.802346233015751],[77.613346397054414,20.802231029110434],[77.612881076597517,20.802079026729491],[77.612449358677168,20.802197152538668],[77.611917108347882,20.802146409411463],[77.611820676481997,20.799874086226215],[77.612889269642821,20.800134465022168],[77.613246097859104,20.800256665206724],[77.614052788974064,20.800669356118824],[77.614409973167,20.800811470241957],[77.615186684088826,20.801191287160389],[77.615584925496819,20.80157531408085],[77.615666821109301,20.80173709092805]]]},"properties":{"FID":1,"Join_Count":2,"TARGET_FID":2,"Layer":"TEXT_PARCEL","Text":"41","vill_code":"533009","LGD_CODE":"533009"}},{"type":"Feature","id":2,"geometry":{"type":"Polygon","coordinates":[[[77.604341641009,20.804156429648334],[77.603549435908775,20.804263553999771],[77.603495981639199,20.803939932643921],[77.603039673627961,20.802980950132003],[77.602561265946306,20.802033567446099],[77.602099816638187,20.801035989599917],[77.604074210029481,20.800544328625122],[77.60489874086916,20.800360419786763],[77.60550612070152,20.803528857788969],[77.605525656080971,20.803683998434202],[77.604445550915202,20.803925720165683],[77.604341641009,20.804156429648334]]]},"properties":{"FID":2,"Join_Count":2,"TARGET_FID":3,"Layer":"TEXT_PARCEL","Text":"58","vill_code":"533009","LGD_CODE":"533009"}},{"type":"Feature","id":3,"geometry":{"type":"Polygon","coordinates":[[[77.601998027679571,20.804308613352109],[77.601234021973212,20.804529813864292],[77.600321377238146,20.803484715648384],[77.599282076702394,20.802192654643857],[77.59993613963475,20.801908188077483],[77.602099816638187,20.801035989599917],[77.602561265946306,20.802033567446099],[77.603039673627961,20.802980950132003],[77.603495981639199,20.803939932643921],[77.60216686176679,20.804276139132472],[77.601998027679571,20.804308613352109]]]},"properties":{"FID":3,"Join_Count":2,"TARGET_FID":4,"Layer":"TEXT_PARCEL","Text":"59","vill_code":"533009","LGD_CODE":"533009"}},{"type":"Feature","id":4,"geometry":{"type":"Polygon","coordinates":[[[77.609553376920076,20.804667068741239],[77.60909656744245,20.80472804728953],[77.608653972597239,20.802661173437475],[77.608574373514003,20.802351800743178],[77.608537033587439,20.801571675667319],[77.608509365185171,20.799852802444445],[77.609683701764382,20.799675361852813],[77.610044516730923,20.799608274590863],[77.610186180929105,20.799614842690506],[77.610682101222068,20.799637834519178],[77.610728582839556,20.802024167873498],[77.609340046864318,20.802310646958137],[77.609558663060113,20.804545327877356],[77.609553376920076,20.804667068741239]]]},"properties":{"FID":4,"Join_Count":2,"TARGET_FID":5,"Layer":"TEXT_PARCEL","Text":"44","vill_code":"533009","LGD_CODE":"533009"}},{"type":"Feature","id":5,"geometry":{"type":"Polygon","coordinates":[[[77.608003053305467,20.804878889599614],[77.606718670459529,20.805001878035089],[77.606309788592938,20.802265865995629],[77.606187072693231,20.801359317200973],[77.606017909746242,20.800176001112323],[77.607244760183463,20.800064311110823],[77.608509365185171,20.799852802444445],[77.608537033587439,20.801571675667319],[77.608574373514003,20.802351800743178],[77.608653972597239,20.802661173437475],[77.60909656744245,20.80472804728953],[77.608003053305467,20.804878889599614]]]},"properties":{"FID":5,"Join_Count":2,"TARGET_FID":6,"Layer":"TEXT_PARCEL","Text":"45","vill_code":"533009","LGD_CODE":"533009"}},{"type":"Feature","id":6,"geometry":{"type":"Polygon","coordinates":[[[77.606718670459529,20.805001878035089],[77.605691090773902,20.805116972185473],[77.605525656080971,20.803683998434202],[77.60550612070152,20.803528857788969],[77.60489874086916,20.800360419786763],[77.606017909746242,20.800176001112323],[77.606187072693231,20.801359317200973],[77.606309788592938,20.802265865995629],[77.606718670459529,20.805001878035089]]]},"properties":{"FID":6,"Join_Count":2,"TARGET_FID":7,"Layer":"TEXT_PARCEL","Text":"46","vill_code":"533009","LGD_CODE":"533009"}},{"type":"Feature","id":7,"geometry":{"type":"Polygon","coordinates":[[[77.617396861076898,20.804728263358349],[77.615615658764739,20.805245462892792],[77.613355697997974,20.805218359698763],[77.613055260130722,20.805237814356374],[77.612945524638846,20.80353715492269],[77.61293734927402,20.80289892727464],[77.612881076597517,20.802079026729491],[77.613346397054414,20.802231029110434],[77.61383240764458,20.802346233015751],[77.615459323375006,20.802803862857473],[77.616064670508948,20.802945974495],[77.616360346910653,20.803844314794386],[77.616431221040301,20.804006214112164],[77.617396861076898,20.804728263358349]]]},"properties":{"FID":7,"Join_Count":2,"TARGET_FID":8,"Layer":"TEXT_PARCEL","Text":"40","vill_code":"533009","LGD_CODE":"533009"}},{"type":"Feature","id":8,"geometry":{"type":"Polygon","coordinates":[[[77.611970211185564,20.80541880032666],[77.610672350203458,20.805618635983901],[77.610584382122994,20.805405919130877],[77.610173929818131,20.804584218405271],[77.609553376920076,20.804667068741239],[77.609558663060113,20.804545327877356],[77.609340046864318,20.802310646958137],[77.610728582839556,20.802024167873498],[77.611917108347882,20.802146409411463],[77.612449358677168,20.802197152538668],[77.612881076597517,20.802079026729491],[77.61293734927402,20.80289892727464],[77.612945524638846,20.80353715492269],[77.613055260130722,20.805237814356374],[77.611970211185564,20.80541880032666]]]},"properties":{"FID":8,"Join_Count":2,"TARGET_FID":9,"Layer":"TEXT_PARCEL","Text":"43","vill_code":"533009","LGD_CODE":"533009"}},{"type":"Feature","id":9,"geometry":{"type":"Polygon","coordinates":[[[77.602768542298222,20.806302572369866],[77.602537058902698,20.806309387820953],[77.601234021973212,20.804529813864292],[77.601998027679571,20.804308613352109],[77.60216686176679,20.804276139132472],[77.603495981639199,20.803939932643921],[77.603549435908775,20.804263553999771],[77.604341641009,20.804156429648334],[77.604445550915202,20.803925720165683],[77.605525656080971,20.803683998434202],[77.605691090773902,20.805116972185473],[77.604673389857595,20.805230190211724],[77.604460677835547,20.80522561654211],[77.604694020501057,20.805846812024591],[77.604744548595676,20.806034814481922],[77.602768542298222,20.806302572369866]]]},"properties":{"FID":9,"Join_Count":2,"TARGET_FID":10,"Layer":"TEXT_PARCEL","Text":"57","vill_code":"533009","LGD_CODE":"533009"}},{"type":"Feature","id":10,"geometry":{"type":"Polygon","coordinates":[[[77.618289040123898,20.805852510806588],[77.617695314853094,20.806313080958038],[77.617570650393176,20.806260059050242],[77.616875781898912,20.805969505597581],[77.615818949770571,20.806105379363348],[77.615615658764739,20.805245462892792],[77.617396861076898,20.804728263358349],[77.618451105964311,20.805554517992444],[77.618538055135318,20.805622209271537],[77.618289040123898,20.805852510806588]]]},"properties":{"FID":10,"Join_Count":2,"TARGET_FID":11,"Layer":"TEXT_PARCEL","Text":"35","vill_code":"533009","LGD_CODE":"533009"}},{"type":"Feature","id":11,"geometry":{"type":"Polygon","coordinates":[[[77.600823195768882,20.806831792305893],[77.599503829378776,20.80701284533691],[77.599485728451839,20.806927147077314],[77.598675487496081,20.804750674789538],[77.59843657640188,20.804126206946908],[77.598068846077936,20.803199830612471],[77.598270348273218,20.802793146986101],[77.59839536042702,20.802692161521676],[77.59915439276952,20.802248186553996],[77.600270688669994,20.803620649085403],[77.601102601392228,20.804531267057186],[77.60231783751766,20.806233048099351],[77.600823195768882,20.806831792305893]]]},"properties":{"FID":11,"Join_Count":2,"TARGET_FID":12,"Layer":"TEXT_PARCEL","Text":"60","vill_code":"533009","LGD_CODE":"533009"}},{"type":"Feature","id":12,"geometry":{"type":"Polygon","coordinates":[[[77.607112736533409,20.806976125739251],[77.605298116737657,20.807153702402292],[77.6049717623481,20.806728372776565],[77.604744548595676,20.806034814481922],[77.604694020501057,20.805846812024591],[77.604460677835547,20.80522561654211],[77.604673389857595,20.805230190211724],[77.605691090773902,20.805116972185473],[77.606718670459529,20.805001878035089],[77.608003053305467,20.804878889599614],[77.60909656744245,20.80472804728953],[77.609349242231886,20.805272671560338],[77.609297580930729,20.805926414577108],[77.609618791357121,20.806608675480025],[77.60818508722754,20.806898916403689],[77.607112736533409,20.806976125739251]]]},"properties":{"FID":12,"Join_Count":2,"TARGET_FID":13,"Layer":"TEXT_PARCEL","Text":"47","vill_code":"533009","LGD_CODE":"533009"}},{"type":"Feature","id":13,"geometry":{"type":"Polygon","coordinates":[[[77.597869397539355,20.80743640621224],[77.59759919554449,20.807475345178066],[77.597205396821593,20.806339036908362],[77.596991691755434,20.806321416977756],[77.595503453084916,20.806351827043791],[77.595294616706525,20.804217120221836],[77.596556474067739,20.803974120607833],[77.597882961846011,20.80354114679746],[77.598068846077936,20.803199830612471],[77.59843657640188,20.804126206946908],[77.598675487496081,20.804750674789538],[77.599485728451839,20.806927147077314],[77.599503829378776,20.80701284533691],[77.59937993772985,20.807072144864723],[77.598857990780672,20.807255697180956],[77.597869397539355,20.80743640621224]]]},"properties":{"FID":13,"Join_Count":2,"TARGET_FID":14,"Layer":"TEXT_PARCEL","Text":"66","vill_code":"533009","LGD_CODE":"533009"}},{"type":"Feature","id":14,"geometry":{"type":"Polygon","coordinates":[[[77.614267829058733,20.807540971148615],[77.613392512801042,20.807641167210281],[77.61335615744035,20.806743705546193],[77.613368443875345,20.806391792186069],[77.613355697997974,20.805218359698763],[77.615615658764739,20.805245462892792],[77.615818949770571,20.806105379363348],[77.615648476712607,20.80627710204584],[77.614780878843604,20.80729590488583],[77.614267829058733,20.807540971148615]]]},"properties":{"FID":14,"Join_Count":2,"TARGET_FID":15,"Layer":"TEXT_PARCEL","Text":"39","vill_code":"533009","LGD_CODE":"533009"}},{"type":"Feature","id":15,"geometry":{"type":"Polygon","coordinates":[[[77.620480986654911,20.807915905919877],[77.620441231099107,20.8081162294196],[77.619915764654735,20.808077985788824],[77.617890545058714,20.807836047656579],[77.617801407467113,20.807804383606346],[77.61880437884335,20.806166814568801],[77.618926475637423,20.805950081273689],[77.618952778360807,20.805903392644204],[77.618986282574781,20.805926108141403],[77.619262144218538,20.806019875160967],[77.620456436227087,20.806318641013281],[77.620598381404875,20.806343617816022],[77.620480986654911,20.807915905919877]]]},"properties":{"FID":15,"Join_Count":3,"TARGET_FID":16,"Layer":"TEXT_PARCEL","Text":"33","vill_code":"533009","LGD_CODE":"533009"}},{"type":"Feature","id":16,"geometry":{"type":"Polygon","coordinates":[[[77.62392571637433,20.807232756382703],[77.623714044859284,20.808467607151819],[77.622888833289849,20.808453863670394],[77.619935318768782,20.808445414968293],[77.619915764654735,20.808077985788824],[77.620441231099107,20.8081162294196],[77.620480986654911,20.807915905919877],[77.620598381404875,20.806343617816022],[77.622718735755626,20.806532420039254],[77.62387587579687,20.806602485633967],[77.624039395107133,20.806600656156537],[77.623975324992443,20.8070263525094],[77.62392571637433,20.807232756382703]]]},"properties":{"FID":16,"Join_Count":2,"TARGET_FID":17,"Layer":"TEXT_PARCEL","Text":"32","vill_code":"533009","LGD_CODE":"533009"}},{"type":"Feature","id":17,"geometry":{"type":"Polygon","coordinates":[[[77.603319952534335,20.807680836747085],[77.599729720457844,20.808996346785428],[77.598857990780672,20.807255697180956],[77.59937993772985,20.807072144864723],[77.599503829378776,20.80701284533691],[77.600823195768882,20.806831792305893],[77.60231783751766,20.806233048099351],[77.603319952534335,20.807680836747085]]]},"properties":{"FID":17,"Join_Count":2,"TARGET_FID":18,"Layer":"TEXT_PARCEL","Text":"61","vill_code":"533009","LGD_CODE":"533009"}},{"type":"Feature","id":18,"geometry":{"type":"Polygon","coordinates":[[[77.611579247450919,20.809025373701644],[77.61072154692674,20.809111272311586],[77.609618791357121,20.806608675480025],[77.609297580930729,20.805926414577108],[77.609349242231886,20.805272671560338],[77.60909656744245,20.80472804728953],[77.609553376920076,20.804667068741239],[77.610173929818131,20.804584218405271],[77.610584382122994,20.805405919130877],[77.610672350203458,20.805618635983901],[77.611343605646297,20.807157047501608],[77.611835048160884,20.808288692525647],[77.611579247450919,20.809025373701644]]]},"properties":{"FID":18,"Join_Count":2,"TARGET_FID":19,"Layer":"TEXT_PARCEL","Text":"49","vill_code":"533009","LGD_CODE":"533009"}},{"type":"Feature","id":19,"geometry":{"type":"Polygon","coordinates":[[[77.609429000456657,20.809262691174993],[77.60850057783918,20.809756915963906],[77.607263766446252,20.809552537546189],[77.606282026970931,20.809055296170506],[77.605942956073932,20.808727600553411],[77.60563756035539,20.807605362543576],[77.605298116737657,20.807153702402292],[77.607112736533409,20.806976125739251],[77.60818508722754,20.806898916403689],[77.609618791357121,20.806608675480025],[77.61072154692674,20.809111272311586],[77.610222926697887,20.809169047388245],[77.609429000456657,20.809262691174993]]]},"properties":{"FID":19,"Join_Count":2,"TARGET_FID":20,"Layer":"TEXT_PARCEL","Text":"48","vill_code":"533009","LGD_CODE":"533009"}},{"type":"Feature","id":20,"geometry":{"type":"Polygon","coordinates":[[[77.612107826468929,20.809940744512122],[77.611925414325313,20.809966913434785],[77.611579247450919,20.809025373701644],[77.611835048160884,20.808288692525647],[77.611343605646297,20.807157047501608],[77.610672350203458,20.805618635983901],[77.611970211185564,20.80541880032666],[77.613055260130722,20.805237814356374],[77.613355697997974,20.805218359698763],[77.613368443875345,20.806391792186069],[77.61335615744035,20.806743705546193],[77.613392512801042,20.807641167210281],[77.614267829058733,20.807540971148615],[77.614780878843604,20.80729590488583],[77.615134835714457,20.807785105769934],[77.615241497014352,20.808192148525265],[77.615203054548402,20.808571413328472],[77.615075747495737,20.809239061188769],[77.612864950265632,20.80974373150185],[77.612107826468929,20.809940744512122]]]},"properties":{"FID":20,"Join_Count":2,"TARGET_FID":21,"Layer":"TEXT_PARCEL","Text":"38","vill_code":"533009","LGD_CODE":"533009"}},{"type":"Feature","id":21,"geometry":{"type":"Polygon","coordinates":[[[77.615378112655037,20.809774557614301],[77.614323977333342,20.810165131168674],[77.612864950265632,20.80974373150185],[77.615075747495737,20.809239061188769],[77.615203054548402,20.808571413328472],[77.615241497014352,20.808192148525265],[77.615134835714457,20.807785105769934],[77.614780878843604,20.80729590488583],[77.615648476712607,20.80627710204584],[77.615818949770571,20.806105379363348],[77.616875781898912,20.805969505597581],[77.617570650393176,20.806260059050242],[77.617695314853094,20.806313080958038],[77.617351867113953,20.806617365808947],[77.617305639686379,20.806741525455895],[77.616905538231961,20.80774252110076],[77.616528493349563,20.808292117130623],[77.616554698190654,20.808850282312012],[77.615945772256637,20.809594316675685],[77.615845035979518,20.809704040360014],[77.615378112655037,20.809774557614301]]]},"properties":{"FID":21,"Join_Count":2,"TARGET_FID":22,"Layer":"TEXT_PARCEL","Text":"36","vill_code":"533009","LGD_CODE":"533009"}},{"type":"Feature","id":22,"geometry":{"type":"Polygon","coordinates":[[[77.602014526225076,20.809891343859519],[77.601302037266663,20.810405771193548],[77.600230505883601,20.810310971242139],[77.599729720457844,20.808996346785428],[77.603319952534335,20.807680836747085],[77.60468524487834,20.809238491990538],[77.603970172334414,20.809529331796551],[77.602014526225076,20.809891343859519]]]},"properties":{"FID":22,"Join_Count":2,"TARGET_FID":23,"Layer":"TEXT_PARCEL","Text":"62","vill_code":"533009","LGD_CODE":"533009"}},{"type":"Feature","id":23,"geometry":{"type":"Polygon","coordinates":[[[77.62331985761476,20.810353835123983],[77.620353695060714,20.810538795694143],[77.620030017296273,20.81053261239882],[77.619935318768782,20.808445414968293],[77.622888833289849,20.808453863670394],[77.623714044859284,20.808467607151819],[77.623674709431853,20.808716351943456],[77.623378121017879,20.810014527870621],[77.62331985761476,20.810353835123983]]]},"properties":{"FID":23,"Join_Count":2,"TARGET_FID":24,"Layer":"TEXT_PARCEL","Text":"31","vill_code":"533009","LGD_CODE":"533009"}},{"type":"Feature","id":24,"geometry":{"type":"Polygon","coordinates":[[[77.600230505883601,20.810310971242139],[77.60038274219572,20.810991797699362],[77.599259912100493,20.810833574244423],[77.599225264006662,20.810709496110437],[77.599087218914249,20.809442274417727],[77.598972381146552,20.808182878722768],[77.597595566090845,20.808214972471674],[77.595605253275707,20.808361753783686],[77.595503453084916,20.806351827043791],[77.596991691755434,20.806321416977756],[77.597205396821593,20.806339036908362],[77.59759919554449,20.807475345178066],[77.597869397539355,20.80743640621224],[77.598857990780672,20.807255697180956],[77.599729720457844,20.808996346785428],[77.600230505883601,20.810310971242139]]]},"properties":{"FID":24,"Join_Count":2,"TARGET_FID":25,"Layer":"TEXT_PARCEL","Text":"65","vill_code":"533009","LGD_CODE":"533009"}},{"type":"Feature","id":25,"geometry":{"type":"Polygon","coordinates":[[[77.619043305083139,20.810673507697683],[77.618772155950339,20.810781082410656],[77.617815373451592,20.810468305403678],[77.617707536302916,20.81040416442373],[77.617074917773493,20.810117172766546],[77.616617953175265,20.810148402639804],[77.616155415179151,20.810335981671322],[77.615741835609199,20.809897873842853],[77.615845035979518,20.809704040360014],[77.615945772256637,20.809594316675685],[77.616554698190654,20.808850282312012],[77.616528493349563,20.808292117130623],[77.616905538231961,20.80774252110076],[77.617305639686379,20.806741525455895],[77.617351867113953,20.806617365808947],[77.617695314853094,20.806313080958038],[77.618289040123898,20.805852510806588],[77.618538055135318,20.805622209271537],[77.618952778360807,20.805903392644204],[77.618926475637423,20.805950081273689],[77.61880437884335,20.806166814568801],[77.617801407467113,20.807804383606346],[77.617890545058714,20.807836047656579],[77.619915764654735,20.808077985788824],[77.619935318768782,20.808445414968293],[77.620030017296273,20.81053261239882],[77.620042430311159,20.810727431697991],[77.619909697904248,20.810683440302949],[77.619629337900278,20.810680035871904],[77.619361164504767,20.810751639725567],[77.619043305083139,20.810673507697683]]]},"properties":{"FID":25,"Join_Count":2,"TARGET_FID":26,"Layer":"TEXT_PARCEL","Text":"34","vill_code":"533009","LGD_CODE":"533009"}},{"type":"Feature","id":26,"geometry":{"type":"Polygon","coordinates":[[[77.608575925074291,20.810760429405178],[77.608479540068714,20.811174109932008],[77.60747515766684,20.811106692008085],[77.606880356867748,20.811173148819751],[77.60682705385841,20.810218527993992],[77.606282026970931,20.809055296170506],[77.607263766446252,20.809552537546189],[77.60850057783918,20.809756915963906],[77.609429000456657,20.809262691174993],[77.610222926697887,20.809169047388245],[77.610296120977836,20.810575630915704],[77.608575925074291,20.810760429405178]]]},"properties":{"FID":26,"Join_Count":2,"TARGET_FID":27,"Layer":"TEXT_PARCEL","Text":"51","vill_code":"533009","LGD_CODE":"533009"}},{"type":"Feature","id":27,"geometry":{"type":"Polygon","coordinates":[[[77.606241027584275,20.811318870243067],[77.606103655592122,20.811352978021993],[77.60528746443552,20.809796470447917],[77.605149060477927,20.80963967680686],[77.6048383571041,20.809179445229606],[77.603548070019244,20.80771977873232],[77.60285327095265,20.80677750195024],[77.602537058902698,20.806309387820953],[77.602768542298222,20.806302572369866],[77.604744548595676,20.806034814481922],[77.6049717623481,20.806728372776565],[77.605298116737657,20.807153702402292],[77.60563756035539,20.807605362543576],[77.605942956073932,20.808727600553411],[77.606282026970931,20.809055296170506],[77.60682705385841,20.810218527993992],[77.606880356867748,20.811173148819751],[77.606241027584275,20.811318870243067]]]},"properties":{"FID":27,"Join_Count":2,"TARGET_FID":28,"Layer":"TEXT_PARCEL","Text":"56","vill_code":"533009","LGD_CODE":"533009"}},{"type":"Feature","id":28,"geometry":{"type":"Polygon","coordinates":[[[77.605239120051991,20.810011879037813],[77.60595016476536,20.811393056856076],[77.604730064871362,20.811242300879801],[77.602170250207905,20.810852064133798],[77.602064368329408,20.810122738489174],[77.602014526225076,20.809891343859519],[77.603970172334414,20.809529331796551],[77.60468524487834,20.809238491990538],[77.605239120051991,20.810011879037813]]]},"properties":{"FID":28,"Join_Count":2,"TARGET_FID":29,"Layer":"TEXT_PARCEL","Text":"63","vill_code":"533009","LGD_CODE":"533009"}},{"type":"Feature","id":29,"geometry":{"type":"Polygon","coordinates":[[[77.606103655592122,20.811352978021993],[77.60595016476536,20.811393056856076],[77.605239120051991,20.810011879037813],[77.60468524487834,20.809238491990538],[77.603319952534335,20.807680836747085],[77.60231783751766,20.806233048099351],[77.601102601392228,20.804531267057186],[77.600270688669994,20.803620649085403],[77.59915439276952,20.802248186553996],[77.599282076702394,20.802192654643857],[77.600321377238146,20.803484715648384],[77.601234021973212,20.804529813864292],[77.602537058902698,20.806309387820953],[77.60285327095265,20.80677750195024],[77.603548070019244,20.80771977873232],[77.6048383571041,20.809179445229606],[77.605149060477927,20.80963967680686],[77.60528746443552,20.809796470447917],[77.606103655592122,20.811352978021993]]]},"properties":{"FID":29,"Join_Count":1,"TARGET_FID":30,"Layer":"POLY_PARCEL","Text":"छन\u094Dस\u094Dस\u094D","vill_code":"533009","LGD_CODE":"533009"}},{"type":"Feature","id":30,"geometry":{"type":"Polygon","coordinates":[[[77.613127244877887,20.810932186092327],[77.61207584050598,20.81170513208771],[77.611950775844335,20.810137815634732],[77.611925414325313,20.809966913434785],[77.612107826468929,20.809940744512122],[77.612864950265632,20.80974373150185],[77.614323977333342,20.810165131168674],[77.615378112655037,20.809774557614301],[77.615845035979518,20.809704040360014],[77.615741835609199,20.809897873842853],[77.616155415179151,20.810335981671322],[77.616002511040833,20.81041990120983],[77.61561866978434,20.810698620342109],[77.615448068959836,20.810765863420592],[77.614424006879233,20.811041907950052],[77.613878741715894,20.810989167557203],[77.613377226431737,20.810854260050728],[77.613127244877887,20.810932186092327]]]},"properties":{"FID":30,"Join_Count":2,"TARGET_FID":31,"Layer":"TEXT_PARCEL","Text":"37","vill_code":"533009","LGD_CODE":"533009"}},{"type":"Feature","id":31,"geometry":{"type":"Polygon","coordinates":[[[77.61207584050598,20.81170513208771],[77.610244631746241,20.811893358406433],[77.610296120977836,20.810575630915704],[77.610222926697887,20.809169047388245],[77.61072154692674,20.809111272311586],[77.611579247450919,20.809025373701644],[77.611925414325313,20.809966913434785],[77.611950775844335,20.810137815634732],[77.61207584050598,20.81170513208771]]]},"properties":{"FID":31,"Join_Count":2,"TARGET_FID":32,"Layer":"TEXT_PARCEL","Text":"50","vill_code":"533009","LGD_CODE":"533009"}},{"type":"Feature","id":32,"geometry":{"type":"Polygon","coordinates":[[[77.604730064871362,20.811242300879801],[77.604781002586506,20.81201490312645],[77.603139779092217,20.811795818814204],[77.602321173849091,20.811749613511896],[77.601987323743856,20.811265110778937],[77.60038274219572,20.810991797699362],[77.600230505883601,20.810310971242139],[77.601302037266663,20.810405771193548],[77.602014526225076,20.809891343859519],[77.602064368329408,20.810122738489174],[77.602170250207905,20.810852064133798],[77.604730064871362,20.811242300879801]]]},"properties":{"FID":32,"Join_Count":2,"TARGET_FID":33,"Layer":"TEXT_PARCEL","Text":"64","vill_code":"533009","LGD_CODE":"533009"}},{"type":"Feature","id":33,"geometry":{"type":"Polygon","coordinates":[[[77.618306010739232,20.81145278243833],[77.618540468932736,20.811991813721814],[77.617754934715478,20.811645942188374],[77.616638820833742,20.811588042838927],[77.616663374628843,20.811414414226839],[77.61698998806645,20.810323950513681],[77.618796411982729,20.810924566814791],[77.619035074952023,20.810820621440289],[77.619280032108009,20.810866895523326],[77.619849912739255,20.810778855293304],[77.620205857498348,20.810863094723256],[77.62048860868191,20.810899143840988],[77.620657686494468,20.810949529338565],[77.620840180834549,20.810940956807098],[77.621239461179982,20.811021442591446],[77.621512237766638,20.81110660894117],[77.621674843725799,20.811098257547581],[77.62126920776322,20.810965569280928],[77.621104619786706,20.810964140869245],[77.620873544061112,20.81088504269497],[77.620647424762879,20.810881034439813],[77.620488961934825,20.810817460867622],[77.620338953990441,20.81082240246959],[77.620042430311159,20.810727431697991],[77.620030017296273,20.81053261239882],[77.620353695060714,20.810538795694143],[77.62331985761476,20.810353835123983],[77.623305351567041,20.811680048702083],[77.623299815579855,20.811808986839292],[77.623135027557197,20.811789334539871],[77.618485509388961,20.811450779584753],[77.618306010739232,20.81145278243833]]]},"properties":{"FID":33,"Join_Count":2,"TARGET_FID":34,"Layer":"TEXT_PARCEL","Text":"30","vill_code":"533009","LGD_CODE":"533009"}},{"type":"Feature","id":34,"geometry":{"type":"Polygon","coordinates":[[[77.608495704975695,20.812474916952421],[77.608486285443703,20.812534071662935],[77.607443330555029,20.812330638317651],[77.606880356867748,20.811173148819751],[77.60747515766684,20.811106692008085],[77.608479540068714,20.811174109932008],[77.608764915143439,20.811243888371223],[77.608665708701736,20.81245119383113],[77.608495704975695,20.812474916952421]]]},"properties":{"FID":34,"Join_Count":2,"TARGET_FID":35,"Layer":"TEXT_PARCEL","Text":"53","vill_code":"533009","LGD_CODE":"533009"}},{"type":"Feature","id":35,"geometry":{"type":"Polygon","coordinates":[[[77.602013631937965,20.812693859737266],[77.601282318271728,20.812883605155307],[77.59842920369239,20.812791033715335],[77.598144637027616,20.812790629521828],[77.597973355500841,20.81065103006544],[77.599259912100493,20.810833574244423],[77.60038274219572,20.810991797699362],[77.601987323743856,20.811265110778937],[77.602013631937965,20.812693859737266]]]},"properties":{"FID":35,"Join_Count":2,"TARGET_FID":36,"Layer":"TEXT_PARCEL","Text":"71","vill_code":"533009","LGD_CODE":"533009"}},{"type":"Feature","id":36,"geometry":{"type":"Polygon","coordinates":[[[77.598144637027616,20.812790629521828],[77.598145493664006,20.812994243436403],[77.596398046767561,20.812271597518262],[77.594762448099317,20.811442450649427],[77.595069000416117,20.81132223612023],[77.595465306332429,20.809999063394745],[77.595746829997154,20.81007178299048],[77.596652458750199,20.810263892823851],[77.596909545643129,20.810309808248711],[77.597973355500841,20.81065103006544],[77.598144637027616,20.812790629521828]]]},"properties":{"FID":36,"Join_Count":2,"TARGET_FID":37,"Layer":"TEXT_PARCEL","Text":"70","vill_code":"533009","LGD_CODE":"533009"}},{"type":"Feature","id":37,"geometry":{"type":"Polygon","coordinates":[[[77.607908671293899,20.812786692256374],[77.60778695602302,20.812866691382649],[77.607573326683607,20.812719763092943],[77.607443330555029,20.812330638317651],[77.608486285443703,20.812534071662935],[77.608441271133131,20.812816774109027],[77.608306416089022,20.812790349741825],[77.607908671293899,20.812786692256374]]]},"properties":{"FID":37,"Join_Count":2,"TARGET_FID":38,"Layer":"TEXT_PARCEL","Text":"54","vill_code":"533009","LGD_CODE":"533009"}},{"type":"Feature","id":38,"geometry":{"type":"Polygon","coordinates":[[[77.611331684622442,20.813079086465439],[77.611289981261635,20.813219795388843],[77.611112568700861,20.813202214484427],[77.611252553465064,20.812900270841414],[77.611498110613937,20.812776655810069],[77.61207584050598,20.81170513208771],[77.613127244877887,20.810932186092327],[77.613377226431737,20.810854260050728],[77.613878741715894,20.810989167557203],[77.614424006879233,20.811041907950052],[77.615448068959836,20.810765863420592],[77.61561866978434,20.810698620342109],[77.616002511040833,20.81041990120983],[77.616155415179151,20.810335981671322],[77.616617953175265,20.810148402639804],[77.617074917773493,20.810117172766546],[77.617707536302916,20.81040416442373],[77.617815373451592,20.810468305403678],[77.618772155950339,20.810781082410656],[77.619043305083139,20.810673507697683],[77.619361164504767,20.810751639725567],[77.619629337900278,20.810680035871904],[77.619909697904248,20.810683440302949],[77.620042430311159,20.810727431697991],[77.620338953990441,20.81082240246959],[77.620488961934825,20.810817460867622],[77.620647424762879,20.810881034439813],[77.620873544061112,20.81088504269497],[77.621104619786706,20.810964140869245],[77.62126920776322,20.810965569280928],[77.621674843725799,20.811098257547581],[77.621512237766638,20.81110660894117],[77.621239461179982,20.811021442591446],[77.620840180834549,20.810940956807098],[77.620657686494468,20.810949529338565],[77.62048860868191,20.810899143840988],[77.620205857498348,20.810863094723256],[77.619849912739255,20.810778855293304],[77.619280032108009,20.810866895523326],[77.619035074952023,20.810820621440289],[77.618796411982729,20.810924566814791],[77.61698998806645,20.810323950513681],[77.616234519191067,20.810449988436826],[77.615681118280335,20.810956030800835],[77.614370274544271,20.811274475356544],[77.61378790597746,20.811230821172206],[77.613720963543557,20.811167351340309],[77.613435009944311,20.811052914907769],[77.613185029074458,20.811130841049113],[77.612572529231215,20.811670204220874],[77.612312868150127,20.811712297986809],[77.611582955565439,20.812971743485306],[77.611422096443334,20.812976798595074],[77.611331684622442,20.813079086465439]]]},"properties":{"FID":38,"Join_Count":1,"TARGET_FID":39,"Layer":"POLY_PARCEL","Text":"छन\u094Dस\u094Dस\u094D","vill_code":"533009","LGD_CODE":"533009"}},{"type":"Feature","id":39,"geometry":{"type":"Polygon","coordinates":[[[77.611112568700861,20.813202214484427],[77.610277181507996,20.813241616043964],[77.61019791721813,20.81243468867472],[77.608665708701736,20.81245119383113],[77.608764915143439,20.811243888371223],[77.608479540068714,20.811174109932008],[77.608575925074291,20.810760429405178],[77.610296120977836,20.810575630915704],[77.610244631746241,20.811893358406433],[77.61207584050598,20.81170513208771],[77.611498110613937,20.812776655810069],[77.611252553465064,20.812900270841414],[77.611112568700861,20.813202214484427]]]},"properties":{"FID":39,"Join_Count":2,"TARGET_FID":40,"Layer":"TEXT_PARCEL","Text":"52","vill_code":"533009","LGD_CODE":"533009"}},{"type":"Feature","id":40,"geometry":{"type":"Polygon","coordinates":[[[77.623299815579855,20.811808986839292],[77.623241306926545,20.813171556224265],[77.622155572802143,20.813114575291689],[77.61870034523433,20.812910557640173],[77.61857514718416,20.812177224601985],[77.618540468932736,20.811991813721814],[77.618306010739232,20.81145278243833],[77.618485509388961,20.811450779584753],[77.623135027557197,20.811789334539871],[77.623299815579855,20.811808986839292]]]},"properties":{"FID":40,"Join_Count":2,"TARGET_FID":41,"Layer":"TEXT_PARCEL","Text":"29","vill_code":"533009","LGD_CODE":"533009"}},{"type":"Feature","id":41,"geometry":{"type":"Polygon","coordinates":[[[77.613747719283694,20.813339910752269],[77.613760649729585,20.813453996126604],[77.613269932353305,20.813441597439521],[77.611289981261635,20.813219795388843],[77.611331684622442,20.813079086465439],[77.611422096443334,20.812976798595074],[77.611582955565439,20.812971743485306],[77.612312868150127,20.811712297986809],[77.612572529231215,20.811670204220874],[77.613185029074458,20.811130841049113],[77.613435009944311,20.811052914907769],[77.613720963543557,20.811167351340309],[77.61378790597746,20.811230821172206],[77.613747719283694,20.813339910752269]]]},"properties":{"FID":41,"Join_Count":2,"TARGET_FID":42,"Layer":"TEXT_PARCEL","Text":"24","vill_code":"533009","LGD_CODE":"533009"}},{"type":"Feature","id":42,"geometry":{"type":"Polygon","coordinates":[[[77.602390161625138,20.813659308334262],[77.602136554845302,20.81366952910783],[77.601806508353761,20.813338724354615],[77.601282318271728,20.812883605155307],[77.602013631937965,20.812693859737266],[77.601987323743856,20.811265110778937],[77.602321173849091,20.811749613511896],[77.603139779092217,20.811795818814204],[77.604781002586506,20.81201490312645],[77.604848092395613,20.812667506896659],[77.604497542538994,20.813365668508371],[77.603518130008638,20.813468696095008],[77.602390161625138,20.813659308334262]]]},"properties":{"FID":42,"Join_Count":2,"TARGET_FID":43,"Layer":"TEXT_PARCEL","Text":"72","vill_code":"533009","LGD_CODE":"533009"}},{"type":"Feature","id":43,"geometry":{"type":"Polygon","coordinates":[[[77.605853366315145,20.813226640550834],[77.604559721736948,20.813662801945764],[77.604497542538994,20.813365668508371],[77.604848092395613,20.812667506896659],[77.604781002586506,20.81201490312645],[77.604730064871362,20.811242300879801],[77.60595016476536,20.811393056856076],[77.606103655592122,20.811352978021993],[77.606241027584275,20.811318870243067],[77.606880356867748,20.811173148819751],[77.607443330555029,20.812330638317651],[77.606394506397749,20.812718885205449],[77.606355988972837,20.813399024539606],[77.605853366315145,20.813226640550834]]]},"properties":{"FID":43,"Join_Count":2,"TARGET_FID":44,"Layer":"TEXT_PARCEL","Text":"55","vill_code":"533009","LGD_CODE":"533009"}},{"type":"Feature","id":44,"geometry":{"type":"Polygon","coordinates":[[[77.617146606382462,20.812709611570593],[77.616964731903806,20.813779925378142],[77.615172112146368,20.813501302910623],[77.614334299630684,20.813345198235684],[77.613747719283694,20.813339910752269],[77.61378790597746,20.811230821172206],[77.614370274544271,20.811274475356544],[77.615681118280335,20.810956030800835],[77.616234519191067,20.810449988436826],[77.61698998806645,20.810323950513681],[77.616663374628843,20.811414414226839],[77.616638820833742,20.811588042838927],[77.61665452493672,20.811896327465316],[77.617142452312649,20.812574245498624],[77.617146606382462,20.812709611570593]]]},"properties":{"FID":44,"Join_Count":2,"TARGET_FID":45,"Layer":"TEXT_PARCEL","Text":"25","vill_code":"533009","LGD_CODE":"533009"}},{"type":"Feature","id":45,"geometry":{"type":"Polygon","coordinates":[[[77.61870034523433,20.812910557640173],[77.618836204493832,20.814094737654038],[77.617619531363019,20.813934880203082],[77.616964731903806,20.813779925378142],[77.617146606382462,20.812709611570593],[77.617142452312649,20.812574245498624],[77.61665452493672,20.811896327465316],[77.616638820833742,20.811588042838927],[77.617754934715478,20.811645942188374],[77.618540468932736,20.811991813721814],[77.61857514718416,20.812177224601985],[77.61870034523433,20.812910557640173]]]},"properties":{"FID":45,"Join_Count":2,"TARGET_FID":46,"Layer":"TEXT_PARCEL","Text":"26","vill_code":"533009","LGD_CODE":"533009"}},{"type":"Feature","id":46,"geometry":{"type":"Polygon","coordinates":[[[77.607328516930579,20.814257770903822],[77.606680138627098,20.814406290827623],[77.606556081640889,20.814071731829294],[77.606355988972837,20.813399024539606],[77.607280984668421,20.81329774147024],[77.607376475901674,20.814046443420555],[77.607328516930579,20.814257770903822]]]},"properties":{"FID":46,"Join_Count":2,"TARGET_FID":47,"Layer":"TEXT_PARCEL","Text":"117","vill_code":"533009","LGD_CODE":"533009"}},{"type":"Feature","id":47,"geometry":{"type":"Polygon","coordinates":[[[77.607893857192082,20.814435943776637],[77.60764626119196,20.814455458654923],[77.607383616513701,20.81444879108529],[77.607328516930579,20.814257770903822],[77.607376475901674,20.814046443420555],[77.607280984668421,20.81329774147024],[77.606355988972837,20.813399024539606],[77.606394506397749,20.812718885205449],[77.607443330555029,20.812330638317651],[77.607573326683607,20.812719763092943],[77.60778695602302,20.812866691382649],[77.607908671293899,20.812786692256374],[77.608306416089022,20.812790349741825],[77.608441271133131,20.812816774109027],[77.608486285443703,20.812534071662935],[77.608495704975695,20.812474916952421],[77.608665708701736,20.81245119383113],[77.61019791721813,20.81243468867472],[77.610277181507996,20.813241616043964],[77.610165245910736,20.813683593684015],[77.609627186338813,20.813935226796506],[77.609011547650226,20.813905910339848],[77.607792919946874,20.81420231469319],[77.607893857192082,20.814435943776637]]]},"properties":{"FID":47,"Join_Count":2,"TARGET_FID":48,"Layer":"TEXT_MAPIN","Text":"ग\u093E\u0902वठ\u093Eण","vill_code":"533009","LGD_CODE":"533009"}},{"type":"Feature","id":48,"geometry":{"type":"Polygon","coordinates":[[[77.605430509890823,20.814295582671832],[77.604781005440771,20.814525372972266],[77.604714518253161,20.814313458700173],[77.604559721736948,20.813662801945764],[77.605853366315145,20.813226640550834],[77.606355988972837,20.813399024539606],[77.606556081640889,20.814071731829294],[77.606372244196251,20.814091116529838],[77.605764994149681,20.814315830049104],[77.605430509890823,20.814295582671832]]]},"properties":{"FID":48,"Join_Count":2,"TARGET_FID":49,"Layer":"TEXT_PARCEL","Text":"116","vill_code":"533009","LGD_CODE":"533009"}},{"type":"Feature","id":49,"geometry":{"type":"Polygon","coordinates":[[[77.622120539376297,20.813549526700669],[77.622058824191399,20.814389607135432],[77.620036586498742,20.814254531010434],[77.618836204493832,20.814094737654038],[77.61870034523433,20.812910557640173],[77.622155572802143,20.813114575291689],[77.622122303577328,20.81331756435992],[77.622120539376297,20.813549526700669]]]},"properties":{"FID":49,"Join_Count":2,"TARGET_FID":50,"Layer":"TEXT_PARCEL","Text":"27","vill_code":"533009","LGD_CODE":"533009"}},{"type":"Feature","id":50,"geometry":{"type":"Polygon","coordinates":[[[77.623241306926545,20.813171556224265],[77.623188457767355,20.814443745361956],[77.622058824191399,20.814389607135432],[77.622120539376297,20.813549526700669],[77.622122303577328,20.81331756435992],[77.622155572802143,20.813114575291689],[77.623241306926545,20.813171556224265]]]},"properties":{"FID":50,"Join_Count":2,"TARGET_FID":51,"Layer":"TEXT_PARCEL","Text":"28","vill_code":"533009","LGD_CODE":"533009"}},{"type":"Feature","id":51,"geometry":{"type":"Polygon","coordinates":[[[77.610491225075194,20.81442797098552],[77.610384550533951,20.814655419509204],[77.610194092678398,20.814642279139381],[77.610336600666187,20.814478696273266],[77.610419441694916,20.81425560787514],[77.610615660770193,20.814103137300307],[77.610669157556188,20.813958787176635],[77.61086164391476,20.813799822851195],[77.610926975011253,20.813710882620953],[77.611060556927981,20.813493764560036],[77.611112568700861,20.813202214484427],[77.611289981261635,20.813219795388843],[77.611195688939731,20.813567407495324],[77.611073905095012,20.813689202347582],[77.611004472198289,20.813899517701362],[77.610776462989364,20.814094816188042],[77.610708386268101,20.814232793828346],[77.610491225075194,20.81442797098552]]]},"properties":{"FID":51,"Join_Count":1,"TARGET_FID":53,"Layer":"POLY_PARCEL","Text":"छन\u094Dस\u094Dस\u094D","vill_code":"533009","LGD_CODE":"533009"}},{"type":"Feature","id":52,"geometry":{"type":"Polygon","coordinates":[[[77.623194243648186,20.814572260076108],[77.623062028118824,20.814579160327266],[77.620483043736883,20.814411590587358],[77.618876490265578,20.814215010569484],[77.617566714670374,20.814027158124301],[77.615041737095567,20.813648495688646],[77.614843022422804,20.813631014466818],[77.614238380108432,20.813468372884053],[77.613760649729585,20.813453996126604],[77.613747719283694,20.813339910752269],[77.614334299630684,20.813345198235684],[77.615172112146368,20.813501302910623],[77.616964731903806,20.813779925378142],[77.617619531363019,20.813934880203082],[77.618836204493832,20.814094737654038],[77.620036586498742,20.814254531010434],[77.622058824191399,20.814389607135432],[77.623188457767355,20.814443745361956],[77.623194243648186,20.814572260076108]]]},"properties":{"FID":52,"Join_Count":1,"TARGET_FID":54,"Layer":"POLY_PARCEL","Text":"छन\u094Dस\u094Dस\u094D","vill_code":"533009","LGD_CODE":"533009"}},{"type":"Feature","id":53,"geometry":{"type":"MultiPolygon","coordinates":[[[[77.611060556928066,20.813493764560125],[77.610926975011353,20.813710882621077],[77.610861643914745,20.813799822851195],[77.610669157556174,20.813958787176659],[77.610615660770293,20.814103137300325],[77.610419441695001,20.814255607875165],[77.610336600666244,20.814478696273397],[77.610194092678398,20.814642279139374],[77.609926911577702,20.814623845161126],[77.610070181137985,20.813966410320685],[77.610165245910764,20.813683593684118],[77.610277181508081,20.813241616044024],[77.611112568700946,20.81320221448448],[77.611060556928066,20.813493764560125]]],[[[77.613269932353262,20.813441597439578],[77.61210248898692,20.814752307034833],[77.610384550533922,20.814655419509286],[77.610491225075123,20.814427970985605],[77.610708386268186,20.8142327938283],[77.610776462989293,20.814094816188177],[77.611004472198317,20.813899517701426],[77.611073905095111,20.813689202347689],[77.611195688939802,20.813567407495441],[77.611289981261677,20.813219795388871],[77.613269932353262,20.813441597439578]]]]},"properties":{"FID":53,"Join_Count":2,"TARGET_FID":55,"Layer":"TEXT_PARCEL","Text":"23","vill_code":"533009","LGD_CODE":"533009"}},{"type":"Feature","id":54,"geometry":{"type":"Polygon","coordinates":[[[77.602566914871545,20.814685309679202],[77.602620214631358,20.814902131147488],[77.600409833416123,20.813930571805702],[77.598145493664006,20.812994243436403],[77.598144637027616,20.812790629521828],[77.59842920369239,20.812791033715335],[77.601282318271728,20.812883605155307],[77.601806508353761,20.813338724354615],[77.602136554845302,20.81366952910783],[77.602566914871545,20.814685309679202]]]},"properties":{"FID":54,"Join_Count":2,"TARGET_FID":56,"Layer":"TEXT_PARCEL","Text":"73","vill_code":"533009","LGD_CODE":"533009"}},{"type":"Feature","id":55,"geometry":{"type":"Polygon","coordinates":[[[77.59523451173628,20.815168816684938],[77.594867503075804,20.815204514627471],[77.594766054211576,20.814151172288465],[77.594141168564477,20.813420492205683],[77.594073152484683,20.811622931166507],[77.595159129615624,20.812152448753185],[77.596243346299005,20.812648918074171],[77.59737829505913,20.813143960896578],[77.598172899797873,20.813470901880141],[77.598165061497298,20.813605816116528],[77.598263428267643,20.814730310574841],[77.596798664674836,20.814951915359899],[77.59523451173628,20.815168816684938]]]},"properties":{"FID":55,"Join_Count":2,"TARGET_FID":58,"Layer":"TEXT_PARCEL","Text":"75","vill_code":"533009","LGD_CODE":"533009"}},{"type":"Feature","id":56,"geometry":{"type":"Polygon","coordinates":[[[77.607694081214589,20.814835918056168],[77.606834355866809,20.815027385091916],[77.606685055717705,20.814682468705641],[77.606680138627098,20.814406290827623],[77.607328516930579,20.814257770903822],[77.607383616513701,20.81444879108529],[77.60764626119196,20.814455458654923],[77.607694081214589,20.814835918056168]]]},"properties":{"FID":56,"Join_Count":2,"TARGET_FID":59,"Layer":"TEXT_PARCEL","Text":"118","vill_code":"533009","LGD_CODE":"533009"}},{"type":"Feature","id":57,"geometry":{"type":"Polygon","coordinates":[[[77.61020386839742,20.81494737828249],[77.610024252861521,20.815008999833935],[77.609995108781504,20.814893681074754],[77.610038172028112,20.814883875414981],[77.610118201447278,20.814807841216567],[77.610194092678398,20.814642279139381],[77.610384550533951,20.814655419509204],[77.610258758812449,20.814881424755985],[77.61020386839742,20.81494737828249]]]},"properties":{"FID":57,"Join_Count":1,"TARGET_FID":60,"Layer":"POLY_PARCEL","Text":"छन\u094Dस\u094Dस\u094D","vill_code":"533009","LGD_CODE":"533009"}},{"type":"Feature","id":58,"geometry":{"type":"Polygon","coordinates":[[[77.606834355866809,20.815027385091916],[77.606099023227188,20.815290347876729],[77.605997708686104,20.815027080795467],[77.605936350667406,20.81472425119647],[77.605764994149681,20.814315830049104],[77.606372244196251,20.814091116529838],[77.606556081640889,20.814071731829294],[77.606680138627098,20.814406290827623],[77.606685055717705,20.814682468705641],[77.606834355866809,20.815027385091916]]]},"properties":{"FID":58,"Join_Count":2,"TARGET_FID":61,"Layer":"TEXT_PARCEL","Text":"115","vill_code":"533009","LGD_CODE":"533009"}},{"type":"Feature","id":59,"geometry":{"type":"Polygon","coordinates":[[[77.605997708686104,20.815027080795467],[77.604996121285694,20.815340351476518],[77.604781005440771,20.814525372972266],[77.605430509890823,20.814295582671832],[77.605764994149681,20.814315830049104],[77.605936350667406,20.81472425119647],[77.605997708686104,20.815027080795467]]]},"properties":{"FID":59,"Join_Count":2,"TARGET_FID":62,"Layer":"TEXT_PARCEL","Text":"111","vill_code":"533009","LGD_CODE":"533009"}},{"type":"Feature","id":60,"geometry":{"type":"Polygon","coordinates":[[[77.614180780664142,20.81525637625019],[77.612338654821201,20.815292598845012],[77.612102488986991,20.814752307034773],[77.612506678875491,20.814721291154161],[77.613996544737532,20.814523375409607],[77.615033331215727,20.814583296104239],[77.615329254801992,20.815185124694597],[77.614180780664142,20.81525637625019]]]},"properties":{"FID":60,"Join_Count":2,"TARGET_FID":63,"Layer":"TEXT_PARCEL","Text":"19","vill_code":"533009","LGD_CODE":"533009"}},{"type":"Feature","id":61,"geometry":{"type":"Polygon","coordinates":[[[77.617657577896779,20.81529714731716],[77.61764049300281,20.815460430493225],[77.617454570299785,20.815439657579731],[77.616443098712608,20.815177853782178],[77.615329254801992,20.815185124694597],[77.615033331215727,20.814583296104239],[77.613996544737532,20.814523375409607],[77.612506678875491,20.814721291154161],[77.612102488986991,20.814752307034773],[77.613269932353305,20.813441597439521],[77.613760649729585,20.813453996126604],[77.614238380108432,20.813468372884053],[77.614843022422804,20.813631014466818],[77.615041737095567,20.813648495688646],[77.617566714670374,20.814027158124301],[77.617657577896779,20.81529714731716]]]},"properties":{"FID":61,"Join_Count":2,"TARGET_FID":64,"Layer":"TEXT_PARCEL","Text":"18","vill_code":"533009","LGD_CODE":"533009"}},{"type":"Feature","id":62,"geometry":{"type":"Polygon","coordinates":[[[77.600261638860673,20.815627992166515],[77.598473427126876,20.815865440894378],[77.598263428267643,20.814730310574841],[77.598165061497298,20.813605816116528],[77.598172899797873,20.813470901880141],[77.602292428072033,20.815310847775262],[77.600261638860673,20.815627992166515]]]},"properties":{"FID":62,"Join_Count":2,"TARGET_FID":66,"Layer":"TEXT_PARCEL","Text":"74","vill_code":"533009","LGD_CODE":"533009"}},{"type":"Feature","id":63,"geometry":{"type":"Polygon","coordinates":[[[77.608872746353939,20.815703165009669],[77.608763319744838,20.81571227337669],[77.608931505489537,20.815500595102357],[77.609277682528486,20.815339926111722],[77.609437510788041,20.815174792622091],[77.609590560215025,20.815137153096046],[77.609825688488669,20.814935243167742],[77.609995108781504,20.814893681074754],[77.610024252861521,20.815008999833935],[77.609839855012012,20.815073073129689],[77.609684107120643,20.815211259772582],[77.609502243748707,20.815255753122905],[77.609383538106755,20.815394292776979],[77.609288869728516,20.815460687441394],[77.608937151597317,20.815614884127257],[77.608872746353939,20.815703165009669]]]},"properties":{"FID":63,"Join_Count":1,"TARGET_FID":67,"Layer":"POLY_PARCEL","Text":"छन\u094Dस\u094Dस\u094D","vill_code":"533009","LGD_CODE":"533009"}},{"type":"Feature","id":64,"geometry":{"type":"Polygon","coordinates":[[[77.605673629135325,20.815593592970281],[77.605298963756937,20.815775004823404],[77.605196021076495,20.815768125245128],[77.605095994399704,20.815707505996894],[77.605037363720939,20.815456988994903],[77.604996121285694,20.815340351476518],[77.605997708686104,20.815027080795467],[77.606099023227188,20.815290347876729],[77.606140687022361,20.815398609840241],[77.605968840176871,20.815417850721101],[77.605673629135325,20.815593592970281]]]},"properties":{"FID":64,"Join_Count":2,"TARGET_FID":68,"Layer":"TEXT_PARCEL","Text":"112","vill_code":"533009","LGD_CODE":"533009"}},{"type":"Feature","id":65,"geometry":{"type":"MultiPolygon","coordinates":[[[[77.610176042503895,20.815586791243845],[77.608872746353939,20.815703165009719],[77.608937151597388,20.815614884127399],[77.609288869728459,20.81546068744143],[77.60938353810684,20.815394292777061],[77.609502243748807,20.815255753122983],[77.609684107120643,20.815211259772692],[77.609839855012012,20.815073073129728],[77.610024252861535,20.815008999833935],[77.610176042503895,20.815586791243845]]],[[[77.610070181137985,20.813966410320685],[77.609926911577702,20.814623845161126],[77.609995108781504,20.814893681074754],[77.609825688488741,20.814935243167724],[77.609590560215111,20.815137153096142],[77.609437510788098,20.815174792622148],[77.6092776825285,20.815339926111786],[77.608931505489636,20.815500595102435],[77.608763319744867,20.815712273376789],[77.607959911121839,20.815810787115652],[77.607840398147573,20.815423203663727],[77.607713125785153,20.815010450264083],[77.607694081214618,20.814835918056193],[77.607646261191974,20.814455458655001],[77.607893857192039,20.814435943776743],[77.607792919946803,20.814202314693205],[77.609011547650312,20.813905910339887],[77.609627186338741,20.813935226796502],[77.610165245910764,20.813683593684118],[77.610070181137985,20.813966410320685]]]]},"properties":{"FID":65,"Join_Count":2,"TARGET_FID":69,"Layer":"TEXT_PARCEL","Text":"1","vill_code":"533009","LGD_CODE":"533009"}},{"type":"Feature","id":66,"geometry":{"type":"Polygon","coordinates":[[[77.617742136164381,20.815606356093578],[77.614403953306123,20.815729884555584],[77.614180780664142,20.81525637625019],[77.615329254801992,20.815185124694597],[77.616443098712608,20.815177853782178],[77.617454570299785,20.815439657579731],[77.61764049300281,20.815460430493225],[77.617657577896779,20.81529714731716],[77.617566714670374,20.814027158124301],[77.618876490265578,20.814215010569484],[77.620483043736883,20.814411590587358],[77.620667591644647,20.815410595806938],[77.617742136164381,20.815606356093578]]]},"properties":{"FID":66,"Join_Count":2,"TARGET_FID":70,"Layer":"TEXT_PARCEL","Text":"17","vill_code":"533009","LGD_CODE":"533009"}},{"type":"Feature","id":67,"geometry":{"type":"Polygon","coordinates":[[[77.605095994399704,20.815707505996894],[77.605034796061588,20.815980852012462],[77.604968614126079,20.8159618854658],[77.602620214631358,20.814902131147488],[77.602566914871545,20.814685309679202],[77.602136554845302,20.81366952910783],[77.602390161625138,20.813659308334262],[77.603518130008638,20.813468696095008],[77.604497542538994,20.813365668508371],[77.604559721736948,20.813662801945764],[77.604714518253161,20.814313458700173],[77.604781005440771,20.814525372972266],[77.604996121285694,20.815340351476518],[77.605037363720939,20.815456988994903],[77.605095994399704,20.815707505996894]]]},"properties":{"FID":67,"Join_Count":2,"TARGET_FID":71,"Layer":"TEXT_PARCEL","Text":"110","vill_code":"533009","LGD_CODE":"533009"}},{"type":"Feature","id":68,"geometry":{"type":"Polygon","coordinates":[[[77.606656122030273,20.81593878180928],[77.606352616192552,20.816017247718431],[77.606140687022361,20.815398609840241],[77.606099023227188,20.815290347876729],[77.606834355866809,20.815027385091916],[77.607694081214589,20.814835918056168],[77.607713125785097,20.815010450263951],[77.60784039814753,20.815423203663752],[77.60725805735315,20.815682746978187],[77.606656122030273,20.81593878180928]]]},"properties":{"FID":68,"Join_Count":2,"TARGET_FID":72,"Layer":"TEXT_PARCEL","Text":"114","vill_code":"533009","LGD_CODE":"533009"}},{"type":"Feature","id":69,"geometry":{"type":"Polygon","coordinates":[[[77.607528801169067,20.815980236376841],[77.60646739585242,20.816440274848549],[77.605034796061588,20.815980852012462],[77.605095994399704,20.815707505996894],[77.605196021076495,20.815768125245128],[77.605298963756937,20.815775004823404],[77.605673629135325,20.815593592970281],[77.605968840176871,20.815417850721101],[77.606140687022361,20.815398609840241],[77.606352616192552,20.816017247718431],[77.606656122030273,20.81593878180928],[77.60725805735315,20.815682746978187],[77.60784039814753,20.815423203663752],[77.607959911121739,20.81581078711557],[77.607804805770314,20.815843032060386],[77.607528801169067,20.815980236376841]]]},"properties":{"FID":69,"Join_Count":2,"TARGET_FID":73,"Layer":"TEXT_PARCEL","Text":"113","vill_code":"533009","LGD_CODE":"533009"}},{"type":"Feature","id":70,"geometry":{"type":"MultiPolygon","coordinates":[[[[77.608683155461449,20.816078376360959],[77.608514169860143,20.816237077532829],[77.608182928629788,20.816322434388837],[77.607977084230129,20.816442336868022],[77.60819588500226,20.81623734298984],[77.608476905639975,20.816175414702627],[77.60865902282103,20.815941422959835],[77.608763319744867,20.815712273376789],[77.608872746353939,20.815703165009719],[77.608683155461449,20.816078376360959]]],[[[77.607817985464123,20.81650353482479],[77.607796264069862,20.816578120067337],[77.607571476391627,20.816711459955229],[77.607512364603053,20.816801285964285],[77.607397660581512,20.816887455226773],[77.607208482412886,20.816797245889177],[77.607360189216649,20.816678119264335],[77.607485917429926,20.816528035321369],[77.607557643298719,20.816488580478786],[77.607817985464123,20.81650353482479]]]]},"properties":{"FID":70,"Join_Count":1,"TARGET_FID":74,"Layer":"POLY_PARCEL","Text":"छन\u094Dस\u094Dस\u094D","vill_code":"533009","LGD_CODE":"533009"}},{"type":"Feature","id":71,"geometry":{"type":"Polygon","coordinates":[[[77.617240118397774,20.816267397107072],[77.614715875074054,20.816390829691599],[77.614403953306123,20.815729884555584],[77.617742136164381,20.815606356093578],[77.620667591644647,20.815410595806938],[77.620790360886346,20.816068249937931],[77.619585314547592,20.816121370841827],[77.617240118397774,20.816267397107072]]]},"properties":{"FID":71,"Join_Count":2,"TARGET_FID":76,"Layer":"TEXT_PARCEL","Text":"15","vill_code":"533009","LGD_CODE":"533009"}},{"type":"Feature","id":72,"geometry":{"type":"Polygon","coordinates":[[[77.59547671109874,20.816650232168467],[77.594578545952842,20.81687801161446],[77.594839647192742,20.815439523688443],[77.594867503075804,20.815204514627471],[77.59523451173628,20.815168816684938],[77.596798664674836,20.814951915359899],[77.598263428267643,20.814730310574841],[77.598473427126876,20.815865440894378],[77.597228350984949,20.816260149954392],[77.596979731757031,20.816361536269124],[77.59547671109874,20.816650232168467]]]},"properties":{"FID":72,"Join_Count":2,"TARGET_FID":77,"Layer":"TEXT_PARCEL","Text":"79","vill_code":"533009","LGD_CODE":"533009"}},{"type":"Feature","id":73,"geometry":{"type":"Polygon","coordinates":[[[77.612672888128714,20.816166721888518],[77.612993367188039,20.816852698044045],[77.61155313478946,20.8170318599926],[77.611177653106381,20.815417754395465],[77.612338654821201,20.815292598845016],[77.612672888128714,20.816166721888518]]]},"properties":{"FID":73,"Join_Count":2,"TARGET_FID":79,"Layer":"TEXT_PARCEL","Text":"21","vill_code":"533009","LGD_CODE":"533009"}},{"type":"Feature","id":74,"geometry":{"type":"MultiPolygon","coordinates":[[[[77.610194092678398,20.814642279139374],[77.610118201447335,20.814807841216691],[77.610038172028169,20.814883875414985],[77.609995108781504,20.814893681074754],[77.609926911577702,20.814623845161126],[77.610194092678398,20.814642279139374]]],[[[77.61210248898692,20.814752307034833],[77.612338654821201,20.815292598845016],[77.611177653106381,20.815417754395465],[77.61155313478946,20.8170318599926],[77.610612327586807,20.817154291539115],[77.610559912416818,20.816943827339795],[77.610176042503895,20.815586791243845],[77.610024252861535,20.815008999833935],[77.610203868397491,20.814947378282511],[77.610258758812563,20.814881424755924],[77.610384550533922,20.814655419509286],[77.61210248898692,20.814752307034833]]]]},"properties":{"FID":74,"Join_Count":2,"TARGET_FID":80,"Layer":"TEXT_PARCEL","Text":"22","vill_code":"533009","LGD_CODE":"533009"}},{"type":"Feature","id":75,"geometry":{"type":"Polygon","coordinates":[[[77.616286034353692,20.8170911447131],[77.615765541030839,20.817130692706534],[77.615610475292073,20.816846287466134],[77.614915383480692,20.816793412380012],[77.614715875074054,20.816390829691599],[77.617240118397774,20.816267397107072],[77.619585314547592,20.816121370841827],[77.620790360886346,20.816068249937931],[77.620913570143188,20.816833450059068],[77.619191381297412,20.816914003496237],[77.618169961155274,20.816778568801151],[77.617388959574285,20.816841108256966],[77.616286034353692,20.8170911447131]]]},"properties":{"FID":75,"Join_Count":2,"TARGET_FID":81,"Layer":"TEXT_PARCEL","Text":"14","vill_code":"533009","LGD_CODE":"533009"}},{"type":"Feature","id":76,"geometry":{"type":"Polygon","coordinates":[[[77.60036861520652,20.817402517176316],[77.600307474323429,20.81772499185508],[77.599131479348031,20.81768690329671],[77.598720460752801,20.817700418304412],[77.59821609665957,20.817717002780221],[77.596931291983978,20.817713415767734],[77.595244669922579,20.817688980515861],[77.59547671109874,20.816650232168467],[77.596979731757031,20.816361536269124],[77.597228350984949,20.816260149954392],[77.598473427126876,20.815865440894378],[77.600261638860673,20.815627992166515],[77.600197078185886,20.817210763645896],[77.60036861520652,20.817402517176316]]]},"properties":{"FID":76,"Join_Count":2,"TARGET_FID":82,"Layer":"TEXT_PARCEL","Text":"80","vill_code":"533009","LGD_CODE":"533009"}},{"type":"Feature","id":77,"geometry":{"type":"Polygon","coordinates":[[[77.609273286815224,20.817102430767601],[77.609050102885476,20.817674551129553],[77.607397660581469,20.816887455226684],[77.607512364602982,20.816801285964178],[77.607571476391513,20.816711459955265],[77.607796264069833,20.816578120067202],[77.607817985464081,20.816503534824705],[77.607557643298591,20.81648858047874],[77.607485917429884,20.816528035321276],[77.607360189216607,20.816678119264321],[77.607208482412858,20.816797245889077],[77.60646739585242,20.816440274848549],[77.607528801169067,20.815980236376841],[77.607804805770314,20.815843032060386],[77.607959911121739,20.81581078711557],[77.608763319744838,20.81571227337669],[77.608659022820902,20.815941422959863],[77.608476905639861,20.816175414702538],[77.608195885002289,20.816237342989726],[77.607977084230043,20.816442336868054],[77.608182928629773,20.816322434388752],[77.608514169860115,20.816237077532797],[77.608683155461335,20.816078376361013],[77.608872746353939,20.815703165009669],[77.610176042503767,20.815586791243764],[77.610559912416761,20.816943827339809],[77.609273286815224,20.817102430767601]]]},"properties":{"FID":77,"Join_Count":2,"TARGET_FID":83,"Layer":"TEXT_PARCEL","Text":"2","vill_code":"533009","LGD_CODE":"533009"}},{"type":"Feature","id":78,"geometry":{"type":"Polygon","coordinates":[[[77.60639627719263,20.81720384674793],[77.605903908189362,20.817988284467958],[77.605372869442334,20.81775749997874],[77.604961736282391,20.817548202338397],[77.604840391783213,20.81750097363911],[77.604895774753786,20.817383114624874],[77.6050990383835,20.81705188567971],[77.605311090434199,20.816717853121006],[77.60639627719263,20.81720384674793]]]},"properties":{"FID":78,"Join_Count":2,"TARGET_FID":84,"Layer":"TEXT_PARCEL","Text":"119","vill_code":"533009","LGD_CODE":"533009"}},{"type":"Feature","id":79,"geometry":{"type":"Polygon","coordinates":[[[77.614931442299493,20.817712311583318],[77.613571750069781,20.817996016785511],[77.613116574666506,20.817044411408766],[77.61299336718794,20.816852698044073],[77.6126728881286,20.81616672188844],[77.612338654821201,20.815292598845012],[77.614180780664142,20.81525637625019],[77.614403953306123,20.815729884555584],[77.614715875074054,20.816390829691599],[77.614915383480692,20.816793412380012],[77.615610475292073,20.816846287466134],[77.615765541030839,20.817130692706534],[77.615788273105295,20.817173922082759],[77.616031346951942,20.817398534002194],[77.616119605382067,20.817526365432155],[77.614931442299493,20.817712311583318]]]},"properties":{"FID":79,"Join_Count":2,"TARGET_FID":85,"Layer":"TEXT_PARCEL","Text":"20","vill_code":"533009","LGD_CODE":"533009"}},{"type":"Feature","id":80,"geometry":{"type":"Polygon","coordinates":[[[77.610689289076845,20.817480723031885],[77.610818157442012,20.81831046854801],[77.610064033595052,20.8180900289919],[77.609050102885476,20.817674551129553],[77.609273286815224,20.817102430767601],[77.610559912416761,20.816943827339809],[77.610612327586693,20.817154291539136],[77.610689289076845,20.817480723031885]]]},"properties":{"FID":80,"Join_Count":2,"TARGET_FID":86,"Layer":"TEXT_PARCEL","Text":"3","vill_code":"533009","LGD_CODE":"533009"}},{"type":"Feature","id":81,"geometry":{"type":"Polygon","coordinates":[[[77.600307474323429,20.81772499185508],[77.600289686814378,20.818664693704225],[77.598656882078814,20.818518377863789],[77.598648834394169,20.818348588711842],[77.598720460752801,20.817700418304412],[77.599131479348031,20.81768690329671],[77.600307474323429,20.81772499185508]]]},"properties":{"FID":81,"Join_Count":2,"TARGET_FID":87,"Layer":"TEXT_PARCEL","Text":"82","vill_code":"533009","LGD_CODE":"533009"}},{"type":"Feature","id":82,"geometry":{"type":"Polygon","coordinates":[[[77.623358538726052,20.817667694919589],[77.62334971401593,20.818382954006921],[77.621324123900365,20.818274324175452],[77.621014511884155,20.817114919730216],[77.620913570143188,20.816833450059068],[77.620790360886346,20.816068249937931],[77.620667591644647,20.815410595806938],[77.620483043736883,20.814411590587358],[77.623062028118824,20.814579160327266],[77.623194243648186,20.814572260076108],[77.623259439807455,20.815205252419709],[77.623316338023074,20.816333466851752],[77.623358538726052,20.817667694919589]]]},"properties":{"FID":82,"Join_Count":2,"TARGET_FID":88,"Layer":"TEXT_PARCEL","Text":"16","vill_code":"533009","LGD_CODE":"533009"}},{"type":"Feature","id":83,"geometry":{"type":"Polygon","coordinates":[[[77.595244669922579,20.817688980515861],[77.595019780794303,20.818827341559366],[77.594558844241334,20.818742026176352],[77.594573921469404,20.818303099463762],[77.594578545952842,20.81687801161446],[77.59547671109874,20.816650232168467],[77.595244669922579,20.817688980515861]]]},"properties":{"FID":83,"Join_Count":2,"TARGET_FID":89,"Layer":"TEXT_PARCEL","Text":"78","vill_code":"533009","LGD_CODE":"533009"}},{"type":"Feature","id":84,"geometry":{"type":"Polygon","coordinates":[[[77.604397310696328,20.818249594187197],[77.604145511556027,20.81869055884103],[77.603563588476277,20.818258215188997],[77.603740545712427,20.817725626461062],[77.603592653903448,20.81702996461512],[77.603133443830231,20.816722113477347],[77.603058338308784,20.816202520432139],[77.6028907720776,20.815623612867707],[77.602986062780218,20.815675064426422],[77.604795922845994,20.816482656413296],[77.60470367317393,20.817022338766321],[77.60447683746608,20.818069776389521],[77.604397310696328,20.818249594187197]]]},"properties":{"FID":84,"Join_Count":2,"TARGET_FID":90,"Layer":"TEXT_PARCEL","Text":"109","vill_code":"533009","LGD_CODE":"533009"}},{"type":"Feature","id":85,"geometry":{"type":"Polygon","coordinates":[[[77.613803220817132,20.818936895919073],[77.613855097581904,20.819206602759369],[77.610818157442012,20.81831046854801],[77.610689289076845,20.817480723031885],[77.610612327586693,20.817154291539136],[77.611553134789318,20.817031859992611],[77.61299336718794,20.816852698044073],[77.613116574666506,20.817044411408766],[77.613571750069781,20.817996016785511],[77.613803220817132,20.818936895919073]]]},"properties":{"FID":85,"Join_Count":2,"TARGET_FID":91,"Layer":"TEXT_PARCEL","Text":"4","vill_code":"533009","LGD_CODE":"533009"}},{"type":"Feature","id":86,"geometry":{"type":"Polygon","coordinates":[[[77.604145511556027,20.81869055884103],[77.60395393338726,20.819568215967767],[77.603014777271866,20.819395254186563],[77.602958875287911,20.819009413316945],[77.600289686814378,20.818664693704225],[77.600307474323429,20.81772499185508],[77.60036861520652,20.817402517176316],[77.600197078185886,20.817210763645896],[77.600261638860673,20.815627992166515],[77.602292428072033,20.815310847775262],[77.60240156694698,20.815359473748455],[77.6028907720776,20.815623612867707],[77.603058338308784,20.816202520432139],[77.603133443830231,20.816722113477347],[77.603592653903448,20.81702996461512],[77.603740545712427,20.817725626461062],[77.603563588476277,20.818258215188997],[77.604145511556027,20.81869055884103]]]},"properties":{"FID":86,"Join_Count":2,"TARGET_FID":92,"Layer":"TEXT_PARCEL","Text":"83","vill_code":"533009","LGD_CODE":"533009"}},{"type":"Feature","id":87,"geometry":{"type":"Polygon","coordinates":[[[77.598251059844429,20.819206944575718],[77.59817997087157,20.820090544002284],[77.597357905257596,20.819683138588097],[77.595019780794303,20.818827341559366],[77.595244669922579,20.817688980515861],[77.596931291983978,20.817713415767734],[77.59821609665957,20.817717002780221],[77.598720460752801,20.817700418304412],[77.598648834394169,20.818348588711842],[77.598656882078814,20.818518377863789],[77.598251059844429,20.819206944575718]]]},"properties":{"FID":87,"Join_Count":2,"TARGET_FID":93,"Layer":"TEXT_PARCEL","Text":"81","vill_code":"533009","LGD_CODE":"533009"}},{"type":"Feature","id":88,"geometry":{"type":"Polygon","coordinates":[[[77.610851145594097,20.819860086041196],[77.609846803936989,20.819972987183665],[77.609740721622174,20.819377001107043],[77.609649908379268,20.819364740021928],[77.608456739782298,20.819599163380627],[77.608229899237074,20.819623313449029],[77.608271278812111,20.819463515768351],[77.608336154035982,20.818693401080875],[77.608325400586594,20.818156939124218],[77.608288462936585,20.817964704078889],[77.611743691680999,20.819014287524041],[77.611714531115851,20.819669124317389],[77.610851145594097,20.819860086041196]]]},"properties":{"FID":88,"Join_Count":2,"TARGET_FID":94,"Layer":"TEXT_PARCEL","Text":"106","vill_code":"533009","LGD_CODE":"533009"}},{"type":"Feature","id":89,"geometry":{"type":"Polygon","coordinates":[[[77.61673687890233,20.81850832930731],[77.616934811150131,20.82008114372486],[77.613855097581904,20.819206602759369],[77.613803220817132,20.818936895919073],[77.613571750069781,20.817996016785511],[77.614931442299493,20.817712311583318],[77.616119605382067,20.817526365432155],[77.616593797912202,20.817657471518341],[77.61673687890233,20.81850832930731]]]},"properties":{"FID":89,"Join_Count":2,"TARGET_FID":95,"Layer":"TEXT_PARCEL","Text":"5","vill_code":"533009","LGD_CODE":"533009"}},{"type":"Feature","id":90,"geometry":{"type":"Polygon","coordinates":[[[77.618307163970968,20.819540275451704],[77.617317105405007,20.820174967874784],[77.616934811150131,20.82008114372486],[77.61673687890233,20.81850832930731],[77.616593797912202,20.817657471518341],[77.617677656110843,20.817990154083276],[77.618325624951538,20.818400637337909],[77.61833606853078,20.818808738538408],[77.618307163970968,20.819540275451704]]]},"properties":{"FID":90,"Join_Count":2,"TARGET_FID":96,"Layer":"TEXT_PARCEL","Text":"6","vill_code":"533009","LGD_CODE":"533009"}},{"type":"Feature","id":91,"geometry":{"type":"Polygon","coordinates":[[[77.607086993540747,20.820562391806217],[77.606343956365677,20.820659139257799],[77.60533046599204,20.820664967361534],[77.605209222990894,20.820665610198404],[77.60539199011896,20.82051894689851],[77.605827153672493,20.820185028156299],[77.606089172877162,20.819674463479991],[77.606853563510484,20.81821597891992],[77.607018918501637,20.817801474230372],[77.607158077925732,20.817543123929539],[77.607738970765681,20.817757644226337],[77.608288462936585,20.817964704078889],[77.608325400586594,20.818156939124218],[77.608336154035982,20.818693401080875],[77.608271278812111,20.819463515768351],[77.608229899237074,20.819623313449029],[77.608192697610434,20.819945536972991],[77.607804794241332,20.820547997795579],[77.607086993540747,20.820562391806217]]]},"properties":{"FID":91,"Join_Count":3,"TARGET_FID":97,"Layer":"TEXT_PARCEL","Text":"107","vill_code":"533009","LGD_CODE":"533009"}},{"type":"Feature","id":92,"geometry":{"type":"Polygon","coordinates":[[[77.604203344606347,20.820976386974458],[77.603599047534075,20.821108248725796],[77.603498973976514,20.821092350199287],[77.60395393338726,20.819568215967767],[77.604145511556027,20.81869055884103],[77.604397310696328,20.818249594187197],[77.60447683746608,20.818069776389521],[77.60470367317393,20.817022338766321],[77.604795922845994,20.816482656413296],[77.605311090434199,20.816717853121006],[77.6050990383835,20.81705188567971],[77.604895774753786,20.817383114624874],[77.604840391783213,20.81750097363911],[77.604961736282391,20.817548202338397],[77.605372869442334,20.81775749997874],[77.605903908189362,20.817988284467958],[77.60639627719263,20.81720384674793],[77.607061653486511,20.817501710552701],[77.607158077925732,20.817543123929539],[77.607018918501637,20.817801474230372],[77.606853563510484,20.81821597891992],[77.606089172877162,20.819674463479991],[77.605827153672493,20.820185028156299],[77.60539199011896,20.82051894689851],[77.605209222990894,20.820665610198404],[77.605152525533413,20.820689615887702],[77.604357932157569,20.820940640431292],[77.604203344606347,20.820976386974458]]]},"properties":{"FID":92,"Join_Count":2,"TARGET_FID":98,"Layer":"TEXT_PARCEL","Text":"108","vill_code":"533009","LGD_CODE":"533009"}},{"type":"Feature","id":93,"geometry":{"type":"Polygon","coordinates":[[[77.620153343457147,20.819550614048104],[77.620296681531002,20.820967325840154],[77.618089867269305,20.820364618458701],[77.617317105405007,20.820174967874784],[77.618307163970968,20.819540275451704],[77.61833606853078,20.818808738538408],[77.618325624951538,20.818400637337909],[77.617677656110843,20.817990154083276],[77.616593797912202,20.817657471518341],[77.616119605382067,20.817526365432155],[77.616031346951942,20.817398534002194],[77.615788273105295,20.817173922082759],[77.615765541030839,20.817130692706534],[77.616286034353692,20.8170911447131],[77.617388959574285,20.816841108256966],[77.618169961155274,20.816778568801151],[77.619191381297412,20.816914003496237],[77.619240303027453,20.817092080711848],[77.619734274418974,20.819387335300732],[77.620122742507519,20.819406990669901],[77.620153343457147,20.819550614048104]]]},"properties":{"FID":93,"Join_Count":2,"TARGET_FID":99,"Layer":"TEXT_PARCEL","Text":"13","vill_code":"533009","LGD_CODE":"533009"}},{"type":"Feature","id":94,"geometry":{"type":"Polygon","coordinates":[[[77.621616958025285,20.821018764505123],[77.6216287821441,20.821351050038629],[77.620296681531002,20.820967325840154],[77.620153343457147,20.819550614048104],[77.620122742507519,20.819406990669901],[77.619734274418974,20.819387335300732],[77.619240303027453,20.817092080711848],[77.619191381297412,20.816914003496237],[77.620913570143188,20.816833450059068],[77.621014511884155,20.817114919730216],[77.621324123900365,20.818274324175452],[77.621440559774555,20.819374776883656],[77.621442945517444,20.819508455803732],[77.621496693666501,20.819757439293465],[77.621501623471204,20.820033709650613],[77.621616958025285,20.821018764505123]]]},"properties":{"FID":94,"Join_Count":2,"TARGET_FID":100,"Layer":"TEXT_PARCEL","Text":"12","vill_code":"533009","LGD_CODE":"533009"}},{"type":"Feature","id":95,"geometry":{"type":"Polygon","coordinates":[[[77.615107105888086,20.82135811270058],[77.613925952642845,20.821549813621353],[77.613885890334458,20.821361967464444],[77.613508866712834,20.820177017280763],[77.61370267591289,20.820118913048479],[77.614269858044992,20.820019850921483],[77.614910225287289,20.820857183950341],[77.615078871356246,20.821313754717774],[77.615107105888086,20.82135811270058]]]},"properties":{"FID":95,"Join_Count":2,"TARGET_FID":101,"Layer":"TEXT_PARCEL","Text":"102","vill_code":"533009","LGD_CODE":"533009"}},{"type":"Feature","id":96,"geometry":{"type":"Polygon","coordinates":[[[77.602965412125897,20.821795558670185],[77.60288763149822,20.82193915656968],[77.598389153598575,20.820194210976123],[77.59817997087157,20.820090544002284],[77.598251059844429,20.819206944575718],[77.598656882078814,20.818518377863789],[77.600289686814378,20.818664693704225],[77.602958875287911,20.819009413316945],[77.603014777271866,20.819395254186563],[77.60395393338726,20.819568215967767],[77.603498973976514,20.821092350199287],[77.603243694483595,20.821030549143799],[77.602965412125897,20.821795558670185]]]},"properties":{"FID":96,"Join_Count":2,"TARGET_FID":102,"Layer":"TEXT_PARCEL","Text":"84","vill_code":"533009","LGD_CODE":"533009"}},{"type":"Feature","id":97,"geometry":{"type":"Polygon","coordinates":[[[77.623213203851407,20.820438324761536],[77.623149131329399,20.821790342775536],[77.6216287821441,20.821351050038629],[77.621616958025285,20.821018764505123],[77.621501623471204,20.820033709650613],[77.621496693666501,20.819757439293465],[77.621442945517444,20.819508455803732],[77.621440559774555,20.819374776883656],[77.621324123900365,20.818274324175452],[77.62334971401593,20.818382954006921],[77.623213203851407,20.820438324761536]]]},"properties":{"FID":97,"Join_Count":2,"TARGET_FID":103,"Layer":"TEXT_PARCEL","Text":"11","vill_code":"533009","LGD_CODE":"533009"}},{"type":"Feature","id":98,"geometry":{"type":"Polygon","coordinates":[[[77.611931610119328,20.821966211761488],[77.6110574740011,20.822100475400664],[77.61093130848765,20.821040062009448],[77.610851145594097,20.819860086041196],[77.611714531115851,20.819669124317389],[77.611743691680999,20.819014287524041],[77.61320491889694,20.819436292459393],[77.61390355619001,20.819657606964473],[77.614269858044992,20.820019850921483],[77.61370267591289,20.820118913048479],[77.613508866712834,20.820177017280763],[77.613885890334458,20.821361967464444],[77.613925952642845,20.821549813621353],[77.611931610119328,20.821966211761488]]]},"properties":{"FID":98,"Join_Count":2,"TARGET_FID":104,"Layer":"TEXT_PARCEL","Text":"103","vill_code":"533009","LGD_CODE":"533009"}},{"type":"Feature","id":99,"geometry":{"type":"Polygon","coordinates":[[[77.608604894803563,20.822839904049996],[77.60762865074814,20.822881706842299],[77.607583499163908,20.822683152927098],[77.607324563928884,20.822579864386519],[77.606448913253473,20.822770941019392],[77.606289106288344,20.822830853315509],[77.607354797332562,20.821396552966796],[77.607804794241332,20.820547997795579],[77.608192697610434,20.819945536972991],[77.608229899237074,20.819623313449029],[77.608456739782298,20.819599163380627],[77.609649908379268,20.819364740021928],[77.609740721622174,20.819377001107043],[77.609846803936989,20.819972987183665],[77.610851145594097,20.819860086041196],[77.61093130848765,20.821040062009448],[77.610044282971643,20.821165122050843],[77.610008178525632,20.82133803792367],[77.609812847027655,20.821782552850543],[77.609584207816141,20.822006264981184],[77.609066615380598,20.822228763623926],[77.60887228746121,20.8224859801077],[77.608604894803563,20.822839904049996]]]},"properties":{"FID":99,"Join_Count":2,"TARGET_FID":105,"Layer":"TEXT_PARCEL","Text":"105","vill_code":"533009","LGD_CODE":"533009"}},{"type":"Feature","id":100,"geometry":{"type":"Polygon","coordinates":[[[77.618447388244292,20.822636977616721],[77.61657071911479,20.823243457087276],[77.616235743498194,20.822792453334863],[77.615801423305555,20.82230138823223],[77.615203123582035,20.821288023958051],[77.615045588599244,20.820838224155381],[77.614978225615545,20.820689800196917],[77.614430212632413,20.81997341863373],[77.614206082718596,20.819720641098002],[77.61592213330421,20.820209507762915],[77.617689525115793,20.820691142356022],[77.618042388770277,20.820797006366984],[77.618447388244292,20.822636977616721]]]},"properties":{"FID":100,"Join_Count":2,"TARGET_FID":106,"Layer":"TEXT_PARCEL","Text":"7","vill_code":"533009","LGD_CODE":"533009"}},{"type":"Feature","id":101,"geometry":{"type":"Polygon","coordinates":[[[77.605781120349462,20.823434475819319],[77.605516629165493,20.823702722352159],[77.605472489584614,20.823597731357093],[77.605642690560558,20.823055634360124],[77.605568105604618,20.821992074511371],[77.605465374450148,20.821932822460926],[77.605450877865437,20.821822266655257],[77.605204138514154,20.821653894569639],[77.605004074754092,20.821199181360878],[77.604961756985745,20.821102998909957],[77.605152525533413,20.820689615887702],[77.605209222990894,20.820665610198404],[77.60533046599204,20.820664967361534],[77.606343956365677,20.820659139257799],[77.607086993540747,20.820562391806217],[77.607804794241332,20.820547997795579],[77.607354797332562,20.821396552966796],[77.606289106288344,20.822830853315509],[77.605781120349462,20.823434475819319]]]},"properties":{"FID":101,"Join_Count":2,"TARGET_FID":107,"Layer":"TEXT_PARCEL","Text":"94","vill_code":"533009","LGD_CODE":"533009"}},{"type":"Feature","id":102,"geometry":{"type":"Polygon","coordinates":[[[77.605233843574041,20.82368690338857],[77.60524312121531,20.82377497917907],[77.605076387150206,20.82377725116342],[77.604989028110296,20.823773172265561],[77.604310844889824,20.823763814514859],[77.603915834512307,20.823732535662725],[77.603195778116316,20.823722684048171],[77.602978395978425,20.823698350046122],[77.602372422570156,20.823682414054197],[77.602218269564048,20.823653282178714],[77.60288763149822,20.82193915656968],[77.602965412125897,20.821795558670185],[77.603243694483595,20.821030549143799],[77.603498973976514,20.821092350199287],[77.603599047534075,20.821108248725796],[77.604203344606347,20.820976386974458],[77.604357932157569,20.820940640431292],[77.604152344166693,20.822586509978194],[77.60449057358295,20.823279773171841],[77.604598334649765,20.823456777095267],[77.605233843574041,20.82368690338857]]]},"properties":{"FID":102,"Join_Count":2,"TARGET_FID":108,"Layer":"TEXT_PARCEL","Text":"92","vill_code":"533009","LGD_CODE":"533009"}},{"type":"Feature","id":103,"geometry":{"type":"Polygon","coordinates":[[[77.60538791929595,20.823752882035901],[77.60524312121531,20.82377497917907],[77.605233843574041,20.82368690338857],[77.604598334649765,20.823456777095267],[77.60449057358295,20.823279773171841],[77.604152344166693,20.822586509978194],[77.604357932157569,20.820940640431292],[77.605152525533413,20.820689615887702],[77.604961756985745,20.821102998909957],[77.605004074754092,20.821199181360878],[77.605204138514154,20.821653894569639],[77.605450877865437,20.821822266655257],[77.605465374450148,20.821932822460926],[77.605568105604618,20.821992074511371],[77.605642690560558,20.823055634360124],[77.605472489584614,20.823597731357093],[77.605516629165493,20.823702722352159],[77.60538791929595,20.823752882035901]]]},"properties":{"FID":103,"Join_Count":2,"TARGET_FID":109,"Layer":"TEXT_PARCEL","Text":"93","vill_code":"533009","LGD_CODE":"533009"}},{"type":"Feature","id":104,"geometry":{"type":"Polygon","coordinates":[[[77.601775519554266,20.823922249437718],[77.600952243049761,20.823953810269337],[77.599642176297763,20.823567360453797],[77.598842621789998,20.823133562812416],[77.598321992996347,20.823017902145281],[77.597665280021332,20.820851776296195],[77.597357905257596,20.819683138588097],[77.59817997087157,20.820090544002284],[77.598389153598575,20.820194210976123],[77.60288763149822,20.82193915656968],[77.602218269564048,20.823653282178714],[77.601775519554266,20.823922249437718]]]},"properties":{"FID":104,"Join_Count":2,"TARGET_FID":110,"Layer":"TEXT_PARCEL","Text":"85","vill_code":"533009","LGD_CODE":"533009"}},{"type":"Feature","id":105,"geometry":{"type":"Polygon","coordinates":[[[77.623248655804503,20.823143849926709],[77.621217384422181,20.823792142585582],[77.620888380453124,20.822593943587631],[77.620543967645986,20.821539292053984],[77.623132060992489,20.822275275448465],[77.623248655804503,20.823143849926709]]]},"properties":{"FID":105,"Join_Count":2,"TARGET_FID":111,"Layer":"TEXT_PARCEL","Text":"10","vill_code":"533009","LGD_CODE":"533009"}},{"type":"Feature","id":106,"geometry":{"type":"Polygon","coordinates":[[[77.620307340043624,20.824030020983258],[77.620193790828665,20.824068307926854],[77.619788960655612,20.822843503454227],[77.619708004170576,20.822689779534521],[77.619259085994656,20.82242552534866],[77.619149004139601,20.822128161312545],[77.618447388244292,20.822636977616721],[77.618042388770277,20.820797006366984],[77.620543967645986,20.821539292053984],[77.620888380453124,20.822593943587631],[77.621217384422181,20.823792142585582],[77.620307340043624,20.824030020983258]]]},"properties":{"FID":106,"Join_Count":2,"TARGET_FID":112,"Layer":"TEXT_PARCEL","Text":"9","vill_code":"533009","LGD_CODE":"533009"}},{"type":"Feature","id":107,"geometry":{"type":"Polygon","coordinates":[[[77.606220550072265,20.824546147482735],[77.60582844814283,20.824615686201614],[77.605682075458219,20.82434369166026],[77.60538791929595,20.823752882035901],[77.605516629165493,20.823702722352159],[77.605781120349462,20.823434475819319],[77.606289106288344,20.822830853315509],[77.606448913253473,20.822770941019392],[77.607324563928884,20.822579864386519],[77.607583499163908,20.822683152927098],[77.60762865074814,20.822881706842299],[77.608604894803563,20.822839904049996],[77.60887228746121,20.8224859801077],[77.609080485423405,20.82249108160811],[77.609248296483273,20.823778827227791],[77.608280780982994,20.824079644834704],[77.606220550072265,20.824546147482735]]]},"properties":{"FID":107,"Join_Count":2,"TARGET_FID":113,"Layer":"TEXT_PARCEL","Text":"95","vill_code":"533009","LGD_CODE":"533009"}},{"type":"Feature","id":108,"geometry":{"type":"Polygon","coordinates":[[[77.610524402096132,20.82443075836639],[77.609588941249058,20.824736622434216],[77.609551996148269,20.824604713110002],[77.609248296483273,20.823778827227791],[77.609080485423405,20.82249108160811],[77.60887228746121,20.8224859801077],[77.609066615380598,20.822228763623926],[77.609584207816141,20.822006264981184],[77.609812847027655,20.821782552850543],[77.610008178525632,20.82133803792367],[77.610044282971643,20.821165122050843],[77.61093130848765,20.821040062009448],[77.6110574740011,20.822100475400664],[77.611931610119328,20.821966211761488],[77.611875285377209,20.822209273693598],[77.611670362780472,20.822803654405899],[77.611672126203757,20.824092276576955],[77.610524402096132,20.82443075836639]]]},"properties":{"FID":108,"Join_Count":2,"TARGET_FID":114,"Layer":"TEXT_PARCEL","Text":"104","vill_code":"533009","LGD_CODE":"533009"}},{"type":"Feature","id":109,"geometry":{"type":"Polygon","coordinates":[[[77.605682075458219,20.82434369166026],[77.601873267053421,20.82487236888467],[77.601775519554266,20.823922249437718],[77.602218269564048,20.823653282178714],[77.602372422570156,20.823682414054197],[77.602978395978425,20.823698350046122],[77.603195778116316,20.823722684048171],[77.603915834512307,20.823732535662725],[77.604310844889824,20.823763814514859],[77.604989028110296,20.823773172265561],[77.605076387150206,20.82377725116342],[77.60524312121531,20.82377497917907],[77.60538791929595,20.823752882035901],[77.605682075458219,20.82434369166026]]]},"properties":{"FID":109,"Join_Count":2,"TARGET_FID":115,"Layer":"TEXT_PARCEL","Text":"91","vill_code":"533009","LGD_CODE":"533009"}},{"type":"Feature","id":110,"geometry":{"type":"Polygon","coordinates":[[[77.620193790828665,20.824068307926854],[77.618236381881459,20.824770305216266],[77.618074459565719,20.824715822263098],[77.617788006184327,20.824573291632628],[77.617609934534116,20.824474484611102],[77.617299283426291,20.824199761011467],[77.617187720795542,20.824076021950368],[77.61657071911479,20.823243457087276],[77.618447388244292,20.822636977616721],[77.619149004139601,20.822128161312545],[77.619259085994656,20.82242552534866],[77.619708004170576,20.822689779534521],[77.619788960655612,20.822843503454227],[77.620193790828665,20.824068307926854]]]},"properties":{"FID":110,"Join_Count":2,"TARGET_FID":116,"Layer":"TEXT_PARCEL","Text":"8","vill_code":"533009","LGD_CODE":"533009"}},{"type":"Feature","id":111,"geometry":{"type":"Polygon","coordinates":[[[77.599772104901163,20.825089481903401],[77.598988913083232,20.825130174855339],[77.598321992996347,20.823017902145281],[77.598842621789998,20.823133562812416],[77.599642176297763,20.823567360453797],[77.600952243049761,20.823953810269337],[77.601775519554266,20.823922249437718],[77.601873267053421,20.82487236888467],[77.599772104901163,20.825089481903401]]]},"properties":{"FID":111,"Join_Count":2,"TARGET_FID":117,"Layer":"TEXT_PARCEL","Text":"86","vill_code":"533009","LGD_CODE":"533009"}},{"type":"Feature","id":112,"geometry":{"type":"Polygon","coordinates":[[[77.618236381881459,20.824770305216266],[77.618054345698525,20.82486862237295],[77.617912776814265,20.824770224798474],[77.617522548454914,20.824580285175937],[77.617104904062487,20.824189782665773],[77.616091052747706,20.822859976042214],[77.615751381061173,20.822422005411052],[77.615107105888086,20.82135811270058],[77.615078871356246,20.821313754717774],[77.614910225287289,20.820857183950341],[77.614269858044992,20.820019850921483],[77.61390355619001,20.819657606964473],[77.614206082718596,20.819720641098002],[77.614430212632413,20.81997341863373],[77.614978225615545,20.820689800196917],[77.615045588599244,20.820838224155381],[77.615203123582035,20.821288023958051],[77.615801423305555,20.82230138823223],[77.616235743498194,20.822792453334863],[77.61657071911479,20.823243457087276],[77.617187720795542,20.824076021950368],[77.617299283426291,20.824199761011467],[77.617609934534116,20.824474484611102],[77.617788006184327,20.824573291632628],[77.618074459565719,20.824715822263098],[77.618236381881459,20.824770305216266]]]},"properties":{"FID":112,"Join_Count":1,"TARGET_FID":118,"Layer":"POLY_PARCEL","Text":"छन\u094Dस\u094Dस\u094D","vill_code":"533009","LGD_CODE":"533009"}},{"type":"Feature","id":113,"geometry":{"type":"Polygon","coordinates":[[[77.615377442361918,20.824803711728972],[77.614812345551172,20.824972877183413],[77.614477529697808,20.823454208575203],[77.614399112862642,20.823225764245674],[77.614801791209061,20.823129550199976],[77.616091052747706,20.822859976042214],[77.617104904062487,20.824189782665773],[77.615377442361918,20.824803711728972]]]},"properties":{"FID":113,"Join_Count":2,"TARGET_FID":119,"Layer":"TEXT_PARCEL","Text":"100","vill_code":"533009","LGD_CODE":"533009"}},{"type":"Feature","id":114,"geometry":{"type":"Polygon","coordinates":[[[77.614812345551172,20.824972877183413],[77.612447765111497,20.825651048240367],[77.611902022806973,20.824483363139208],[77.611672126203757,20.824092276576955],[77.611670362780472,20.822803654405899],[77.611875285377209,20.822209273693598],[77.611931610119328,20.821966211761488],[77.613925952642845,20.821549813621353],[77.615107105888086,20.82135811270058],[77.615751381061173,20.822422005411052],[77.616091052747706,20.822859976042214],[77.614801791209061,20.823129550199976],[77.614399112862642,20.823225764245674],[77.614477529697808,20.823454208575203],[77.614812345551172,20.824972877183413]]]},"properties":{"FID":114,"Join_Count":2,"TARGET_FID":120,"Layer":"TEXT_PARCEL","Text":"101","vill_code":"533009","LGD_CODE":"533009"}},{"type":"Feature","id":115,"geometry":{"type":"Polygon","coordinates":[[[77.603616738535521,20.826329772482389],[77.601997063622861,20.826606203387957],[77.601873267053421,20.82487236888467],[77.605682075458219,20.82434369166026],[77.60582844814283,20.824615686201614],[77.605950677090377,20.825032054584685],[77.605992840376217,20.825309134651441],[77.6060902894869,20.825678383786908],[77.606102047710152,20.82578521968626],[77.606143700915666,20.825909550906843],[77.606137601290058,20.825962914549205],[77.606006615167445,20.825964554377403],[77.60486448345091,20.826066357906697],[77.604608291843235,20.826078111456955],[77.604372136088941,20.82610747044955],[77.603616738535521,20.826329772482389]]]},"properties":{"FID":115,"Join_Count":2,"TARGET_FID":121,"Layer":"TEXT_PARCEL","Text":"90","vill_code":"533009","LGD_CODE":"533009"}},{"type":"Feature","id":116,"geometry":{"type":"Polygon","coordinates":[[[77.614331372735379,20.826450694436069],[77.612732007368393,20.826873502044986],[77.612713927219119,20.826720144342907],[77.612525164158299,20.825880348766486],[77.612447765111497,20.825651048240367],[77.614812345551172,20.824972877183413],[77.615377442361918,20.824803711728972],[77.617104904062487,20.824189782665773],[77.617522548454914,20.824580285175937],[77.617912776814265,20.824770224798474],[77.618054345698525,20.82486862237295],[77.616520751908283,20.82564937036204],[77.615126332410242,20.826196143546788],[77.614331372735379,20.826450694436069]]]},"properties":{"FID":116,"Join_Count":2,"TARGET_FID":122,"Layer":"TEXT_PARCEL","Text":"99","vill_code":"533009","LGD_CODE":"533009"}},{"type":"Feature","id":117,"geometry":{"type":"Polygon","coordinates":[[[77.612732007368393,20.826873502044986],[77.611159868737104,20.827290505575974],[77.610684281098486,20.825496464314632],[77.610524402096132,20.82443075836639],[77.611672126203757,20.824092276576955],[77.611902022806973,20.824483363139208],[77.612447765111497,20.825651048240367],[77.612525164158299,20.825880348766486],[77.612713927219119,20.826720144342907],[77.612732007368393,20.826873502044986]]]},"properties":{"FID":117,"Join_Count":2,"TARGET_FID":123,"Layer":"TEXT_PARCEL","Text":"98","vill_code":"533009","LGD_CODE":"533009"}},{"type":"Feature","id":118,"geometry":{"type":"Polygon","coordinates":[[[77.608702766366306,20.825476871841264],[77.609085728199105,20.827892279725631],[77.607127079326304,20.827815718344329],[77.60708970014241,20.827821829182955],[77.606137601290058,20.825962914549205],[77.606143700915666,20.825909550906843],[77.606102047710152,20.82578521968626],[77.6060902894869,20.825678383786908],[77.605992840376217,20.825309134651441],[77.605950677090377,20.825032054584685],[77.60582844814283,20.824615686201614],[77.606220550072265,20.824546147482735],[77.608280780982994,20.824079644834704],[77.609248296483273,20.823778827227791],[77.609551996148269,20.824604713110002],[77.609588941249058,20.824736622434216],[77.60881018551737,20.825355082571193],[77.608702766366306,20.825476871841264]]]},"properties":{"FID":118,"Join_Count":2,"TARGET_FID":124,"Layer":"TEXT_PARCEL","Text":"96","vill_code":"533009","LGD_CODE":"533009"}},{"type":"Feature","id":119,"geometry":{"type":"Polygon","coordinates":[[[77.611159868737104,20.827290505575974],[77.60912078019652,20.827893181351456],[77.609085728199105,20.827892279725631],[77.608702766366306,20.825476871841264],[77.60881018551737,20.825355082571193],[77.609588941249058,20.824736622434216],[77.610524402096132,20.82443075836639],[77.610684281098486,20.825496464314632],[77.611159868737104,20.827290505575974]]]},"properties":{"FID":119,"Join_Count":2,"TARGET_FID":125,"Layer":"TEXT_PARCEL","Text":"97","vill_code":"533009","LGD_CODE":"533009"}},{"type":"Feature","id":120,"geometry":{"type":"Polygon","coordinates":[[[77.60708970014241,20.827821829182955],[77.604014676932465,20.828319876497059],[77.603975300214614,20.82819770227232],[77.6039421645781,20.827997508173407],[77.603758822320003,20.827112614919884],[77.603616738535521,20.826329772482389],[77.604372136088941,20.82610747044955],[77.604608291843235,20.826078111456955],[77.60486448345091,20.826066357906697],[77.606006615167445,20.825964554377403],[77.606137601290058,20.825962914549205],[77.60708970014241,20.827821829182955]]]},"properties":{"FID":120,"Join_Count":2,"TARGET_FID":126,"Layer":"TEXT_PARCEL","Text":"89","vill_code":"533009","LGD_CODE":"533009"}},{"type":"Feature","id":121,"geometry":{"type":"Polygon","coordinates":[[[77.60371513091431,20.828361172272363],[77.602421780510198,20.828531920654843],[77.601997063622861,20.826606203387957],[77.603616738535521,20.826329772482389],[77.603758822320003,20.827112614919884],[77.6039421645781,20.827997508173407],[77.603975300214614,20.82819770227232],[77.604014676932465,20.828319876497059],[77.60371513091431,20.828361172272363]]]},"properties":{"FID":121,"Join_Count":2,"TARGET_FID":127,"Layer":"TEXT_PARCEL","Text":"88","vill_code":"533009","LGD_CODE":"533009"}},{"type":"Feature","id":122,"geometry":{"type":"Polygon","coordinates":[[[77.602421780510198,20.828531920654843],[77.60111689880668,20.828639330369672],[77.600331834092046,20.828624774191873],[77.599871617376564,20.827338307895069],[77.598988913083232,20.825130174855339],[77.599772104901163,20.825089481903401],[77.601873267053421,20.82487236888467],[77.601997063622861,20.826606203387957],[77.602421780510198,20.828531920654843]]]},"properties":{"FID":122,"Join_Count":2,"TARGET_FID":128,"Layer":"TEXT_PARCEL","Text":"87","vill_code":"533009","LGD_CODE":"533009"}},{"type":"Feature","id":123,"geometry":{"type":"Polygon","coordinates":[[[77.595503453084916,20.806351827043791],[77.595605253275707,20.808361753783686],[77.59447203926392,20.808359709931722],[77.593150577966,20.808307993608938],[77.593087134240363,20.807003847460695],[77.592671356113982,20.804790514309193],[77.593306408826606,20.804537830540784],[77.595294616706525,20.804217120221836],[77.595503453084916,20.806351827043791]]]},"properties":{"FID":123,"Join_Count":2,"TARGET_FID":159,"Layer":"TEXT_PARCEL","Text":"67","vill_code":"533009","LGD_CODE":"533009"}},{"type":"Feature","id":124,"geometry":{"type":"Polygon","coordinates":[[[77.599087218914249,20.809442274417727],[77.599225264006662,20.810709496110437],[77.59798504120198,20.810534841120649],[77.596880613253902,20.810184508822772],[77.595115726272738,20.809839416244419],[77.59349012756573,20.809466426056566],[77.592931200313302,20.809496335757011],[77.593150577966,20.808307993608938],[77.59447203926392,20.808359709931722],[77.595605253275707,20.808361753783686],[77.597595566090845,20.808214972471674],[77.598972381146552,20.808182878722768],[77.599087218914249,20.809442274417727]]]},"properties":{"FID":124,"Join_Count":2,"TARGET_FID":160,"Layer":"TEXT_PARCEL","Text":"68","vill_code":"533009","LGD_CODE":"533009"}},{"type":"Feature","id":125,"geometry":{"type":"Polygon","coordinates":[[[77.595115726272738,20.809839416244419],[77.596880613253902,20.810184508822772],[77.59798504120198,20.810534841120649],[77.599225264006662,20.810709496110437],[77.599259912100493,20.810833574244423],[77.597973355500841,20.81065103006544],[77.596909545643129,20.810309808248711],[77.596652458750199,20.810263892823851],[77.595746829997154,20.81007178299048],[77.595465306332429,20.809999063394745],[77.593495274930163,20.809591348563089],[77.592915782743859,20.809632263235855],[77.592931200313302,20.809496335757011],[77.59349012756573,20.809466426056566],[77.595115726272738,20.809839416244419]]]},"properties":{"FID":125,"Join_Count":1,"TARGET_FID":161,"Layer":"POLY_PARCEL","Text":"छन\u094Dस\u094Dस\u094D","vill_code":"533009","LGD_CODE":"533009"}},{"type":"Feature","id":126,"geometry":{"type":"Polygon","coordinates":[[[77.595465306332429,20.809999063394745],[77.595069000416117,20.81132223612023],[77.594762448099317,20.811442450649427],[77.592813107504227,20.810532932032785],[77.592915782743859,20.809632263235855],[77.593495274930163,20.809591348563089],[77.595465306332429,20.809999063394745]]]},"properties":{"FID":126,"Join_Count":2,"TARGET_FID":162,"Layer":"TEXT_PARCEL","Text":"69","vill_code":"533009","LGD_CODE":"533009"}},{"type":"Feature","id":127,"geometry":{"type":"Polygon","coordinates":[[[77.592989307672283,20.811098023585025],[77.594073152484683,20.811622931166507],[77.594141168564477,20.813420492205683],[77.594766054211576,20.814151172288465],[77.594867503075804,20.815204514627471],[77.592675112430385,20.815281089567819],[77.592607755690253,20.814725302735546],[77.592588341999488,20.81461134763904],[77.592691015411688,20.814246495450526],[77.592552563166535,20.814201316608539],[77.592784731484429,20.811320134901415],[77.592799611682182,20.81101783123151],[77.592989307672283,20.811098023585025]]]},"properties":{"FID":127,"Join_Count":2,"TARGET_FID":163,"Layer":"TEXT_PARCEL","Text":"76","vill_code":"533009","LGD_CODE":"533009"}},{"type":"Feature","id":128,"geometry":{"type":"Polygon","coordinates":[[[77.594839647192742,20.815439523688443],[77.594578545952842,20.81687801161446],[77.594573921469404,20.818303099463762],[77.594558844241334,20.818742026176352],[77.592917494842823,20.818321003121408],[77.592866727527905,20.816963930585629],[77.592830959725688,20.816542321918163],[77.592675112430385,20.815281089567819],[77.594867503075804,20.815204514627471],[77.594839647192742,20.815439523688443]]]},"properties":{"FID":128,"Join_Count":2,"TARGET_FID":164,"Layer":"TEXT_PARCEL","Text":"77","vill_code":"533009","LGD_CODE":"533009"}},{"type":"Feature","id":129,"geometry":{"type":"Polygon","coordinates":[[[77.594762448099317,20.811442450649427],[77.596398046767561,20.812271597518262],[77.598145493664006,20.812994243436403],[77.600409833416123,20.813930571805702],[77.602620214631358,20.814902131147488],[77.604968614126079,20.8159618854658],[77.605034796061588,20.815980852012462],[77.60646739585242,20.816440274848549],[77.607208482412858,20.816797245889077],[77.607397660581469,20.816887455226684],[77.609050102885476,20.817674551129553],[77.610064033595052,20.8180900289919],[77.610818157442012,20.81831046854801],[77.613855097581904,20.819206602759369],[77.616934811150131,20.82008114372486],[77.617317105405007,20.820174967874784],[77.618089867269305,20.820364618458701],[77.620296681531002,20.820967325840154],[77.6216287821441,20.821351050038629],[77.623149131329399,20.821790342775536],[77.623132060992489,20.822275275448465],[77.620543967645986,20.821539292053984],[77.618042388770277,20.820797006366984],[77.617689525115793,20.820691142356022],[77.61592213330421,20.820209507762915],[77.614206082718596,20.819720641098002],[77.61390355619001,20.819657606964473],[77.61320491889694,20.819436292459393],[77.611743691680999,20.819014287524041],[77.608288462936585,20.817964704078889],[77.607738970765681,20.817757644226337],[77.607158077925732,20.817543123929539],[77.607061653486511,20.817501710552701],[77.60639627719263,20.81720384674793],[77.605311090434199,20.816717853121006],[77.604795922845994,20.816482656413296],[77.602986062780218,20.815675064426422],[77.6028907720776,20.815623612867707],[77.60240156694698,20.815359473748455],[77.602292428072033,20.815310847775262],[77.598172899797873,20.813470901880141],[77.59737829505913,20.813143960896578],[77.596243346299005,20.812648918074171],[77.595159129615624,20.812152448753185],[77.594073152484683,20.811622931166507],[77.592989307672283,20.811098023585025],[77.592799611682182,20.81101783123151],[77.592813107504227,20.810532932032785],[77.594762448099317,20.811442450649427]]]},"properties":{"FID":129,"Join_Count":7,"TARGET_FID":165,"Layer":"TEXT_MAPIN","Text":"र\u0947","vill_code":"533009","LGD_CODE":"533009"}}]
}