{
  "type" : "FeatureCollection",
  "features" : [{"type":"Feature","id":0,"geometry":{"type":"LineString","coordinates":[[77.607127079698159,20.827815717759371],[77.607111526757279,20.827597949432089],[77.607184377851084,20.826271688383173],[77.607243070009076,20.82490204770647],[77.607312127942535,20.823512942213895],[77.607364117073587,20.822670654382229],[77.607619517565837,20.821521351618816],[77.607746092831533,20.820958806226368],[77.608065079901024,20.820374775295885],[77.608311165669662,20.81990765133882],[77.608375061431389,20.819132955250996],[77.608413100943537,20.818711677671761],[77.608396051876113,20.818203938107551],[77.608095846152295,20.817889434797422]]},"properties":{"FID":0,"LGD_CODE":"533009","ROAD_TYPE":"C"}},{"type":"Feature","id":1,"geometry":{"type":"LineString","coordinates":[[77.60681014238618,20.817389118338387],[77.606705045829074,20.817521276072441],[77.606436699500932,20.817790310408974],[77.605887304485549,20.818367218379866],[77.605290403057154,20.818983350917311],[77.604562297420074,20.819750895833891],[77.603828572924343,20.82050398825583],[77.60368959763268,20.820670000197151],[77.60333876201571,20.820968968855869],[77.603160894266239,20.821357932955099],[77.603084587860408,20.8217360975985],[77.602759240986316,20.82256690077423],[77.602366682955889,20.823533895736091],[77.602254561640251,20.823704446982187],[77.602056682625545,20.823871109985959],[77.601885918435059,20.824056822457941],[77.601736314783096,20.824227788262117],[77.601599304975196,20.824505038219471],[77.601385318681125,20.824971799801865],[77.600564382017239,20.825943531421107],[77.599709506907075,20.826930787296707]]},"properties":{"FID":1,"LGD_CODE":"533009","ROAD_TYPE":"C"}},{"type":"Feature","id":2,"geometry":{"type":"LineString","coordinates":[[77.603032736630666,20.828454055386914],[77.602557052722872,20.827929013917103],[77.602287685805123,20.827235406283407],[77.60206062387013,20.82666226548892],[77.601954323745588,20.826557018598717],[77.601879379824382,20.826407887725694],[77.60179731879235,20.825252649245929],[77.601727030929268,20.824246574890452]]},"properties":{"FID":2,"LGD_CODE":"533009","ROAD_TYPE":"C"}},{"type":"Feature","id":3,"geometry":{"type":"LineString","coordinates":[[77.623225079174716,20.820283859453379],[77.622918361352376,20.820089909246974],[77.622060289659956,20.819577115566396],[77.621677157731696,20.819365733305652],[77.621363671533643,20.819191912192181],[77.62043441871684,20.819001008198072],[77.619457083912678,20.818791465439247],[77.618456568362248,20.818471945982953],[77.617999178667077,20.818261383432375],[77.617215987911294,20.817929845979524],[77.616839792376112,20.817809433770218],[77.6166424183956,20.817600760278214],[77.615879086873434,20.817192313044249],[77.615672897125137,20.817084381047536],[77.61440570107564,20.816983474628731],[77.613218501140764,20.816905631405437],[77.612936174013612,20.816693105827007],[77.612810748973658,20.816651367989532],[77.612604924098392,20.816265456606629],[77.61256746199696,20.81609813207842],[77.612260618738901,20.815401824133655],[77.612091310089639,20.815279099309791],[77.610515553505209,20.814831732625692],[77.608677670058569,20.814262652311424],[77.608195632575871,20.814098891629648]]},"properties":{"FID":3,"LGD_CODE":"533009","ROAD_TYPE":"C"}},{"type":"Feature","id":4,"geometry":{"type":"LineString","coordinates":[[77.610210205447316,20.813534645196555],[77.610645205896546,20.813469188925474],[77.611429274299653,20.813105821359809],[77.61241101839984,20.813267439521251],[77.613115141059879,20.81333149611822],[77.613747719084444,20.813339910157833]]},"properties":{"FID":4,"LGD_CODE":"533009","ROAD_TYPE":"C"}},{"type":"Feature","id":5,"geometry":{"type":"LineString","coordinates":[[77.610186181294281,20.799614841988454],[77.609680871639512,20.800952141509498],[77.609333174889144,20.801854764616081],[77.60920858562784,20.802218552229753],[77.60932586926522,20.803251313201972],[77.609459799178893,20.804317713503188],[77.609507283440578,20.804732744156077],[77.609453728441409,20.805482308822331],[77.609399603565038,20.805898467251914],[77.609675131738868,20.806504248936033],[77.610150480554793,20.807518536403311],[77.610606933131052,20.808673161530418],[77.61077691240574,20.809057838060543],[77.61057047627331,20.810234322064176],[77.610364209635094,20.811420468203327],[77.610197917658681,20.812434688295951]]},"properties":{"FID":5,"LGD_CODE":"533009","ROAD_TYPE":"C"}},{"type":"Feature","id":6,"geometry":{"type":"LineString","coordinates":[[77.610221506483754,20.812640252772557],[77.610402892740595,20.811941900945214],[77.610484943588318,20.811742875006448],[77.611040291957892,20.810634995114167],[77.611627892766492,20.809536419680803],[77.611718735623455,20.809380784102824],[77.612581712313599,20.808728526406924],[77.613803530974195,20.807801677732055],[77.614096561098975,20.807585806805314],[77.614380183560044,20.80744252092536],[77.615108838012063,20.806757922973237],[77.615442584370271,20.806425627689887],[77.616009210903613,20.806255027680681],[77.616804848394537,20.80602872173278],[77.617232943273862,20.805888653791733],[77.61746462898013,20.805832918967617],[77.617914351061756,20.805122282026272]]},"properties":{"FID":6,"LGD_CODE":"533009","ROAD_TYPE":"C"}},{"type":"Feature","id":7,"geometry":{"type":"LineString","coordinates":[[77.592579571872619,20.80468460052289],[77.593376463909692,20.804415334253846],[77.594952232083315,20.804163537432903],[77.595478447695399,20.804079591442182],[77.596710298466306,20.803784678046782],[77.597831944423731,20.803454502248822],[77.598190686892409,20.802705522230195],[77.599060607473206,20.802164508490836],[77.600151009663222,20.801699205405761],[77.601711445276734,20.801072403836706],[77.602040680958581,20.800938516468822],[77.602732891512503,20.800784985564562],[77.604739676408343,20.800288680402382],[77.605363428132819,20.800177576475896],[77.60605627662629,20.800060495150781],[77.606922930708905,20.799988374453445],[77.60737499628506,20.799952104747433],[77.608452397219509,20.79973176275189],[77.608578709406316,20.799537594972669]]},"properties":{"FID":7,"LGD_CODE":"533009","ROAD_TYPE":"C"}},{"type":"Feature","id":8,"geometry":{"type":"LineString","coordinates":[[77.592889977995398,20.8173479573015],[77.593717357516539,20.817103730548062],[77.594506070266775,20.816859994211978],[77.59498964880639,20.816703563264333],[77.596256232672303,20.816331431849452],[77.59791706010482,20.815831820521488],[77.598376447900336,20.815709225683985],[77.599547569440517,20.815545189835209],[77.601417436996471,20.815306264313314],[77.602103288847061,20.815226576586351]]},"properties":{"FID":8,"LGD_CODE":"533009","ROAD_TYPE":"B"}},{"type":"Feature","id":9,"geometry":{"type":"LineString","coordinates":[[77.601986271095299,20.815174439592152],[77.601450117544672,20.815227554301899],[77.599385630219899,20.815496611899324],[77.598523227486723,20.815601274586701],[77.598260767138839,20.81564894322489],[77.597068130091145,20.815997887235106],[77.595000653444274,20.816625093066257],[77.592883460740751,20.8172589931856]]},"properties":{"FID":9,"LGD_CODE":"533009","ROAD_TYPE":"B"}},{"type":"Feature","id":10,"geometry":{"type":"LineString","coordinates":[[77.592806449787773,20.818337361918424],[77.592778667108391,20.816923791481667],[77.59269986361754,20.816320252107626],[77.592520749863368,20.814772031786479],[77.592513702693097,20.814548254872253],[77.592552562962425,20.814201315760204]]},"properties":{"FID":10,"LGD_CODE":"533009","ROAD_TYPE":"C"}},{"type":"Feature","id":11,"geometry":{"type":"LineString","coordinates":[[77.592691015440124,20.814246494898565],[77.592695683995487,20.813801935795638],[77.592686823592629,20.813650931565327],[77.592613189532841,20.81341575178579]]},"properties":{"FID":11,"LGD_CODE":"533009","ROAD_TYPE":"C"}},{"type":"Feature","id":12,"geometry":{"type":"LineString","coordinates":[[77.599225263682285,20.810709496067226],[77.600160476147124,20.810782920772635],[77.600724232007281,20.810849291203755],[77.601044242906056,20.81092872574051],[77.601940040627028,20.811105507218478],[77.603010229547209,20.811404811310652],[77.604409596226958,20.811814548936397],[77.605947729435115,20.812279779163184],[77.606834077651115,20.812555764666289]]},"properties":{"FID":12,"LGD_CODE":"533009","ROAD_TYPE":"B"}},{"type":"Feature","id":13,"geometry":{"type":"LineString","coordinates":[[77.60667942494139,20.812612990402648],[77.605854038683844,20.812337860459976],[77.605155601880696,20.812122614313203],[77.604864284985112,20.812042870165143],[77.604076428429892,20.811802681251038],[77.603017530868556,20.811492887964256],[77.60181478181417,20.811163935668471],[77.600809749883581,20.810977989502494],[77.600472795926436,20.810914299042476],[77.600159075432188,20.810865908316039],[77.599747966950446,20.810828964302239],[77.599259911920683,20.810833574034014]]},"properties":{"FID":13,"LGD_CODE":"533009","ROAD_TYPE":"B"}},{"type":"Feature","id":14,"geometry":{"type":"LineString","coordinates":[[77.605950164635644,20.811393056545338],[77.607083637673199,20.812463549219828]]},"properties":{"FID":14,"LGD_CODE":"533009","ROAD_TYPE":"B"}},{"type":"Feature","id":15,"geometry":{"type":"LineString","coordinates":[[77.606118949017628,20.811365067938794],[77.60656622247339,20.811832740063473],[77.607162863654878,20.812434274165572]]},"properties":{"FID":15,"LGD_CODE":"533009","ROAD_TYPE":"B"}},{"type":"Feature","id":16,"geometry":{"type":"LineString","coordinates":[[77.623521321425955,20.809391351201555],[77.623415664211379,20.809233201962293],[77.623646567045029,20.808011483215502],[77.623737349518748,20.80752475618322],[77.623802986806496,20.807135452678974],[77.623975324821117,20.80702635212506]]},"properties":{"FID":16,"LGD_CODE":"533009","ROAD_TYPE":"B"}},{"type":"Feature","id":17,"geometry":{"type":"LineString","coordinates":[[77.623942382610053,20.807163415040044],[77.623881973826428,20.807192854607422],[77.623724601216466,20.808015467503253],[77.623505838149896,20.809164193733579],[77.623555662558189,20.809241905166129]]},"properties":{"FID":17,"LGD_CODE":"533009","ROAD_TYPE":"B"}},{"type":"Feature","id":18,"geometry":{"type":"LineString","coordinates":[[77.623358783505992,20.814786855229997],[77.623475961074519,20.81628678121],[77.623459701472939,20.816544497500228],[77.623494127366058,20.81788831588074],[77.623519246338574,20.818321446233547],[77.623482242256102,20.818780397039479],[77.623414289292199,20.81984270122387]]},"properties":{"FID":18,"LGD_CODE":"533009","ROAD_TYPE":"C"}},{"type":"Feature","id":19,"geometry":{"type":"LineString","coordinates":[[77.607338278180436,20.816859138526386],[77.607879861535409,20.815964969589004],[77.607969783495307,20.815719852898635],[77.607839971247301,20.814602888562998],[77.607827901232497,20.814441142128086]]},"properties":{"FID":19,"LGD_CODE":"533009","ROAD_TYPE":"C"}},{"type":"Feature","id":20,"geometry":{"type":"LineString","coordinates":[[77.599154392769506,20.80224818655401],[77.600270688669994,20.803620649085417],[77.601102601392242,20.80453126705719],[77.60231783751766,20.806233048099358],[77.603319952534335,20.807680836747092],[77.604685244878326,20.809238491990538],[77.605239120052005,20.810011879037816],[77.605950164765375,20.811393056856094]]},"properties":{"FID":20,"LGD_CODE":"533009","ROAD_TYPE":"A"}},{"type":"Feature","id":21,"geometry":{"type":"LineString","coordinates":[[77.623188457767355,20.814443745361967],[77.622058824191413,20.814389607135425],[77.620036586498742,20.814254531010441],[77.618836204493832,20.814094737654024],[77.617619531363005,20.813934880203092],[77.616964731903806,20.813779925378142],[77.615172112146368,20.813501302910623],[77.614334299630684,20.813345198235691],[77.613747719283694,20.813339910752276]]},"properties":{"FID":21,"LGD_CODE":"533009","ROAD_TYPE":"A"}},{"type":"Feature","id":22,"geometry":{"type":"LineString","coordinates":[[77.613903556190024,20.819657606964473],[77.614269858045006,20.820019850921472],[77.614910225287304,20.820857183950348],[77.615078871356246,20.821313754717774],[77.615107105888086,20.821358112700583],[77.615751381061187,20.822422005411049],[77.616091052747706,20.822859976042214],[77.617104904062487,20.824189782665783],[77.617522548454914,20.82458028517593],[77.617912776814279,20.824770224798485],[77.618054345698525,20.824868622372946]]},"properties":{"FID":22,"LGD_CODE":"533009","ROAD_TYPE":"A"}},{"type":"Feature","id":23,"geometry":{"type":"LineString","coordinates":[[77.606103655592108,20.811352978021986],[77.60528746443552,20.809796470447928],[77.605149060477927,20.809639676806864],[77.604838357104086,20.809179445229606],[77.603548070019244,20.80771977873232],[77.602853270952636,20.806777501950247],[77.602537058902698,20.806309387820956],[77.601234021973212,20.804529813864281],[77.600321377238132,20.803484715648381],[77.599282076702394,20.802192654643868]]},"properties":{"FID":23,"LGD_CODE":"533009","ROAD_TYPE":"A"}},{"type":"Feature","id":24,"geometry":{"type":"LineString","coordinates":[[77.599225264006662,20.810709496110427],[77.597985041201994,20.810534841120649],[77.596880613253916,20.810184508822772],[77.595115726272738,20.809839416244412]]},"properties":{"FID":24,"LGD_CODE":"533009","ROAD_TYPE":"A"}},{"type":"Feature","id":25,"geometry":{"type":"LineString","coordinates":[[77.595115726272738,20.809839416244412],[77.593490127565715,20.809466426056574],[77.592931200313302,20.809496335757011]]},"properties":{"FID":25,"LGD_CODE":"533009","ROAD_TYPE":"A"}},{"type":"Feature","id":26,"geometry":{"type":"LineString","coordinates":[[77.613760649729571,20.813453996126608],[77.614238380108446,20.813468372884046],[77.614843022422804,20.813631014466818],[77.615041737095567,20.813648495688646],[77.617566714670374,20.814027158124297],[77.618876490265578,20.814215010569484],[77.620483043736883,20.814411590587362],[77.623062028118824,20.814579160327266],[77.623194243648186,20.814572260076105]]},"properties":{"FID":26,"LGD_CODE":"533009","ROAD_TYPE":"A"}},{"type":"Feature","id":27,"geometry":{"type":"LineString","coordinates":[[77.618236381881459,20.824770305216262],[77.618074459565705,20.824715822263098],[77.617788006184341,20.824573291632621],[77.61760993453413,20.824474484611091],[77.617299283426306,20.824199761011457],[77.617187720795542,20.824076021950358],[77.616570719114776,20.823243457087269],[77.616235743498194,20.822792453334866],[77.615801423305555,20.822301388232223],[77.615203123582035,20.821288023958051],[77.615045588599244,20.820838224155374],[77.614978225615545,20.820689800196913],[77.614430212632413,20.819973418633726],[77.614206082718596,20.819720641098005]]},"properties":{"FID":27,"LGD_CODE":"533009","ROAD_TYPE":"A"}},{"type":"Feature","id":28,"geometry":{"type":"LineString","coordinates":[[77.592915782743873,20.809632263235862],[77.593495274930163,20.809591348563082],[77.595465306332429,20.809999063394741],[77.595746829997154,20.810071782990484],[77.596652458750199,20.810263892823865],[77.596909545643115,20.810309808248721],[77.597973355500841,20.810651030065429],[77.599259912100507,20.810833574244434]]},"properties":{"FID":28,"LGD_CODE":"533009","ROAD_TYPE":"A"}}]
}