{
  "type" : "FeatureCollection",
  "features" : [{"type":"Feature","id":0,"geometry":{"type":"LineString","coordinates":[[77.765344665167078,20.831851834069067],[77.765128872558634,20.830606997716846]]},"properties":{"FID":0,"LGD_CODE":"533017","ROAD_TYPE":"B"}},{"type":"Feature","id":1,"geometry":{"type":"LineString","coordinates":[[77.764786734135257,20.829864966423603],[77.764263669064661,20.829515325131823],[77.763698981317745,20.829195682179055],[77.763265385192412,20.829016927643512],[77.762670796636044,20.829130429400863],[77.761889524267659,20.8292891547481],[77.760629916921005,20.829502929849038],[77.76051184219088,20.829563901682935]]},"properties":{"FID":1,"LGD_CODE":"533017","ROAD_TYPE":"B"}},{"type":"Feature","id":2,"geometry":{"type":"LineString","coordinates":[[77.765203541130845,20.830530915380574],[77.765201094988285,20.830518457882157]]},"properties":{"FID":2,"LGD_CODE":"533017","ROAD_TYPE":"B"}},{"type":"Feature","id":3,"geometry":{"type":"LineString","coordinates":[[77.750665860116285,20.830623568913104],[77.75009201883276,20.830559988257153],[77.749351443727662,20.830481657602906]]},"properties":{"FID":3,"LGD_CODE":"533017","ROAD_TYPE":"B"}},{"type":"Feature","id":4,"geometry":{"type":"LineString","coordinates":[[77.750665860116285,20.830623568913104],[77.750735534405877,20.830416114071053],[77.751003429991826,20.829889942645814],[77.751111773138618,20.829528231519795],[77.751686697108013,20.828559931465101],[77.752215263234262,20.82765641338931],[77.752701426150651,20.826575847986444],[77.753140847336113,20.825456543148615],[77.753696976067687,20.824530732575774],[77.754288467671444,20.823589087390911],[77.754801425345448,20.822672651778259],[77.755026593395627,20.822407785168767],[77.755568933265423,20.82208331590661],[77.756071381172134,20.821821294034208]]},"properties":{"FID":4,"LGD_CODE":"533017","ROAD_TYPE":"B"}},{"type":"Feature","id":5,"geometry":{"type":"LineString","coordinates":[[77.750777206497247,20.830635905673734],[77.750551535499696,20.8311859830782],[77.750199680527714,20.832106982045321],[77.750119561990502,20.833143564244107],[77.750143900398498,20.834208675057372],[77.750248748065601,20.835145364546886]]},"properties":{"FID":5,"LGD_CODE":"533017","ROAD_TYPE":"B"}},{"type":"Feature","id":6,"geometry":{"type":"LineString","coordinates":[[77.750054255010298,20.834010027393116],[77.750043709905043,20.833106493473991],[77.750092355956014,20.832482440329482],[77.750170692740397,20.832012002064101],[77.750454232501255,20.831253686085617]]},"properties":{"FID":6,"LGD_CODE":"533017","ROAD_TYPE":"B"}},{"type":"Feature","id":7,"geometry":{"type":"LineString","coordinates":[[77.760984593832816,20.834488439848506],[77.760243023901708,20.83249256593383],[77.759257480962589,20.830000038670935],[77.758542228959612,20.828512442662127],[77.757934993062278,20.82723697359949],[77.757315079426206,20.825636013848445],[77.756902967304526,20.824197116276931],[77.756390900486139,20.822807443932071],[77.75633585371645,20.821989625759009]]},"properties":{"FID":7,"LGD_CODE":"533017","ROAD_TYPE":"C"}},{"type":"Feature","id":8,"geometry":{"type":"LineString","coordinates":[[77.768195886432792,20.828199550630767],[77.767209070793712,20.828640502623365],[77.76645455473448,20.828981781181607]]},"properties":{"FID":8,"LGD_CODE":"533017","ROAD_TYPE":"B"}},{"type":"Feature","id":9,"geometry":{"type":"LineString","coordinates":[[77.766573351196243,20.828836140964917],[77.767196335960378,20.828545256742988],[77.768165821714888,20.828052255802696]]},"properties":{"FID":9,"LGD_CODE":"533017","ROAD_TYPE":"B"}},{"type":"Feature","id":10,"geometry":{"type":"LineString","coordinates":[[77.765300571956516,20.819778925657477],[77.764716035914688,20.819882459240088],[77.763590955882123,20.820075690858499],[77.763031114975391,20.820125360269458],[77.761407787087293,20.820238966452028],[77.759636563786543,20.82027915987447],[77.75864003774295,20.820327543253395],[77.758242502043032,20.820019896044798],[77.757202258336676,20.819813439209906],[77.75691940962588,20.81971561074274],[77.756928218888518,20.819542571529897],[77.757047679695233,20.818942087161297],[77.757194179143625,20.818205534228635],[77.757228470684836,20.817909110383624],[77.757016177624109,20.817227325805515],[77.756821904410117,20.816405038333279],[77.756605553585445,20.815285736996799],[77.75634583317985,20.814332683071424],[77.756127115233795,20.813348034588646],[77.755923330633195,20.812397621089261],[77.75574258786088,20.811340611019098],[77.755643863261383,20.810887154635545],[77.75554589011162,20.810193861691197],[77.755321020669484,20.809209564006565],[77.755064672241076,20.808051611821007],[77.754878569063735,20.807084457856678]]},"properties":{"FID":10,"LGD_CODE":"533017","ROAD_TYPE":"C"}},{"type":"Feature","id":11,"geometry":{"type":"LineString","coordinates":[[77.752310455844878,20.809349308473596],[77.753226965867029,20.809804524300731],[77.754117754382065,20.81023848221967],[77.754573241026677,20.810375307559418],[77.755146753810479,20.810588727796965],[77.755644434312529,20.810753444864012],[77.756024226337345,20.810735459495447],[77.757103474209288,20.810844092481322],[77.758432647832791,20.810968699557815],[77.75909937264403,20.811032771106792]]},"properties":{"FID":11,"LGD_CODE":"533017","ROAD_TYPE":"C"}},{"type":"Feature","id":12,"geometry":{"type":"LineString","coordinates":[[77.755876365612608,20.810742461663661],[77.757269031225078,20.811236254190216],[77.758365597100365,20.81141588062787],[77.75930595003625,20.811706767473773],[77.759924471577662,20.811985794975026],[77.760977630970274,20.812340339994179],[77.761688283998495,20.812506045814832],[77.762273169570889,20.812764258786395],[77.763076587163809,20.813047823207938],[77.763533771613794,20.81320726134912],[77.763820176776335,20.813224896488723]]},"properties":{"FID":12,"LGD_CODE":"533017","ROAD_TYPE":"C"}},{"type":"Feature","id":13,"geometry":{"type":"LineString","coordinates":[[77.756113485467822,20.821923017662439],[77.755587771010681,20.822189231312386],[77.754972842446477,20.822569634412215],[77.754480187920691,20.823464197665437],[77.753888697984806,20.824405843337644],[77.753285199244615,20.825382690464991],[77.752839137312975,20.826412637945197],[77.752394091870244,20.827456332198278],[77.751927331523632,20.82840462891841],[77.751398250622216,20.82930127277498],[77.750944503928352,20.830228112621629],[77.750777206497247,20.830635905673734]]},"properties":{"FID":13,"LGD_CODE":"533017","ROAD_TYPE":"B"}},{"type":"Feature","id":14,"geometry":{"type":"LineString","coordinates":[[77.750454232501255,20.831253686085617],[77.750665860116285,20.830623568913104]]},"properties":{"FID":14,"LGD_CODE":"533017","ROAD_TYPE":"B"}},{"type":"Feature","id":15,"geometry":{"type":"LineString","coordinates":[[77.764860610260641,20.829810654296793],[77.764258023658044,20.829381748392542],[77.763720797727999,20.829136461663055],[77.763270526342652,20.828960338418476],[77.762982846241002,20.828944108557202],[77.762418905360207,20.829076559601866],[77.761267966424867,20.829277201196366],[77.760523594773602,20.8294407062277],[77.760395334480606,20.82953435063714],[77.759699232247129,20.829757209518235],[77.759248040314887,20.829931503167266],[77.758837572319393,20.829965401358418],[77.757960646541491,20.830115789666049],[77.757112321501111,20.830257630359519],[77.756403308798994,20.830405284274448],[77.75567986050109,20.830457121910378],[77.755409214879151,20.83050370344672],[77.754450296223979,20.83053452231038],[77.753550627014206,20.830575745056208],[77.752604219506978,20.83057822445145],[77.75152156181565,20.830616119617353],[77.750810621900413,20.830639607960109],[77.750777206497247,20.830635905673734]]},"properties":{"FID":15,"LGD_CODE":"533017","ROAD_TYPE":"B"}},{"type":"Feature","id":16,"geometry":{"type":"LineString","coordinates":[[77.750777206497247,20.830635905673734],[77.750665860116285,20.830623568913104]]},"properties":{"FID":16,"LGD_CODE":"533017","ROAD_TYPE":"B"}},{"type":"Feature","id":17,"geometry":{"type":"LineString","coordinates":[[77.765761609055232,20.835692574009023],[77.765577749321821,20.83360997091377],[77.765454900987976,20.831914527305937]]},"properties":{"FID":17,"LGD_CODE":"533017","ROAD_TYPE":"B"}},{"type":"Feature","id":18,"geometry":{"type":"LineString","coordinates":[[77.765454900987976,20.831914527305937],[77.765443013802411,20.831750467116493],[77.765203541130845,20.830530915380574]]},"properties":{"FID":18,"LGD_CODE":"533017","ROAD_TYPE":"B"}},{"type":"Feature","id":19,"geometry":{"type":"LineString","coordinates":[[77.765675988014848,20.835679211066147],[77.765579743251109,20.834185543249504],[77.765368990977976,20.831992159850067],[77.765344665167078,20.831851834069067]]},"properties":{"FID":19,"LGD_CODE":"533017","ROAD_TYPE":"B"}}]
}