{
  "type" : "FeatureCollection",
  "features" : [{"type":"Feature","id":0,"geometry":{"type":"Polygon","coordinates":[[[77.759310174651404,20.808988323052041],[77.756227735990223,20.809142985112835],[77.756008677409397,20.808471341790213],[77.755732597665229,20.807368381781497],[77.75561778270594,20.806920073214282],[77.757600976534249,20.806467330488136],[77.75863711645934,20.806261293599736],[77.759310174651404,20.808988323052041]]]},"properties":{"FID":0,"Join_Count":2,"TARGET_FID":1,"Layer":"TEXT_PARCEL","Text":"17","vill_code":"533017","LGD_CODE":"533017"}},{"type":"Feature","id":1,"geometry":{"type":"Polygon","coordinates":[[[77.762347562671238,20.807092077730388],[77.762976407035495,20.809461941506196],[77.76065610088493,20.809287388918605],[77.760636072901249,20.809153402582893],[77.759793296966009,20.806028417091127],[77.761805734527272,20.805551849532456],[77.761934355349283,20.805626744977818],[77.762347562671238,20.807092077730388]]]},"properties":{"FID":1,"Join_Count":2,"TARGET_FID":2,"Layer":"TEXT_PARCEL","Text":"15","vill_code":"533017","LGD_CODE":"533017"}},{"type":"Feature","id":2,"geometry":{"type":"Polygon","coordinates":[[[77.755786423240778,20.81046165375276],[77.755717479988121,20.810617735828956],[77.755148474376043,20.810419189931999],[77.754136373310857,20.810117267696835],[77.753249683111378,20.809674219210411],[77.752293411213245,20.809262522315699],[77.752045032783656,20.80800714158568],[77.751996885119681,20.807770625185409],[77.752460692223039,20.807634719979138],[77.754358949612751,20.807200007504527],[77.75561778270594,20.806920073214282],[77.755732597665229,20.807368381781497],[77.756008677409397,20.808471341790213],[77.756227735990223,20.809142985112835],[77.756190808024471,20.80928118710829],[77.756109867143863,20.809698961373272],[77.755786423240778,20.81046165375276]]]},"properties":{"FID":2,"Join_Count":2,"TARGET_FID":3,"Layer":"TEXT_PARCEL","Text":"19","vill_code":"533017","LGD_CODE":"533017"}},{"type":"Feature","id":3,"geometry":{"type":"Polygon","coordinates":[[[77.763288436200654,20.810791636249153],[77.762252381814861,20.811006513529502],[77.762038888013933,20.811004981888168],[77.761543176363929,20.810870900247352],[77.761105842448757,20.810828432054201],[77.760742420427206,20.809864846756746],[77.76065610088493,20.809287388918605],[77.762976407035495,20.809461941506196],[77.763288436200654,20.810791636249153]]]},"properties":{"FID":3,"Join_Count":2,"TARGET_FID":4,"Layer":"TEXT_PARCEL","Text":"14","vill_code":"533017","LGD_CODE":"533017"}},{"type":"Feature","id":4,"geometry":{"type":"Polygon","coordinates":[[[77.761105842448757,20.810828432054201],[77.760477504811718,20.811095582814552],[77.760131076876689,20.810733408659278],[77.759631147578617,20.810134528488838],[77.759310174651404,20.808988323052041],[77.75863711645934,20.806261293599736],[77.759793296966009,20.806028417091127],[77.760636072901249,20.809153402582893],[77.76065610088493,20.809287388918605],[77.760742420427206,20.809864846756746],[77.761105842448757,20.810828432054201]]]},"properties":{"FID":4,"Join_Count":2,"TARGET_FID":5,"Layer":"TEXT_PARCEL","Text":"16","vill_code":"533017","LGD_CODE":"533017"}},{"type":"Feature","id":5,"geometry":{"type":"Polygon","coordinates":[[[77.759889311753682,20.811297266919809],[77.759932554470183,20.811811872961382],[77.759454911013904,20.811798963795329],[77.757386151433508,20.811351184502769],[77.755944288633259,20.810792101587118],[77.755693860485579,20.810711035254737],[77.755717479988121,20.810617735828956],[77.755786423240778,20.81046165375276],[77.756109867143863,20.809698961373272],[77.756190808024471,20.80928118710829],[77.756227735990223,20.809142985112835],[77.759310174651404,20.808988323052041],[77.759631147578617,20.810134528488838],[77.760131076876689,20.810733408659278],[77.760477504811718,20.811095582814552],[77.759889311753682,20.811297266919809]]]},"properties":{"FID":5,"Join_Count":2,"TARGET_FID":6,"Layer":"TEXT_PARCEL","Text":"18","vill_code":"533017","LGD_CODE":"533017"}},{"type":"Feature","id":6,"geometry":{"type":"Polygon","coordinates":[[[77.760136815245744,20.812830645663343],[77.759434280404051,20.812944613127041],[77.759454911013904,20.811798963795329],[77.759932554470183,20.811811872961382],[77.761312513985189,20.812523940785592],[77.760798697271582,20.812629054111071],[77.760136815245744,20.812830645663343]]]},"properties":{"FID":6,"Join_Count":2,"TARGET_FID":7,"Layer":"TEXT_PARCEL","Text":"12","vill_code":"533017","LGD_CODE":"533017"}},{"type":"Feature","id":7,"geometry":{"type":"Polygon","coordinates":[[[77.755996529090424,20.812806452604004],[77.753736610058112,20.81324585401504],[77.753608465349444,20.813041617190589],[77.753249208983803,20.812914505610529],[77.753067129343037,20.812798013956982],[77.752641518518345,20.811038156858945],[77.752293411213245,20.809262522315699],[77.753249683111378,20.809674219210411],[77.754136373310857,20.810117267696835],[77.755148474376043,20.810419189931999],[77.755717479988121,20.810617735828956],[77.755693860485579,20.810711035254737],[77.755714010541581,20.810794143377091],[77.755741216086278,20.811040915620122],[77.756053857019637,20.812504609928389],[77.756076575028899,20.812810233552085],[77.755996529090424,20.812806452604004]]]},"properties":{"FID":7,"Join_Count":2,"TARGET_FID":8,"Layer":"TEXT_PARCEL","Text":"20","vill_code":"533017","LGD_CODE":"533017"}},{"type":"Feature","id":8,"geometry":{"type":"Polygon","coordinates":[[[77.756937235503869,20.813419382942332],[77.756273121656946,20.81353775645875],[77.756076575028899,20.812810233552085],[77.756053857019637,20.812504609928389],[77.755741216086278,20.811040915620122],[77.755714010541581,20.810794143377091],[77.755693860485579,20.810711035254737],[77.755944288633259,20.810792101587118],[77.757386151433508,20.811351184502769],[77.759454911013904,20.811798963795329],[77.759434280404051,20.812944613127041],[77.75914052254376,20.813014007772583],[77.758213518574848,20.813183353507796],[77.758094153703084,20.813205157932032],[77.756937235503869,20.813419382942332]]]},"properties":{"FID":8,"Join_Count":2,"TARGET_FID":9,"Layer":"TEXT_PARCEL","Text":"11","vill_code":"533017","LGD_CODE":"533017"}},{"type":"Feature","id":9,"geometry":{"type":"Polygon","coordinates":[[[77.763288436200654,20.810791636249153],[77.763868437217724,20.813434622832688],[77.763412185534463,20.813282523303741],[77.762747017415734,20.813040620607232],[77.762477903260574,20.812943624023873],[77.761312513985189,20.812523940785592],[77.759932554470183,20.811811872961382],[77.759889311753682,20.811297266919809],[77.760477504811718,20.811095582814552],[77.761105842448757,20.810828432054201],[77.761543176363929,20.810870900247352],[77.762038888013933,20.811004981888168],[77.762252381814861,20.811006513529502],[77.763288436200654,20.810791636249153]]]},"properties":{"FID":9,"Join_Count":2,"TARGET_FID":10,"Layer":"TEXT_PARCEL","Text":"13","vill_code":"533017","LGD_CODE":"533017"}},{"type":"Feature","id":10,"geometry":{"type":"Polygon","coordinates":[[[77.7541672853215,20.814773214551867],[77.75349736256959,20.814819363486436],[77.752532836530818,20.814568357885015],[77.750438790285784,20.813991553547513],[77.750114433258673,20.813938340955051],[77.750177507943533,20.81391430722956],[77.751931568467086,20.813313761522657],[77.752964575270411,20.812966079122599],[77.753249208983803,20.812914505610529],[77.753608465349444,20.813041617190589],[77.753736610058112,20.81324585401504],[77.75375180215724,20.813370319888676],[77.7541672853215,20.814773214551867]]]},"properties":{"FID":10,"Join_Count":2,"TARGET_FID":11,"Layer":"TEXT_PARCEL","Text":"22","vill_code":"533017","LGD_CODE":"533017"}},{"type":"Feature","id":11,"geometry":{"type":"Polygon","coordinates":[[[77.756154063572595,20.814965438615776],[77.755082177135932,20.81505200497471],[77.7541672853215,20.814773214551867],[77.75375180215724,20.813370319888676],[77.753736610058112,20.81324585401504],[77.755996529090424,20.812806452604004],[77.756076575028899,20.812810233552085],[77.756273121656946,20.81353775645875],[77.756292587522694,20.81360980893297],[77.756424268808757,20.81430818973157],[77.756496904576082,20.814848122166989],[77.756471204136503,20.814899819931007],[77.756154063572595,20.814965438615776]]]},"properties":{"FID":11,"Join_Count":2,"TARGET_FID":12,"Layer":"TEXT_PARCEL","Text":"21","vill_code":"533017","LGD_CODE":"533017"}},{"type":"Feature","id":12,"geometry":{"type":"Polygon","coordinates":[[[77.761148755479354,20.815947974372076],[77.760926276313057,20.815970647196121],[77.760171193701865,20.813072897059136],[77.760136815245744,20.812830645663343],[77.760798697271582,20.812629054111071],[77.761312513985189,20.812523940785592],[77.762477903260574,20.812943624023873],[77.762229568961274,20.814464473652322],[77.762504487754072,20.815719713321144],[77.761968222709825,20.815812691118186],[77.761148755479354,20.815947974372076]]]},"properties":{"FID":12,"Join_Count":2,"TARGET_FID":13,"Layer":"TEXT_PARCEL","Text":"8","vill_code":"533017","LGD_CODE":"533017"}},{"type":"Feature","id":13,"geometry":{"type":"Polygon","coordinates":[[[77.759194084318722,20.816270915318555],[77.758592914907538,20.816376960538495],[77.758679157985426,20.814356641068205],[77.758347414132487,20.813472448684223],[77.758213518574848,20.813183353507796],[77.75914052254376,20.813014007772583],[77.759434280404051,20.812944613127041],[77.760136815245744,20.812830645663343],[77.760171193701865,20.813072897059136],[77.760926276313057,20.815970647196121],[77.760613379800589,20.815995612511468],[77.759194084318722,20.816270915318555]]]},"properties":{"FID":13,"Join_Count":2,"TARGET_FID":14,"Layer":"TEXT_PARCEL","Text":"9","vill_code":"533017","LGD_CODE":"533017"}},{"type":"Feature","id":14,"geometry":{"type":"Polygon","coordinates":[[[77.752412886112381,20.815899938486556],[77.752903841538227,20.816985375096291],[77.752810908576805,20.817650239093954],[77.751658911109246,20.817837411798109],[77.751302318517162,20.817750227623549],[77.751053963178038,20.817143385191056],[77.751699452369905,20.81681806793636],[77.751726700300594,20.816161112127812],[77.751838532035208,20.815875342077387],[77.751770166183007,20.815715541144872],[77.751611652452198,20.815687366255816],[77.751053888251647,20.81502753652239],[77.749924677982392,20.814574873921796],[77.749347301414105,20.814613150320955],[77.748901407883523,20.814749836257477],[77.748593090680458,20.814856568535216],[77.748378992377809,20.814976224017361],[77.748286334356635,20.8143322777488],[77.749117096549526,20.81416738469494],[77.749969587866872,20.813993531751692],[77.750114433258773,20.813938340955019],[77.750438790285841,20.813991553547567],[77.752532836530861,20.814568357885033],[77.753497362569647,20.814819363486379],[77.754167285321614,20.814773214551963],[77.754612829597932,20.815830893030068],[77.754448590736104,20.816386343206769],[77.75452437227716,20.816549728627873],[77.754062943525241,20.816647656183935],[77.754022738922913,20.816402808791054],[77.752772354285128,20.815864020194908],[77.752412886112381,20.815899938486556]]]},"properties":{"FID":14,"Join_Count":2,"TARGET_FID":15,"Layer":"TEXT_PARCEL","Text":"23","vill_code":"533017","LGD_CODE":"533017"}},{"type":"Feature","id":15,"geometry":{"type":"Polygon","coordinates":[[[77.758592914907538,20.816376960538495],[77.756784683060076,20.816647783878768],[77.756646195121249,20.815743600585837],[77.756475491446963,20.814997233257778],[77.756471204136503,20.814899819931007],[77.756496904576082,20.814848122166989],[77.756424268808757,20.81430818973157],[77.756292587522694,20.81360980893297],[77.756273121656946,20.81353775645875],[77.756937235503869,20.813419382942332],[77.758094153703084,20.813205157932032],[77.758213518574848,20.813183353507796],[77.758347414132487,20.813472448684223],[77.758679157985426,20.814356641068205],[77.758592914907538,20.816376960538495]]]},"properties":{"FID":15,"Join_Count":2,"TARGET_FID":16,"Layer":"TEXT_PARCEL","Text":"10","vill_code":"533017","LGD_CODE":"533017"}},{"type":"Feature","id":16,"geometry":{"type":"Polygon","coordinates":[[[77.756784683060076,20.816647783878768],[77.75699898518036,20.817380762806799],[77.75669137511322,20.817317153934866],[77.756182514890085,20.817302350714339],[77.75561953799351,20.817374211047458],[77.755408155131818,20.817402009656416],[77.755303046353532,20.817169770517783],[77.754785949920375,20.816679930978143],[77.754524372277075,20.816549728627741],[77.754448590736089,20.816386343206819],[77.754612829597946,20.81583089303005],[77.7541672853215,20.814773214551867],[77.755082177135932,20.81505200497471],[77.756154063572595,20.814965438615776],[77.756471204136503,20.814899819931007],[77.756475491446963,20.814997233257778],[77.756646195121249,20.815743600585837],[77.756784683060076,20.816647783878768]]]},"properties":{"FID":16,"Join_Count":2,"TARGET_FID":17,"Layer":"TEXT_PARCEL","Text":"24","vill_code":"533017","LGD_CODE":"533017"}},{"type":"Feature","id":17,"geometry":{"type":"Polygon","coordinates":[[[77.75051975168391,20.81744544439589],[77.750160169521664,20.817495125189108],[77.749905187882817,20.81604500255359],[77.74943848524785,20.815683833852972],[77.748901407883508,20.814749836257477],[77.749347301414176,20.814613150320938],[77.749924677982278,20.814574873921803],[77.751053888251647,20.815027536522312],[77.751611652452141,20.81568736625572],[77.751770166182993,20.815715541144844],[77.751838532035109,20.815875342077316],[77.751726700300495,20.816161112127823],[77.75104389543948,20.816134092870659],[77.750721643531804,20.81612832911059],[77.75080137056824,20.817125568573271],[77.75051975168391,20.81744544439589]]]},"properties":{"FID":17,"Join_Count":2,"TARGET_FID":18,"Layer":"TEXT_PARCEL","Text":"32","vill_code":"533017","LGD_CODE":"533017"}},{"type":"Feature","id":18,"geometry":{"type":"Polygon","coordinates":[[[77.764613894218755,20.817109131618317],[77.764662362945373,20.817330401379373],[77.764376208817879,20.817166633189739],[77.763628802059884,20.816653470443693],[77.762846613615707,20.816161621804113],[77.762525078157751,20.815949276095605],[77.762504487754072,20.815719713321144],[77.762229568961274,20.814464473652322],[77.762477903260574,20.812943624023873],[77.762747017415734,20.813040620607232],[77.763412185534463,20.813282523303741],[77.763868437217724,20.813434622832688],[77.764613894218755,20.817109131618317]]]},"properties":{"FID":18,"Join_Count":2,"TARGET_FID":19,"Layer":"TEXT_PARCEL","Text":"7","vill_code":"533017","LGD_CODE":"533017"}},{"type":"Feature","id":19,"geometry":{"type":"Polygon","coordinates":[[[77.750046261447352,20.817510862991078],[77.748233877218027,20.817997568509949],[77.747223921041837,20.814551239350532],[77.747618784823686,20.814464773710789],[77.748286334356507,20.814332277748726],[77.748378992377795,20.814976224017432],[77.748593090680473,20.814856568535195],[77.748901407883508,20.814749836257477],[77.74943848524785,20.815683833852972],[77.749905187882817,20.81604500255359],[77.750160169521664,20.817495125189108],[77.750046261447352,20.817510862991078]]]},"properties":{"FID":19,"Join_Count":2,"TARGET_FID":21,"Layer":"TEXT_PARCEL","Text":"33","vill_code":"533017","LGD_CODE":"533017"}},{"type":"Feature","id":20,"geometry":{"type":"Polygon","coordinates":[[[77.751913513710505,20.818444158044716],[77.751033634619205,20.818606080665084],[77.750938979112433,20.818469521700042],[77.750679116844793,20.817789309600712],[77.75051975168391,20.81744544439589],[77.75080137056824,20.817125568573271],[77.750721643531804,20.81612832911059],[77.75104389543948,20.816134092870659],[77.751726700300495,20.816161112127823],[77.751699452369792,20.816818067936303],[77.751053963177981,20.817143385191009],[77.751302318517105,20.817750227623563],[77.751658911109175,20.81783741179802],[77.751913513710505,20.818444158044716]]]},"properties":{"FID":20,"Join_Count":2,"TARGET_FID":22,"Layer":"TEXT_PARCEL","Text":"31","vill_code":"533017","LGD_CODE":"533017"}},{"type":"Feature","id":21,"geometry":{"type":"Polygon","coordinates":[[[77.75289995515304,20.818237558251273],[77.751983947015461,20.818716903738277],[77.751978292136187,20.818584728050038],[77.751913513710505,20.818444158044716],[77.751658911109175,20.81783741179802],[77.752810908576748,20.817650239093897],[77.7529038415381,20.816985375096163],[77.752412886112296,20.815899938486464],[77.752772354285128,20.815864020194965],[77.754022738922856,20.816402808791004],[77.754062943525113,20.816647656183939],[77.754174514598631,20.817489039036889],[77.754257357655973,20.81829332523165],[77.753272372721653,20.818521075445855],[77.752918722274714,20.818648652501054],[77.75289995515304,20.818237558251273]]]},"properties":{"FID":21,"Join_Count":2,"TARGET_FID":23,"Layer":"TEXT_PARCEL","Text":"27","vill_code":"533017","LGD_CODE":"533017"}},{"type":"Feature","id":22,"geometry":{"type":"Polygon","coordinates":[[[77.764850195770805,20.818167540012215],[77.762949315470451,20.818550262333808],[77.76211557467937,20.817465382612735],[77.76208819057824,20.817341786453088],[77.761950869110663,20.816547271409025],[77.762286731958511,20.815945653503753],[77.762525078157751,20.815949276095605],[77.762846613615707,20.816161621804113],[77.763628802059884,20.816653470443693],[77.764376208817879,20.817166633189739],[77.764662362945373,20.817330401379373],[77.764850195770805,20.818167540012215]]]},"properties":{"FID":22,"Join_Count":2,"TARGET_FID":24,"Layer":"TEXT_PARCEL","Text":"6","vill_code":"533017","LGD_CODE":"533017"}},{"type":"Feature","id":23,"geometry":{"type":"Polygon","coordinates":[[[77.756498293451202,20.818681834296513],[77.755453704869822,20.818765335499137],[77.755515988245818,20.818583923139421],[77.755670760124403,20.818358334393007],[77.755564456601732,20.817857356296365],[77.755439632776358,20.817466849764934],[77.755408155131818,20.817402009656416],[77.75561953799351,20.817374211047458],[77.756182514890085,20.817302350714339],[77.75669137511322,20.817317153934866],[77.75699898518036,20.817380762806799],[77.757135752484558,20.817718921937171],[77.757178410167484,20.817808059271158],[77.756838389193561,20.818655877628807],[77.756498293451202,20.818681834296513]]]},"properties":{"FID":23,"Join_Count":2,"TARGET_FID":25,"Layer":"TEXT_PARCEL","Text":"25","vill_code":"533017","LGD_CODE":"533017"}},{"type":"Feature","id":24,"geometry":{"type":"Polygon","coordinates":[[[77.748164287090702,20.818006659203842],[77.74559604787288,20.818978208975796],[77.745325078003404,20.818863438905566],[77.745339447775706,20.818823137698626],[77.745335801610793,20.817951502029043],[77.745281670689479,20.816217323741878],[77.745212442577497,20.815650742476102],[77.745257451574943,20.815388534996824],[77.745430878199784,20.815118972369877],[77.745755368263204,20.814872810143385],[77.746717946466191,20.814662034520818],[77.747223921041837,20.814551239350532],[77.748233877218027,20.817997568509949],[77.748164287090702,20.818006659203842]]]},"properties":{"FID":24,"Join_Count":2,"TARGET_FID":26,"Layer":"TEXT_PARCEL","Text":"34","vill_code":"533017","LGD_CODE":"533017"}},{"type":"Feature","id":25,"geometry":{"type":"Polygon","coordinates":[[[77.761316661188317,20.818854631276107],[77.761113199934883,20.818874327756031],[77.759358838934062,20.81644220924716],[77.759194084318722,20.816270915318555],[77.760613379800589,20.815995612511468],[77.760926276313057,20.815970647196121],[77.761148755479354,20.815947974372076],[77.761968222709825,20.815812691118186],[77.762504487754072,20.815719713321144],[77.762525078157751,20.815949276095605],[77.762286731958511,20.815945653503753],[77.761950869110663,20.816547271409025],[77.76208819057824,20.817341786453088],[77.76211557467937,20.817465382612735],[77.762949315470451,20.818550262333808],[77.761316661188317,20.818854631276107]]]},"properties":{"FID":25,"Join_Count":2,"TARGET_FID":27,"Layer":"TEXT_PARCEL","Text":"4","vill_code":"533017","LGD_CODE":"533017"}},{"type":"Feature","id":26,"geometry":{"type":"Polygon","coordinates":[[[77.750010140020066,20.819387905922799],[77.749877705018108,20.81989327649914],[77.748751588980994,20.819800545688413],[77.748894361553965,20.819685163642934],[77.748164287090702,20.818006659203842],[77.748233877218027,20.817997568509949],[77.750046261447352,20.817510862991078],[77.750160169521664,20.817495125189108],[77.75051975168391,20.81744544439589],[77.750679116844793,20.817789309600712],[77.750938979112433,20.818469521700042],[77.751033634619205,20.818606080665084],[77.751058726556195,20.818642279999622],[77.751063386287782,20.818811006305168],[77.751071427752748,20.818964658412462],[77.7509695712141,20.819062963132112],[77.750307079695119,20.819143441124435],[77.750236639303324,20.819331350593178],[77.750010140020066,20.819387905922799]]]},"properties":{"FID":26,"Join_Count":2,"TARGET_FID":28,"Layer":"TEXT_PARCEL","Text":"36","vill_code":"533017","LGD_CODE":"533017"}},{"type":"Feature","id":27,"geometry":{"type":"Polygon","coordinates":[[[77.755268154685638,20.819643009099146],[77.75445763189451,20.819823279594207],[77.754368004924231,20.819654454586942],[77.754495843305946,20.819515584639507],[77.754463139841633,20.819075611560084],[77.754321415382648,20.818277889479432],[77.754257357655973,20.81829332523165],[77.754174514598631,20.817489039036889],[77.754062943525113,20.816647656183939],[77.754524372277075,20.816549728627741],[77.754785949920375,20.816679930978143],[77.755303046353532,20.817169770517783],[77.755408155131818,20.817402009656416],[77.755439632776358,20.817466849764934],[77.755564456601732,20.817857356296365],[77.755670760124403,20.818358334393007],[77.755515988245818,20.818583923139421],[77.755453704869822,20.818765335499137],[77.755498001023213,20.819604882415543],[77.755268154685638,20.819643009099146]]]},"properties":{"FID":27,"Join_Count":2,"TARGET_FID":29,"Layer":"TEXT_PARCEL","Text":"26","vill_code":"533017","LGD_CODE":"533017"}},{"type":"Feature","id":28,"geometry":{"type":"Polygon","coordinates":[[[77.751917934382988,20.819061595945492],[77.752311954450775,20.82021953599655],[77.752125161874488,20.820165079955178],[77.750580045360948,20.819966332243006],[77.749877705018108,20.81989327649914],[77.750010140020066,20.819387905922799],[77.750236639303324,20.819331350593178],[77.750307079695119,20.819143441124435],[77.7509695712141,20.819062963132112],[77.751071427752748,20.818964658412462],[77.751063386287782,20.818811006305168],[77.751058726556195,20.818642279999622],[77.751033634619205,20.818606080665084],[77.751913513710505,20.818444158044716],[77.751978292136187,20.818584728050038],[77.751983947015461,20.818716903738277],[77.751987361839156,20.818796715991251],[77.751917934382988,20.819061595945492]]]},"properties":{"FID":28,"Join_Count":2,"TARGET_FID":30,"Layer":"TEXT_PARCEL","Text":"30","vill_code":"533017","LGD_CODE":"533017"}},{"type":"Feature","id":29,"geometry":{"type":"Polygon","coordinates":[[[77.754280212766162,20.819896849158624],[77.753283887238894,20.820226800833151],[77.752918722274714,20.818648652501054],[77.753272372721653,20.818521075445855],[77.754257357655973,20.81829332523165],[77.754321415382648,20.818277889479432],[77.754463139841633,20.819075611560084],[77.754495843305946,20.819515584639507],[77.754368004924231,20.819654454586942],[77.75445763189451,20.819823279594207],[77.754280212766162,20.819896849158624]]]},"properties":{"FID":29,"Join_Count":2,"TARGET_FID":31,"Layer":"TEXT_PARCEL","Text":"28","vill_code":"533017","LGD_CODE":"533017"}},{"type":"Feature","id":30,"geometry":{"type":"Polygon","coordinates":[[[77.753283887238894,20.820226800833151],[77.753135200672432,20.820232192171297],[77.752311954450775,20.82021953599655],[77.751917934382988,20.819061595945492],[77.751987361839156,20.818796715991251],[77.751983947015461,20.818716903738277],[77.75289995515304,20.818237558251273],[77.752918722274714,20.818648652501054],[77.753283887238894,20.820226800833151]]]},"properties":{"FID":30,"Join_Count":2,"TARGET_FID":32,"Layer":"TEXT_PARCEL","Text":"29","vill_code":"533017","LGD_CODE":"533017"}},{"type":"Feature","id":31,"geometry":{"type":"Polygon","coordinates":[[[77.761899640432844,20.820294069996411],[77.761855847769752,20.82029631797873],[77.761418799401682,20.819210654200411],[77.761316661188317,20.818854631276107],[77.762949315470451,20.818550262333808],[77.764850195770805,20.818167540012215],[77.765281075341036,20.819665906629993],[77.765317111329168,20.819874801668547],[77.763405355596745,20.820193847411293],[77.761899640432844,20.820294069996411]]]},"properties":{"FID":31,"Join_Count":2,"TARGET_FID":33,"Layer":"TEXT_PARCEL","Text":"5","vill_code":"533017","LGD_CODE":"533017"}},{"type":"Feature","id":32,"geometry":{"type":"Polygon","coordinates":[[[77.761855847769752,20.82029631797873],[77.75869126152017,20.820404106101691],[77.758280619222759,20.820014936836568],[77.757593274638452,20.818674963955527],[77.757178410167484,20.817808059271158],[77.757135752484558,20.817718921937171],[77.75699898518036,20.817380762806799],[77.756784683060076,20.816647783878768],[77.758592914907538,20.816376960538495],[77.759194084318722,20.816270915318555],[77.759358838934062,20.81644220924716],[77.761113199934883,20.818874327756031],[77.761316661188317,20.818854631276107],[77.761418799401682,20.819210654200411],[77.761855847769752,20.82029631797873]]]},"properties":{"FID":32,"Join_Count":2,"TARGET_FID":34,"Layer":"TEXT_PARCEL","Text":"3","vill_code":"533017","LGD_CODE":"533017"}},{"type":"Feature","id":33,"geometry":{"type":"Polygon","coordinates":[[[77.748598610747052,20.820732457122258],[77.747826745119823,20.820957986501067],[77.746362107577951,20.820035631417973],[77.745622889895898,20.820108863470431],[77.745388742103557,20.819658048819253],[77.745147116971694,20.819289623313008],[77.745263610222267,20.819035826572406],[77.745325078003404,20.818863438905566],[77.74559604787288,20.818978208975796],[77.748164287090702,20.818006659203842],[77.748894361553965,20.819685163642934],[77.748751588980994,20.819800545688413],[77.748723305258437,20.820111008971907],[77.748766029364774,20.820504186969327],[77.748757199861984,20.820639970982317],[77.748598610747052,20.820732457122258]]]},"properties":{"FID":33,"Join_Count":2,"TARGET_FID":35,"Layer":"TEXT_PARCEL","Text":"35","vill_code":"533017","LGD_CODE":"533017"}},{"type":"Feature","id":34,"geometry":{"type":"Polygon","coordinates":[[[77.756234599200482,20.820760998780269],[77.755702895929574,20.82093102960803],[77.754890084822989,20.82036283951107],[77.75445763189451,20.819823279594207],[77.755268154685638,20.819643009099146],[77.755498001023213,20.819604882415543],[77.756566029706192,20.819427716293472],[77.756689372800466,20.819428738870965],[77.756429598680313,20.82031360921534],[77.756234599200482,20.820760998780269]]]},"properties":{"FID":34,"Join_Count":2,"TARGET_FID":36,"Layer":"TEXT_MAPIN","Text":"ग\u093E\u0902वठ\u093Eण","vill_code":"533017","LGD_CODE":"533017"}},{"type":"Feature","id":35,"geometry":{"type":"Polygon","coordinates":[[[77.758280619222759,20.820014936836568],[77.758327324659916,20.820967957485383],[77.757997667051427,20.820874040542037],[77.756429598680313,20.82031360921534],[77.756689372800466,20.819428738870965],[77.756566029706192,20.819427716293472],[77.755498001023213,20.819604882415543],[77.755453704869822,20.818765335499137],[77.756498293451202,20.818681834296513],[77.756838389193561,20.818655877628807],[77.757178410167484,20.817808059271158],[77.757593274638452,20.818674963955527],[77.758280619222759,20.820014936836568]]]},"properties":{"FID":35,"Join_Count":2,"TARGET_FID":37,"Layer":"TEXT_PARCEL","Text":"2","vill_code":"533017","LGD_CODE":"533017"}},{"type":"Feature","id":36,"geometry":{"type":"Polygon","coordinates":[[[77.753180920009356,20.820925016645859],[77.752560983419713,20.821126416375986],[77.752125161874488,20.820165079955178],[77.752311954450775,20.82021953599655],[77.753135200672432,20.820232192171297],[77.753283887238894,20.820226800833151],[77.754280212766162,20.819896849158624],[77.75445763189451,20.819823279594207],[77.754890084822989,20.82036283951107],[77.75418177961744,20.820609849595105],[77.753180920009356,20.820925016645859]]]},"properties":{"FID":36,"Join_Count":2,"TARGET_FID":38,"Layer":"TEXT_PARCEL","Text":"82","vill_code":"533017","LGD_CODE":"533017"}},{"type":"Feature","id":37,"geometry":{"type":"Polygon","coordinates":[[[77.756953310847251,20.821609739888984],[77.756145349755016,20.821982967140691],[77.755702895929574,20.82093102960803],[77.756234599200482,20.820760998780269],[77.756429598680313,20.82031360921534],[77.757997667051427,20.820874040542037],[77.758327324659916,20.820967957485383],[77.756953310847251,20.821609739888984]]]},"properties":{"FID":37,"Join_Count":1,"TARGET_FID":39,"Layer":"TEXT_PARCEL","Text":"1","vill_code":"533017","LGD_CODE":"533017"}},{"type":"Feature","id":38,"geometry":{"type":"Polygon","coordinates":[[[77.760716833883137,20.821736503759499],[77.759622336766554,20.82211229771692],[77.759466757565022,20.82182803459505],[77.758808955349238,20.820505327280646],[77.75869126152017,20.820404106101691],[77.761855847769752,20.82029631797873],[77.761899640432844,20.820294069996411],[77.763405355596745,20.820193847411293],[77.765317111329168,20.819874801668547],[77.765374268635767,20.820206136395907],[77.765535465475921,20.820875785788253],[77.765144853660871,20.820929899414313],[77.764790262126226,20.820973081228519],[77.764515123893176,20.821141848714468],[77.764334687298174,20.821989944147187],[77.763572003621547,20.822028236837884],[77.760949157973542,20.82166521964761],[77.760716833883137,20.821736503759499]]]},"properties":{"FID":38,"Join_Count":2,"TARGET_FID":40,"Layer":"TEXT_PARCEL","Text":"74","vill_code":"533017","LGD_CODE":"533017"}},{"type":"Feature","id":39,"geometry":{"type":"Polygon","coordinates":[[[77.755919741268414,20.822102915085537],[77.75504484638212,20.822512967946665],[77.75418177961744,20.820609849595105],[77.754890084822989,20.82036283951107],[77.755702895929574,20.82093102960803],[77.756145349755016,20.821982967140691],[77.755919741268414,20.822102915085537]]]},"properties":{"FID":39,"Join_Count":2,"TARGET_FID":41,"Layer":"TEXT_PARCEL","Text":"83","vill_code":"533017","LGD_CODE":"533017"}},{"type":"Feature","id":40,"geometry":{"type":"Polygon","coordinates":[[[77.753791642234901,20.822856221374174],[77.75327641262308,20.822973917235572],[77.752560983419713,20.821126416375986],[77.753180920009356,20.820925016645859],[77.75418177961744,20.820609849595105],[77.75504484638212,20.822512967946665],[77.754911565862386,20.822574210422463],[77.753791642234901,20.822856221374174]]]},"properties":{"FID":40,"Join_Count":2,"TARGET_FID":42,"Layer":"TEXT_PARCEL","Text":"81","vill_code":"533017","LGD_CODE":"533017"}},{"type":"Feature","id":41,"geometry":{"type":"Polygon","coordinates":[[[77.759622336766554,20.82211229771692],[77.756341453998289,20.822943419701197],[77.756297682595502,20.822592823954494],[77.756145349755016,20.821982967140691],[77.756953310847251,20.821609739888984],[77.758327324659916,20.820967957485383],[77.758280619222759,20.820014936836568],[77.75869126152017,20.820404106101691],[77.758808955349238,20.820505327280646],[77.759466757565022,20.82182803459505],[77.759622336766554,20.82211229771692]]]},"properties":{"FID":41,"Join_Count":2,"TARGET_FID":43,"Layer":"TEXT_PARCEL","Text":"78","vill_code":"533017","LGD_CODE":"533017"}},{"type":"Feature","id":42,"geometry":{"type":"Polygon","coordinates":[[[77.749321163375527,20.823036764671539],[77.748144632289254,20.823227354107253],[77.747609953454301,20.822854672470651],[77.747388679078554,20.822849467962239],[77.746892815034698,20.822976046631943],[77.746817798709415,20.82281064726655],[77.746521062621682,20.821732937417792],[77.746407103323207,20.821586484497079],[77.74592386251409,20.82068833216951],[77.745622889895898,20.820108863470431],[77.746362107577951,20.820035631417973],[77.747826745119823,20.820957986501067],[77.748598610747052,20.820732457122258],[77.74898810083981,20.821810148088112],[77.749627563575999,20.822963380967586],[77.749321163375527,20.823036764671539]]]},"properties":{"FID":42,"Join_Count":2,"TARGET_FID":44,"Layer":"TEXT_PARCEL","Text":"38","vill_code":"533017","LGD_CODE":"533017"}},{"type":"Feature","id":43,"geometry":{"type":"Polygon","coordinates":[[[77.751106207553192,20.823391428106817],[77.75002038478236,20.823734141851631],[77.749627563575999,20.822963380967586],[77.74898810083981,20.821810148088112],[77.748598610747052,20.820732457122258],[77.748757199861984,20.820639970982317],[77.748766029364774,20.820504186969327],[77.748723305258437,20.820111008971907],[77.748751588980994,20.819800545688413],[77.749877705018108,20.81989327649914],[77.750580045360948,20.819966332243006],[77.752125161874488,20.820165079955178],[77.752560983419713,20.821126416375986],[77.75327641262308,20.822973917235572],[77.751106207553192,20.823391428106817]]]},"properties":{"FID":43,"Join_Count":2,"TARGET_FID":45,"Layer":"TEXT_PARCEL","Text":"37","vill_code":"533017","LGD_CODE":"533017"}},{"type":"Feature","id":44,"geometry":{"type":"Polygon","coordinates":[[[77.761977672428927,20.823885787753468],[77.761848864782024,20.823953176389491],[77.760716833883137,20.821736503759499],[77.760949157973542,20.82166521964761],[77.763572003621547,20.822028236837884],[77.764334687298174,20.821989944147187],[77.764236022537773,20.822719607910763],[77.764397170277448,20.823390768715186],[77.763950753849798,20.82343465211844],[77.762960246099254,20.823671866766666],[77.761977672428927,20.823885787753468]]]},"properties":{"FID":44,"Join_Count":2,"TARGET_FID":46,"Layer":"TEXT_PARCEL","Text":"75","vill_code":"533017","LGD_CODE":"533017"}},{"type":"Feature","id":45,"geometry":{"type":"Polygon","coordinates":[[[77.76675628981863,20.823999073277964],[77.766241342679308,20.824163975755521],[77.765487372341553,20.823736795921214],[77.764548506757649,20.82393006227656],[77.764476391031508,20.823708159702132],[77.764397170277448,20.823390768715186],[77.764236022537773,20.822719607910763],[77.764334687298174,20.821989944147187],[77.764515123893176,20.821141848714468],[77.764790262126226,20.820973081228519],[77.765144853660871,20.820929899414313],[77.765535465475921,20.820875785788253],[77.765788249885816,20.821757210958118],[77.766376971808668,20.822926530184972],[77.76675628981863,20.823999073277964]]]},"properties":{"FID":45,"Join_Count":2,"TARGET_FID":47,"Layer":"TEXT_PARCEL","Text":"73","vill_code":"533017","LGD_CODE":"533017"}},{"type":"Feature","id":46,"geometry":{"type":"Polygon","coordinates":[[[77.748199782955908,20.82439439683889],[77.747666148380532,20.824601666301476],[77.747776657481779,20.824420443620536],[77.747805420478102,20.824186352416227],[77.747501670339943,20.823945648229877],[77.747230640250407,20.823553888090803],[77.746966227124986,20.823137907407951],[77.746892815034698,20.822976046631943],[77.747388679078554,20.822849467962239],[77.747609953454301,20.822854672470651],[77.748144632289254,20.823227354107253],[77.749321163375527,20.823036764671539],[77.749627563575999,20.822963380967586],[77.75002038478236,20.823734141851631],[77.74923817769465,20.824015032167217],[77.748199782955908,20.82439439683889]]]},"properties":{"FID":46,"Join_Count":2,"TARGET_FID":48,"Layer":"TEXT_PARCEL","Text":"39","vill_code":"533017","LGD_CODE":"533017"}},{"type":"Feature","id":47,"geometry":{"type":"Polygon","coordinates":[[[77.761101925049161,20.824333315506703],[77.760912771277916,20.824402647665401],[77.760807824349087,20.824168696318825],[77.759622336766554,20.82211229771692],[77.760716833883137,20.821736503759499],[77.761848864782024,20.823953176389491],[77.761101925049161,20.824333315506703]]]},"properties":{"FID":47,"Join_Count":2,"TARGET_FID":49,"Layer":"TEXT_PARCEL","Text":"76","vill_code":"533017","LGD_CODE":"533017"}},{"type":"Feature","id":48,"geometry":{"type":"Polygon","coordinates":[[[77.747110061188422,20.824897137896006],[77.7469985760264,20.824943121666681],[77.746954839986728,20.824852750184228],[77.746258011965864,20.823741960374175],[77.74539133445596,20.822400497909459],[77.74459749151157,20.820759970621204],[77.744388570308132,20.820323191538101],[77.744424292927889,20.820237854091918],[77.744477927933886,20.820109729280432],[77.744880343663482,20.819709722861699],[77.74506949594803,20.819478795591774],[77.745147116971694,20.819289623313008],[77.745388742103557,20.819658048819253],[77.745622889895898,20.820108863470431],[77.74592386251409,20.82068833216951],[77.746407103323207,20.821586484497079],[77.746521062621682,20.821732937417792],[77.746817798709415,20.82281064726655],[77.746892815034698,20.822976046631943],[77.746966227124986,20.823137907407951],[77.747230640250407,20.823553888090803],[77.747501670339943,20.823945648229877],[77.747805420478102,20.824186352416227],[77.747776657481779,20.824420443620536],[77.747666148380532,20.824601666301476],[77.747110061188422,20.824897137896006]]]},"properties":{"FID":48,"Join_Count":2,"TARGET_FID":50,"Layer":"TEXT_PARCEL","Text":"40","vill_code":"533017","LGD_CODE":"533017"}},{"type":"Feature","id":49,"geometry":{"type":"Polygon","coordinates":[[[77.757360285313439,20.825358590428824],[77.757164188503623,20.825392017933883],[77.756711409026423,20.824099451777677],[77.756368736814537,20.823161946017162],[77.756341453998289,20.822943419701197],[77.759622336766554,20.82211229771692],[77.760807824349087,20.824168696318825],[77.760525829668751,20.824281668678029],[77.759508621826186,20.824557807880645],[77.758433823786518,20.824978404342993],[77.757360285313439,20.825358590428824]]]},"properties":{"FID":49,"Join_Count":2,"TARGET_FID":51,"Layer":"TEXT_PARCEL","Text":"77","vill_code":"533017","LGD_CODE":"533017"}},{"type":"Feature","id":50,"geometry":{"type":"Polygon","coordinates":[[[77.756836693762665,20.825221020151503],[77.755976257011852,20.825416970182104],[77.75571600633252,20.82539700317168],[77.75504484638212,20.822512967946665],[77.755919741268414,20.822102915085537],[77.756145349755016,20.821982967140691],[77.756297682595502,20.822592823954494],[77.756341453998289,20.822943419701197],[77.756368736814537,20.823161946017162],[77.756711409026423,20.824099451777677],[77.757164188503623,20.825392017933883],[77.756836693762665,20.825221020151503]]]},"properties":{"FID":50,"Join_Count":2,"TARGET_FID":52,"Layer":"TEXT_PARCEL","Text":"79","vill_code":"533017","LGD_CODE":"533017"}},{"type":"Feature","id":51,"geometry":{"type":"Polygon","coordinates":[[[77.752165831631913,20.825420770366847],[77.751427361017576,20.825546279024284],[77.751154554349412,20.825535699932868],[77.750499381588938,20.825459652708471],[77.750132631648881,20.825429989438604],[77.749801470536823,20.825098115659767],[77.748948786871296,20.824664219003086],[77.748562351964267,20.824494124021726],[77.748200969687716,20.824586480456141],[77.747666148380532,20.824601666301476],[77.748199782955908,20.82439439683889],[77.74923817769465,20.824015032167217],[77.75002038478236,20.823734141851631],[77.751106207553192,20.823391428106817],[77.752305625860473,20.824305628009764],[77.753400688551892,20.825137268090717],[77.75309683794616,20.825238266031285],[77.752165831631913,20.825420770366847]]]},"properties":{"FID":51,"Join_Count":2,"TARGET_FID":53,"Layer":"TEXT_PARCEL","Text":"43","vill_code":"533017","LGD_CODE":"533017"}},{"type":"Feature","id":52,"geometry":{"type":"Polygon","coordinates":[[[77.75461050502193,20.826049993562219],[77.754389383913619,20.826113125304904],[77.753556445019171,20.825251654963267],[77.753400688551892,20.825137268090717],[77.752305625860473,20.824305628009764],[77.751106207553192,20.823391428106817],[77.75327641262308,20.822973917235572],[77.753791642234901,20.822856221374174],[77.754911565862386,20.822574210422463],[77.75504484638212,20.822512967946665],[77.75571600633252,20.82539700317168],[77.755376742667721,20.8258503661228],[77.75461050502193,20.826049993562219]]]},"properties":{"FID":52,"Join_Count":2,"TARGET_FID":54,"Layer":"TEXT_PARCEL","Text":"80","vill_code":"533017","LGD_CODE":"533017"}},{"type":"Feature","id":53,"geometry":{"type":"Polygon","coordinates":[[[77.76223940359246,20.82637301047383],[77.76196527458265,20.826469190344689],[77.76135803714439,20.825250277970145],[77.760912771277916,20.824402647665401],[77.761101925049161,20.824333315506703],[77.761848864782024,20.823953176389491],[77.761977672428927,20.823885787753468],[77.762960246099254,20.823671866766666],[77.763950753849798,20.82343465211844],[77.764397170277448,20.823390768715186],[77.764476391031508,20.823708159702132],[77.764548506757649,20.82393006227656],[77.764923547906506,20.824916033903797],[77.765431218727073,20.826379944839623],[77.763982821521779,20.8263968040559],[77.76223940359246,20.82637301047383]]]},"properties":{"FID":53,"Join_Count":2,"TARGET_FID":55,"Layer":"TEXT_PARCEL","Text":"70","vill_code":"533017","LGD_CODE":"533017"}},{"type":"Feature","id":54,"geometry":{"type":"Polygon","coordinates":[[[77.748708717091532,20.826663249011045],[77.747975355759692,20.827029543493641],[77.747865003663534,20.826733408415453],[77.7469985760264,20.824943121666681],[77.747110061188422,20.824897137896006],[77.747666148380532,20.824601666301476],[77.748200969687716,20.824586480456141],[77.748329563860594,20.824872710633255],[77.748850008702632,20.826402570831888],[77.748826958436396,20.826612886280738],[77.748708717091532,20.826663249011045]]]},"properties":{"FID":54,"Join_Count":2,"TARGET_FID":56,"Layer":"TEXT_PARCEL","Text":"41","vill_code":"533017","LGD_CODE":"533017"}},{"type":"Feature","id":55,"geometry":{"type":"Polygon","coordinates":[[[77.76196527458265,20.826469190344689],[77.760981666254182,20.826920363980879],[77.760678425663301,20.826542654183879],[77.760246046541667,20.825765093486226],[77.760057696485291,20.825594677485558],[77.75922347858328,20.825752282105462],[77.758389257488773,20.825909882864273],[77.757731590855286,20.826442768730292],[77.757603871454577,20.826711417224942],[77.757523207035149,20.826458362155801],[77.757164188503623,20.825392017933883],[77.757360285313439,20.825358590428824],[77.758433823786518,20.824978404342993],[77.759508621826186,20.824557807880645],[77.760525829668751,20.824281668678029],[77.760807824349087,20.824168696318825],[77.760912771277916,20.824402647665401],[77.76135803714439,20.825250277970145],[77.76196527458265,20.826469190344689]]]},"properties":{"FID":55,"Join_Count":2,"TARGET_FID":57,"Layer":"TEXT_PARCEL","Text":"69","vill_code":"533017","LGD_CODE":"533017"}},{"type":"Feature","id":56,"geometry":{"type":"Polygon","coordinates":[[[77.757178922486972,20.826824957472798],[77.755524379832821,20.827288864600206],[77.755334118470202,20.827062989710797],[77.754389383913619,20.826113125304904],[77.75461050502193,20.826049993562219],[77.755376742667721,20.8258503661228],[77.75571600633252,20.82539700317168],[77.755976257011852,20.825416970182104],[77.756836693762665,20.825221020151503],[77.757164188503623,20.825392017933883],[77.757523207035149,20.826458362155801],[77.757603871454577,20.826711417224942],[77.757178922486972,20.826824957472798]]]},"properties":{"FID":56,"Join_Count":2,"TARGET_FID":58,"Layer":"TEXT_PARCEL","Text":"67","vill_code":"533017","LGD_CODE":"533017"}},{"type":"Feature","id":57,"geometry":{"type":"Polygon","coordinates":[[[77.760437514778246,20.826698854845009],[77.758044932728183,20.827672575559575],[77.757843048789766,20.827284964659867],[77.757617897592226,20.826755418473958],[77.757603871454577,20.826711417224942],[77.757731590855286,20.826442768730292],[77.758389257488773,20.825909882864273],[77.75922347858328,20.825752282105462],[77.760057696485291,20.825594677485558],[77.760246046541667,20.825765093486226],[77.760678425663301,20.826542654183879],[77.76049762684859,20.826645573564573],[77.760437514778246,20.826698854845009]]]},"properties":{"FID":57,"Join_Count":2,"TARGET_FID":59,"Layer":"TEXT_PARCEL","Text":"68","vill_code":"533017","LGD_CODE":"533017"}},{"type":"Feature","id":58,"geometry":{"type":"Polygon","coordinates":[[[77.752322214202593,20.827627061346313],[77.752320051388125,20.827772235501378],[77.750512909409508,20.827384732772789],[77.750362374763299,20.826858251940006],[77.749361903203194,20.826730084481579],[77.748826958436396,20.826612886280738],[77.748850008702632,20.826402570831888],[77.748329563860594,20.824872710633255],[77.748200969687716,20.824586480456141],[77.748562351964267,20.824494124021726],[77.748948786871296,20.824664219003086],[77.749801470536823,20.825098115659767],[77.750132631648881,20.825429989438604],[77.750499381588938,20.825459652708471],[77.751154554349412,20.825535699932868],[77.751427361017576,20.825546279024284],[77.752267120815162,20.82653413600508],[77.7522793947292,20.82675222117075],[77.752322214202593,20.827627061346313]]]},"properties":{"FID":58,"Join_Count":2,"TARGET_FID":60,"Layer":"TEXT_PARCEL","Text":"42","vill_code":"533017","LGD_CODE":"533017"}},{"type":"Feature","id":59,"geometry":{"type":"Polygon","coordinates":[[[77.76766592298226,20.82670286440505],[77.766627517860343,20.827838613776684],[77.766335027107161,20.827530823801258],[77.765431218727073,20.826379944839623],[77.764923547906506,20.824916033903797],[77.764548506757649,20.82393006227656],[77.765487372341553,20.823736795921214],[77.766241342679308,20.824163975755521],[77.76675628981863,20.823999073277964],[77.767598639513324,20.826024758919871],[77.767824155180804,20.826562395317758],[77.76766592298226,20.82670286440505]]]},"properties":{"FID":59,"Join_Count":2,"TARGET_FID":61,"Layer":"TEXT_PARCEL","Text":"72","vill_code":"533017","LGD_CODE":"533017"}},{"type":"Feature","id":60,"geometry":{"type":"Polygon","coordinates":[[[77.755172855894173,20.828678274522208],[77.754888096828992,20.828787976254425],[77.754541582835898,20.828744040545867],[77.753898789320999,20.828085020978261],[77.753539783941733,20.827277651890004],[77.752494898978128,20.826753920174468],[77.752267120815162,20.82653413600508],[77.751427361017576,20.825546279024284],[77.752165831631913,20.825420770366847],[77.75309683794616,20.825238266031285],[77.753400688551892,20.825137268090717],[77.753556445019171,20.825251654963267],[77.754389383913619,20.826113125304904],[77.755334118470202,20.827062989710797],[77.755524379832821,20.827288864600206],[77.755582328606138,20.827694906935719],[77.755680341235987,20.828122851026752],[77.755646444179632,20.828384932257766],[77.755420700507088,20.82855668510593],[77.755172855894173,20.828678274522208]]]},"properties":{"FID":60,"Join_Count":2,"TARGET_FID":62,"Layer":"TEXT_PARCEL","Text":"44","vill_code":"533017","LGD_CODE":"533017"}},{"type":"Feature","id":61,"geometry":{"type":"Polygon","coordinates":[[[77.766041669259849,20.828479236979391],[77.764290907762003,20.829007184989287],[77.763519708203873,20.828980176641704],[77.763311709247091,20.828931279296945],[77.762521789911617,20.826926329053411],[77.76223940359246,20.82637301047383],[77.763982821521779,20.8263968040559],[77.765431218727073,20.826379944839623],[77.766335027107161,20.827530823801258],[77.766627517860343,20.827838613776684],[77.766041669259849,20.828479236979391]]]},"properties":{"FID":61,"Join_Count":2,"TARGET_FID":63,"Layer":"TEXT_PARCEL","Text":"71","vill_code":"533017","LGD_CODE":"533017"}},{"type":"Feature","id":62,"geometry":{"type":"Polygon","coordinates":[[[77.752330725084633,20.828065219978242],[77.752321376132443,20.829593270850054],[77.75041885543466,20.829358129299003],[77.748814146263086,20.829166792918205],[77.748590774282277,20.828578276875199],[77.748000660311092,20.827097451584272],[77.747975355759692,20.827029543493641],[77.748708717091532,20.826663249011045],[77.748826958436396,20.826612886280738],[77.749361903203194,20.826730084481579],[77.750362374763299,20.826858251940006],[77.750512909409508,20.827384732772789],[77.752320051388125,20.827772235501378],[77.752330725084633,20.828065219978242]]]},"properties":{"FID":62,"Join_Count":2,"TARGET_FID":64,"Layer":"TEXT_PARCEL","Text":"46","vill_code":"533017","LGD_CODE":"533017"}},{"type":"Feature","id":63,"geometry":{"type":"Polygon","coordinates":[[[77.755365051913714,20.829798553770143],[77.754038879845524,20.829969366022148],[77.753864411166802,20.82994911967797],[77.753058334833455,20.829753317974479],[77.752321376132443,20.829593270850054],[77.752330725084633,20.828065219978242],[77.752320051388125,20.827772235501378],[77.752322214202593,20.827627061346313],[77.7522793947292,20.82675222117075],[77.752267120815162,20.82653413600508],[77.752494898978128,20.826753920174468],[77.753539783941733,20.827277651890004],[77.753898789320999,20.828085020978261],[77.754541582835898,20.828744040545867],[77.754888096828992,20.828787976254425],[77.755172855894173,20.828678274522208],[77.755450218549512,20.828991073158441],[77.755803160607272,20.829343902923888],[77.755973758829768,20.829523328465854],[77.756008926566381,20.829733161116092],[77.755365051913714,20.829798553770143]]]},"properties":{"FID":63,"Join_Count":2,"TARGET_FID":65,"Layer":"TEXT_PARCEL","Text":"45","vill_code":"533017","LGD_CODE":"533017"}},{"type":"Feature","id":64,"geometry":{"type":"Polygon","coordinates":[[[77.759448039124365,20.829966293353642],[77.759128743307855,20.830022836871589],[77.758926947851506,20.829624213277146],[77.758333997689334,20.828341203560871],[77.758044932728183,20.827672575559575],[77.760437514778246,20.826698854845009],[77.76049762684859,20.826645573564573],[77.760678425663301,20.826542654183879],[77.760981666254182,20.826920363980879],[77.761167383311559,20.82739024362186],[77.761057288783007,20.828190329553138],[77.760767896028881,20.828961548374725],[77.760509665570211,20.829569020453441],[77.759448039124365,20.829966293353642]]]},"properties":{"FID":64,"Join_Count":2,"TARGET_FID":66,"Layer":"TEXT_PARCEL","Text":"65","vill_code":"533017","LGD_CODE":"533017"}},{"type":"Feature","id":65,"geometry":{"type":"Polygon","coordinates":[[[77.756435106143101,20.830482090725422],[77.756099205639444,20.830541767854452],[77.756008926566381,20.829733161116092],[77.755973758829768,20.829523328465854],[77.755803160607272,20.829343902923888],[77.755450218549512,20.828991073158441],[77.755172855894173,20.828678274522208],[77.755420700507088,20.82855668510593],[77.755646444179632,20.828384932257766],[77.755680341235987,20.828122851026752],[77.755582328606138,20.827694906935719],[77.755524379832821,20.827288864600206],[77.757178922486972,20.826824957472798],[77.757603871454577,20.826711417224942],[77.757617897592226,20.826755418473958],[77.757843048789766,20.827284964659867],[77.758044932728183,20.827672575559575],[77.758333997689334,20.828341203560871],[77.758926947851506,20.829624213277146],[77.759128743307855,20.830022836871589],[77.759061128381518,20.83001841017262],[77.75808175553982,20.830185079612452],[77.757738312772773,20.830249501826046],[77.756435106143101,20.830482090725422]]]},"properties":{"FID":65,"Join_Count":2,"TARGET_FID":67,"Layer":"TEXT_PARCEL","Text":"66","vill_code":"533017","LGD_CODE":"533017"}},{"type":"Feature","id":66,"geometry":{"type":"Polygon","coordinates":[[[77.754972891872313,20.830636965019323],[77.753401459377784,20.830671806545364],[77.753031919832026,20.83065239815642],[77.753058334833455,20.829753317974479],[77.753864411166802,20.82994911967797],[77.754038879845524,20.829969366022148],[77.755365051913714,20.829798553770143],[77.756008926566381,20.829733161116092],[77.756099205639444,20.830541767854452],[77.755975930878918,20.830563669335856],[77.754972891872313,20.830636965019323]]]},"properties":{"FID":66,"Join_Count":2,"TARGET_FID":68,"Layer":"TEXT_PARCEL","Text":"48","vill_code":"533017","LGD_CODE":"533017"}},{"type":"Feature","id":67,"geometry":{"type":"Polygon","coordinates":[[[77.753031919832026,20.83065239815642],[77.751037663486784,20.83072836921005],[77.750665365620605,20.830708379770158],[77.75058733933075,20.830704190080731],[77.749393043348888,20.830602266356053],[77.749351443440503,20.83048165833755],[77.749257457457006,20.830209169058609],[77.748862087720909,20.829293102572134],[77.748814146263086,20.829166792918205],[77.75041885543466,20.829358129299003],[77.752321376132443,20.829593270850054],[77.753058334833455,20.829753317974479],[77.753031919832026,20.83065239815642]]]},"properties":{"FID":67,"Join_Count":2,"TARGET_FID":69,"Layer":"TEXT_PARCEL","Text":"47","vill_code":"533017","LGD_CODE":"533017"}},{"type":"Feature","id":68,"geometry":{"type":"Polygon","coordinates":[[[77.763335681416649,20.8303679442792],[77.761015284032197,20.830716432077146],[77.760731762498594,20.829995878912257],[77.760509665570211,20.829569020453441],[77.760767896028881,20.828961548374725],[77.761057288783007,20.828190329553138],[77.761167383311559,20.82739024362186],[77.760981666254182,20.826920363980879],[77.76196527458265,20.826469190344689],[77.76223940359246,20.82637301047383],[77.762521789911617,20.826926329053411],[77.763311709247091,20.828931279296945],[77.763270525779859,20.828960338444393],[77.76305525769186,20.829081256038744],[77.763145309575961,20.82953170596701],[77.763335681416649,20.8303679442792]]]},"properties":{"FID":68,"Join_Count":2,"TARGET_FID":70,"Layer":"TEXT_PARCEL","Text":"64","vill_code":"533017","LGD_CODE":"533017"}},{"type":"Feature","id":69,"geometry":{"type":"Polygon","coordinates":[[[77.764860609630006,20.829810654421362],[77.763441420325279,20.831513203329809],[77.763335681416649,20.8303679442792],[77.763145309575961,20.82953170596701],[77.76305525769186,20.829081256038744],[77.763270525779859,20.828960338444393],[77.763311709247091,20.828931279296945],[77.763519708203873,20.828980176641704],[77.764290907762003,20.829007184989287],[77.766041669259849,20.828479236979391],[77.765555167099606,20.828996940821018],[77.764860609630006,20.829810654421362]]]},"properties":{"FID":69,"Join_Count":2,"TARGET_FID":71,"Layer":"TEXT_PARCEL","Text":"63","vill_code":"533017","LGD_CODE":"533017"}},{"type":"Feature","id":70,"geometry":{"type":"Polygon","coordinates":[[[77.767756271114251,20.830279797550304],[77.766861497143921,20.831516010486727],[77.76533296900125,20.830356788931979],[77.766633901757359,20.828761908618805],[77.767992733774875,20.827118316616833],[77.768195885722477,20.828199551254897],[77.768450002874772,20.829360175155887],[77.767756271114251,20.830279797550304]]]},"properties":{"FID":70,"Join_Count":2,"TARGET_FID":72,"Layer":"TEXT_PARCEL","Text":"62","vill_code":"533017","LGD_CODE":"533017"}},{"type":"Feature","id":71,"geometry":{"type":"Polygon","coordinates":[[[77.753107496468886,20.832817639978234],[77.749935746178934,20.83328748344988],[77.749808176931936,20.832514111746509],[77.749621092421293,20.831595269344255],[77.749419694762864,20.830679536181194],[77.749393043348888,20.830602266356053],[77.75058733933075,20.830704190080731],[77.750665365620605,20.830708379770158],[77.753107496468886,20.832817639978234]]]},"properties":{"FID":71,"Join_Count":2,"TARGET_FID":73,"Layer":"TEXT_PARCEL","Text":"50","vill_code":"533017","LGD_CODE":"533017"}},{"type":"Feature","id":72,"geometry":{"type":"Polygon","coordinates":[[[77.758335782328658,20.832214711673767],[77.758155293648912,20.833308990215073],[77.756985146554669,20.833120902477194],[77.75644210905844,20.83306430524965],[77.756404557234546,20.833000539470724],[77.756069609269105,20.832460430654262],[77.755473523684472,20.831450145854774],[77.755123428182799,20.830825650887952],[77.754972891872313,20.830636965019323],[77.755975930878918,20.830563669335856],[77.756099205639444,20.830541767854452],[77.756435106143101,20.830482090725422],[77.757738312772773,20.830249501826046],[77.75808175553982,20.830185079612452],[77.758461861821573,20.831222078652278],[77.758335782328658,20.832214711673767]]]},"properties":{"FID":72,"Join_Count":2,"TARGET_FID":74,"Layer":"TEXT_PARCEL","Text":"54","vill_code":"533017","LGD_CODE":"533017"}},{"type":"Feature","id":73,"geometry":{"type":"Polygon","coordinates":[[[77.756404557234546,20.833000539470724],[77.754560705301017,20.833990431903803],[77.753107496468886,20.832817639978234],[77.750665365620605,20.830708379770158],[77.751037663486784,20.83072836921005],[77.753031919832026,20.83065239815642],[77.753401459377784,20.830671806545364],[77.754972891872313,20.830636965019323],[77.755123428182799,20.830825650887952],[77.755473523684472,20.831450145854774],[77.756069609269105,20.832460430654262],[77.756404557234546,20.833000539470724]]]},"properties":{"FID":73,"Join_Count":2,"TARGET_FID":75,"Layer":"TEXT_PARCEL","Text":"49","vill_code":"533017","LGD_CODE":"533017"}},{"type":"Feature","id":74,"geometry":{"type":"Polygon","coordinates":[[[77.761956776959522,20.833330284653734],[77.761301950560579,20.834110377201998],[77.760847120933022,20.832838647888263],[77.76067070835272,20.832316622246957],[77.761015284032197,20.830716432077146],[77.763335681416649,20.8303679442792],[77.763441420325279,20.831513203329809],[77.761956776959522,20.833330284653734]]]},"properties":{"FID":74,"Join_Count":2,"TARGET_FID":76,"Layer":"TEXT_PARCEL","Text":"57","vill_code":"533017","LGD_CODE":"533017"}},{"type":"Feature","id":75,"geometry":{"type":"Polygon","coordinates":[[[77.761301950560579,20.834110377201998],[77.760912236242632,20.834574638066279],[77.759128743307855,20.830022836871589],[77.759448039124365,20.829966293353642],[77.760509665570211,20.829569020453441],[77.760731762498594,20.829995878912257],[77.761015284032197,20.830716432077146],[77.76067070835272,20.832316622246957],[77.760847120933022,20.832838647888263],[77.761301950560579,20.834110377201998]]]},"properties":{"FID":75,"Join_Count":2,"TARGET_FID":77,"Layer":"TEXT_PARCEL","Text":"56","vill_code":"533017","LGD_CODE":"533017"}},{"type":"Feature","id":76,"geometry":{"type":"Polygon","coordinates":[[[77.7668370643636,20.834755079912249],[77.766662389174925,20.834983382544245],[77.766237369261276,20.833613541144278],[77.765742578815463,20.832086129392383],[77.766861497143921,20.831516010486727],[77.767756271114251,20.830279797550304],[77.768450002874772,20.829360175155887],[77.769022964028338,20.831666544752274],[77.769132592520222,20.831996464815031],[77.768638715716122,20.832566793817055],[77.7668370643636,20.834755079912249]]]},"properties":{"FID":76,"Join_Count":2,"TARGET_FID":78,"Layer":"TEXT_PARCEL","Text":"61","vill_code":"533017","LGD_CODE":"533017"}},{"type":"Feature","id":77,"geometry":{"type":"Polygon","coordinates":[[[77.759519337765255,20.835062044668017],[77.75787770223674,20.835157922994242],[77.758155293648912,20.833308990215073],[77.758335782328658,20.832214711673767],[77.758461861821573,20.831222078652278],[77.75808175553982,20.830185079612452],[77.759061128381518,20.83001841017262],[77.759128743307855,20.830022836871589],[77.760912236242632,20.834574638066279],[77.760567999478411,20.834984719615839],[77.759519337765255,20.835062044668017]]]},"properties":{"FID":77,"Join_Count":2,"TARGET_FID":79,"Layer":"TEXT_PARCEL","Text":"55","vill_code":"533017","LGD_CODE":"533017"}},{"type":"Feature","id":78,"geometry":{"type":"Polygon","coordinates":[[[77.75787770223674,20.835157922994242],[77.757650222952535,20.835170969748802],[77.75644210905844,20.83306430524965],[77.756985146554669,20.833120902477194],[77.758155293648912,20.833308990215073],[77.75787770223674,20.835157922994242]]]},"properties":{"FID":78,"Join_Count":2,"TARGET_FID":80,"Layer":"TEXT_PARCEL","Text":"53","vill_code":"533017","LGD_CODE":"533017"}},{"type":"Feature","id":79,"geometry":{"type":"Polygon","coordinates":[[[77.75699056912363,20.835208800624585],[77.755670134967971,20.835267051686095],[77.755156967611384,20.834653257906719],[77.754560705301017,20.833990431903803],[77.756404557234546,20.833000539470724],[77.75644210905844,20.83306430524965],[77.757650222952535,20.835170969748802],[77.75699056912363,20.835208800624585]]]},"properties":{"FID":79,"Join_Count":2,"TARGET_FID":81,"Layer":"TEXT_PARCEL","Text":"52","vill_code":"533017","LGD_CODE":"533017"}},{"type":"Feature","id":80,"geometry":{"type":"Polygon","coordinates":[[[77.76203372953249,20.834397693939081],[77.761340893383405,20.83520819321711],[77.760567999478411,20.834984719615839],[77.760912236242632,20.834574638066279],[77.761301950560579,20.834110377201998],[77.761956776959522,20.833330284653734],[77.763441420325279,20.831513203329809],[77.764860609630006,20.829810654421362],[77.765555167099606,20.828996940821018],[77.766041669259849,20.828479236979391],[77.766627517860343,20.827838613776684],[77.76766592298226,20.82670286440505],[77.767824155180804,20.826562395317758],[77.767992733774875,20.827118316616833],[77.766633901757359,20.828761908618805],[77.76533296900125,20.830356788931979],[77.764305307473933,20.831620321537386],[77.764247103232535,20.831691953339966],[77.76203372953249,20.834397693939081]]]},"properties":{"FID":80,"Join_Count":4,"TARGET_FID":82,"Layer":"TEXT_MAPIN","Text":"र\u0947","vill_code":"533017","LGD_CODE":"533017"}},{"type":"Feature","id":81,"geometry":{"type":"Polygon","coordinates":[[[77.755303583924757,20.83528322016808],[77.752865785311755,20.835357744607503],[77.75054815375033,20.835288006570668],[77.750493580867797,20.83529682067979],[77.750250769674452,20.835156875376693],[77.750122424050318,20.834426204797708],[77.75005425496191,20.834010027418838],[77.749958203973293,20.83342362884046],[77.749935746178934,20.83328748344988],[77.753107496468886,20.832817639978234],[77.754560705301017,20.833990431903803],[77.755156967611384,20.834653257906719],[77.755670134967971,20.835267051686095],[77.755303583924757,20.83528322016808]]]},"properties":{"FID":81,"Join_Count":2,"TARGET_FID":83,"Layer":"TEXT_PARCEL","Text":"51","vill_code":"533017","LGD_CODE":"533017"}},{"type":"Feature","id":82,"geometry":{"type":"Polygon","coordinates":[[[77.766662389174925,20.834983382544245],[77.766530467732011,20.835678505105811],[77.766341962689125,20.835432583940214],[77.764247103232535,20.831691953339966],[77.764305307473933,20.831620321537386],[77.76533296900125,20.830356788931979],[77.766861497143921,20.831516010486727],[77.765742578815463,20.832086129392383],[77.766237369261276,20.833613541144278],[77.766662389174925,20.834983382544245]]]},"properties":{"FID":82,"Join_Count":2,"TARGET_FID":84,"Layer":"TEXT_PARCEL","Text":"59","vill_code":"533017","LGD_CODE":"533017"}},{"type":"Feature","id":83,"geometry":{"type":"Polygon","coordinates":[[[77.766530467732011,20.835678505105811],[77.766503507810185,20.835801923351639],[77.764893692552462,20.835557115881297],[77.763311593595219,20.835404132423577],[77.761340893383405,20.83520819321711],[77.76203372953249,20.834397693939081],[77.764247103232535,20.831691953339966],[77.766341962689125,20.835432583940214],[77.766530467732011,20.835678505105811]]]},"properties":{"FID":83,"Join_Count":2,"TARGET_FID":85,"Layer":"TEXT_PARCEL","Text":"58","vill_code":"533017","LGD_CODE":"533017"}},{"type":"Feature","id":84,"geometry":{"type":"Polygon","coordinates":[[[77.769591907946591,20.833470819784662],[77.770348708588742,20.836168962772238],[77.766503507810185,20.835801923351639],[77.766530467732011,20.835678505105811],[77.766662389174925,20.834983382544245],[77.7668370643636,20.834755079912249],[77.768638715716122,20.832566793817055],[77.769132592520222,20.831996464815031],[77.769207387780781,20.832221553777892],[77.769591907946591,20.833470819784662]]]},"properties":{"FID":84,"Join_Count":2,"TARGET_FID":86,"Layer":"TEXT_PARCEL","Text":"60","vill_code":"533017","LGD_CODE":"533017"}}]
}