{
  "type" : "FeatureCollection",
  "features" : [{"type":"Feature","id":0,"geometry":{"type":"LineString","coordinates":[[77.713072422160252,20.838202042570156],[77.713494800668116,20.83816045932431],[77.713849126800497,20.838123910629452],[77.714548739850244,20.83802717417775],[77.71534965533526,20.837868773910241],[77.716120527707758,20.837751370216438]]},"properties":{"FID":0,"LGD_CODE":"533016","ROAD_TYPE":"C"}},{"type":"Feature","id":1,"geometry":{"type":"LineString","coordinates":[[77.73735660762452,20.82724279440626],[77.73774698966119,20.827194350891141],[77.738690021759069,20.827053495708313],[77.739437621626848,20.826950438143264],[77.74029379553123,20.826790105198878],[77.741349029150214,20.826477120153509],[77.742310356713475,20.826143704674568],[77.743284023767359,20.825941275735882],[77.743910922724226,20.825772202217259],[77.744805810302978,20.825487084307824],[77.745688574709632,20.825078691012042],[77.746792116745738,20.824621452091215]]},"properties":{"FID":1,"LGD_CODE":"533016","ROAD_TYPE":"B"}},{"type":"Feature","id":2,"geometry":{"type":"LineString","coordinates":[[77.749106528658885,20.830150272904469],[77.748866335199025,20.830162601547578],[77.748060168481672,20.830106822852201],[77.747479763689995,20.830136638380445],[77.746476085079053,20.830199347257459],[77.745448504450152,20.830158338171213],[77.744430215185517,20.830079081164115],[77.743889153417669,20.829928854172024],[77.743464011608694,20.829822683217603],[77.742791804020953,20.829818685578729],[77.74197524062042,20.82986638312525],[77.74135648491422,20.829908272235354],[77.740689028531676,20.830065494676454],[77.739337790886495,20.830443088195061],[77.73831349045517,20.83078065115506],[77.737696493227077,20.830927961699128]]},"properties":{"FID":2,"LGD_CODE":"533016","ROAD_TYPE":"B"}},{"type":"Feature","id":3,"geometry":{"type":"LineString","coordinates":[[77.72813227020481,20.81709606401736],[77.728099345870007,20.819622189293639]]},"properties":{"FID":3,"LGD_CODE":"533016","ROAD_TYPE":"B"}},{"type":"Feature","id":4,"geometry":{"type":"LineString","coordinates":[[77.727989196129812,20.819613391899903],[77.727996397511603,20.817030276632227]]},"properties":{"FID":4,"LGD_CODE":"533016","ROAD_TYPE":"B"}},{"type":"Feature","id":5,"geometry":{"type":"LineString","coordinates":[[77.72974073399449,20.831326959610582],[77.729900031184556,20.831369014343615]]},"properties":{"FID":5,"LGD_CODE":"533016","ROAD_TYPE":"A"}},{"type":"Feature","id":6,"geometry":{"type":"LineString","coordinates":[[77.729572455432304,20.830043845026342],[77.729741778729348,20.829716172518683],[77.730110822279116,20.828886727541583],[77.730390892964522,20.8283488842055],[77.730810903635003,20.827529602575591],[77.731273443894167,20.826674312447857],[77.731693300052399,20.825850067798857],[77.732170558660826,20.824939718343359],[77.732450763278536,20.824342944546878]]},"properties":{"FID":6,"LGD_CODE":"533016","ROAD_TYPE":"B"}},{"type":"Feature","id":7,"geometry":{"type":"LineString","coordinates":[[77.732682431351549,20.823931073545456],[77.732521643163793,20.824401936673947],[77.732181797180345,20.825090915492456],[77.73142142488895,20.826575917635022],[77.730623152058854,20.82803939309483],[77.730209485756689,20.828857848157096],[77.730808958950348,20.828720333845098],[77.731831517854744,20.828443675057429],[77.732460610469474,20.828240019443044]]},"properties":{"FID":7,"LGD_CODE":"533016","ROAD_TYPE":"B"}},{"type":"Feature","id":8,"geometry":{"type":"LineString","coordinates":[[77.718496293045689,20.827692267424414],[77.718133767036917,20.82963044042825]]},"properties":{"FID":8,"LGD_CODE":"533016","ROAD_TYPE":"C"}},{"type":"Feature","id":9,"geometry":{"type":"LineString","coordinates":[[77.725639158399133,20.837110471389096],[77.725962835181534,20.837986370650942],[77.726133303998694,20.838379275540134],[77.726389203016296,20.839058304322666],[77.72676194044287,20.840605917138966]]},"properties":{"FID":9,"LGD_CODE":"533016","ROAD_TYPE":"A"}},{"type":"Feature","id":10,"geometry":{"type":"LineString","coordinates":[[77.73171714986286,20.8317750775207],[77.731875365188841,20.830952276217356],[77.730852033877071,20.831117073783293],[77.730047054828248,20.831373368431201]]},"properties":{"FID":10,"LGD_CODE":"533016","ROAD_TYPE":"A"}},{"type":"Feature","id":11,"geometry":{"type":"LineString","coordinates":[[77.712057928341736,20.831107416348615],[77.712422230240492,20.831821162747755],[77.713051303246644,20.833052935761749],[77.713730047840272,20.834437592653984],[77.714010384448997,20.834894724878094],[77.714210460235392,20.835220977197089],[77.715178736474456,20.836463416468909],[77.716537848171669,20.838322070372048],[77.716984930325907,20.83887877368749],[77.717561880533452,20.839687520126727],[77.718087956776714,20.840567443812173],[77.718700766573861,20.841594939738574],[77.719313899706776,20.84263314516107],[77.719707937818683,20.843277524871908]]},"properties":{"FID":11,"LGD_CODE":"533016","ROAD_TYPE":"B"}},{"type":"Feature","id":12,"geometry":{"type":"LineString","coordinates":[[77.720092157808338,20.84295965409823],[77.720092157808338,20.84295965409823],[77.71948483535634,20.841880767317342],[77.719229179738932,20.84144193304304],[77.718979728008676,20.841016775247127],[77.718320204073052,20.83984436970346],[77.717787604787333,20.839043953686215],[77.717474477301494,20.838695010607996],[77.717320203476248,20.838513771288167],[77.716787007931416,20.837887373741282],[77.716371391653354,20.837366522982737],[77.715830295225416,20.836688412776937],[77.715207233051132,20.835878887331901],[77.714700420775401,20.835077706104666],[77.714364220341281,20.834600353595842],[77.714048179144143,20.834151620356394],[77.713712490845666,20.833457814162855],[77.713659836368294,20.833348986275986],[77.713594177431276,20.83321328009556],[77.713574856611913,20.833173347093663],[77.71355207355812,20.833129872591357],[77.712953702736954,20.831988053136723],[77.712316590101722,20.830697555560409],[77.711910626774142,20.829805714344861]]},"properties":{"FID":12,"LGD_CODE":"533016","ROAD_TYPE":"B"}},{"type":"Feature","id":13,"geometry":{"type":"LineString","coordinates":[[77.746739444568263,20.82451062833173],[77.746427654363373,20.824715228074449],[77.74521517439247,20.825224672032189],[77.744274068720543,20.825588728406569],[77.743484396136793,20.825796707295986],[77.742663260447799,20.825996129381735],[77.741760367596314,20.82624533046662],[77.740900162996823,20.826531181494449],[77.740255992370706,20.82673487699984],[77.739754264105159,20.826830147642205],[77.738692104832637,20.826970284248301],[77.737347307161571,20.827189446187383],[77.737203186615261,20.827212932888941],[77.736813009813005,20.827276517679969],[77.734987546677814,20.827638019801409],[77.733791864264276,20.82792368255647],[77.733246895682726,20.828053878989316],[77.732746400400117,20.828132503790677]]},"properties":{"FID":13,"LGD_CODE":"533016","ROAD_TYPE":"B"}},{"type":"Feature","id":14,"geometry":{"type":"LineString","coordinates":[[77.732724012488731,20.828235995827608],[77.733373163982762,20.828113200002935],[77.733755705237698,20.828021292905099],[77.734657735818971,20.827804572651999],[77.735172864767762,20.827684995732199],[77.735929382158943,20.827538419909267],[77.736712235281388,20.827402916769042],[77.737208019023612,20.827251140730439]]},"properties":{"FID":14,"LGD_CODE":"533016","ROAD_TYPE":"B"}},{"type":"Feature","id":15,"geometry":{"type":"LineString","coordinates":[[77.74920440615675,20.835945427639377],[77.748062458105593,20.835785380605891],[77.747088461059661,20.835595264894256],[77.746060831257822,20.835442263502909],[77.744838091585592,20.835246512376017],[77.743458570220952,20.834900755693862],[77.742391428745449,20.834628586414141],[77.74219485096863,20.834573505319714],[77.742132604938348,20.834556063924246]]},"properties":{"FID":15,"LGD_CODE":"533016","ROAD_TYPE":"B"}},{"type":"Feature","id":16,"geometry":{"type":"LineString","coordinates":[[77.731797036725936,20.832351878187033],[77.732811717503097,20.832246381991187],[77.733046618341064,20.832301197229704],[77.733834489337639,20.832415025502794],[77.734753248859832,20.832560852220585],[77.735493958610405,20.832669341616143],[77.736108934766278,20.832704097768829],[77.736886361464954,20.832748164227059],[77.73768428313646,20.832742814814104],[77.737796018733988,20.832743007957305]]},"properties":{"FID":16,"LGD_CODE":"533016","ROAD_TYPE":"B"}},{"type":"Feature","id":17,"geometry":{"type":"LineString","coordinates":[[77.742190919759551,20.834559608942399],[77.742008727010457,20.833915574692103],[77.741862468061427,20.833401109004598],[77.741650721887936,20.833040756071938],[77.740999703429281,20.832946945317616],[77.740015164311856,20.832869463228409],[77.73859759415987,20.832843952136443],[77.737801575172895,20.832857772992753],[77.737688453607092,20.832859736762391],[77.73735304585017,20.832865558940355],[77.736714455680683,20.83282173761458],[77.735945606302678,20.832766095867964],[77.734432416265079,20.832571433812202],[77.733006737247393,20.83235185633697],[77.732817438705737,20.832332830594837],[77.731682317264429,20.83246472718837]]},"properties":{"FID":17,"LGD_CODE":"533016","ROAD_TYPE":"B"}},{"type":"Feature","id":18,"geometry":{"type":"LineString","coordinates":[[77.737799156472391,20.832743013380068],[77.738926104346604,20.832744957289531],[77.739882700362088,20.832779175833693],[77.741214201306022,20.832890983200425],[77.741871057092936,20.832979063589399],[77.74193565900633,20.833284608315026],[77.742175274304344,20.83387969344626],[77.742431286061858,20.834574220844615],[77.742919012085466,20.834714265011442],[77.743504600198193,20.834833783408534],[77.744777202384242,20.835154595776732],[77.745630155229861,20.835285393981568],[77.746194386941752,20.835398032761372],[77.746867013639857,20.835480987457061],[77.747574900827914,20.835608314363732],[77.749277693189882,20.835860051802882]]},"properties":{"FID":18,"LGD_CODE":"533016","ROAD_TYPE":"B"}},{"type":"Feature","id":19,"geometry":{"type":"LineString","coordinates":[[77.713964620758546,20.833814241189188],[77.713771515599475,20.833577146105625],[77.711903822381558,20.829366073728458]]},"properties":{"FID":19,"LGD_CODE":"533016","ROAD_TYPE":"A"}},{"type":"Feature","id":20,"geometry":{"type":"LineString","coordinates":[[77.725001387356969,20.833198693377376],[77.725088675970511,20.833001539608954],[77.725109761956986,20.832816415788319],[77.725194245113357,20.83261260328441]]},"properties":{"FID":20,"LGD_CODE":"533016","ROAD_TYPE":"A"}},{"type":"Feature","id":21,"geometry":{"type":"LineString","coordinates":[[77.725269476846179,20.832643185988701],[77.725095268782994,20.833428363907313],[77.724981127664918,20.833594414650989],[77.72505770706745,20.833866940036643],[77.725255311257413,20.833868694925954],[77.725793423908343,20.833625795501103]]},"properties":{"FID":21,"LGD_CODE":"533016","ROAD_TYPE":"A"}},{"type":"Feature","id":22,"geometry":{"type":"LineString","coordinates":[[77.717787269537581,20.839305016051679],[77.720000647681076,20.84307876163377]]},"properties":{"FID":22,"LGD_CODE":"533016","ROAD_TYPE":"A"}},{"type":"Feature","id":23,"geometry":{"type":"LineString","coordinates":[[77.731217406827326,20.834193986946797],[77.731372994533061,20.832584381952266],[77.730010720305103,20.83275692046514]]},"properties":{"FID":23,"LGD_CODE":"533016","ROAD_TYPE":"A"}},{"type":"Feature","id":24,"geometry":{"type":"LineString","coordinates":[[77.733826726541452,20.821943371378886],[77.734111912313793,20.820578537806878]]},"properties":{"FID":24,"LGD_CODE":"533016","ROAD_TYPE":"A"}},{"type":"Feature","id":25,"geometry":{"type":"LineString","coordinates":[[77.731036209234375,20.838171414505442],[77.73087839128894,20.839951853341933]]},"properties":{"FID":25,"LGD_CODE":"533016","ROAD_TYPE":"A"}},{"type":"Feature","id":26,"geometry":{"type":"LineString","coordinates":[[77.737523235441017,20.822376298263155],[77.737379101814852,20.823278834885823]]},"properties":{"FID":26,"LGD_CODE":"533016","ROAD_TYPE":"A"}},{"type":"Feature","id":27,"geometry":{"type":"LineString","coordinates":[[77.7376789508223,20.834810341182042],[77.73781451174915,20.835482980436517],[77.737859431405624,20.836564853786545],[77.73780053811096,20.838545395243962]]},"properties":{"FID":27,"LGD_CODE":"533016","ROAD_TYPE":"A"}},{"type":"Feature","id":28,"geometry":{"type":"LineString","coordinates":[[77.722199635920248,20.820496164129594],[77.721464823019929,20.818161665924709],[77.721136515891288,20.81733808830991]]},"properties":{"FID":28,"LGD_CODE":"533016","ROAD_TYPE":"A"}},{"type":"Feature","id":29,"geometry":{"type":"LineString","coordinates":[[77.726272579160067,20.830891595059569],[77.726126765606935,20.831624648421013]]},"properties":{"FID":29,"LGD_CODE":"533016","ROAD_TYPE":"A"}},{"type":"Feature","id":30,"geometry":{"type":"LineString","coordinates":[[77.711812071898422,20.824442952174095],[77.712358671970819,20.824938510315771],[77.712612895752869,20.8251862246907],[77.712955678050861,20.825463910141686],[77.713284519026516,20.825587423919032],[77.713613109124097,20.82570235668117],[77.713951621008547,20.82583417453683],[77.714236135138179,20.826053443914891],[77.714519644457809,20.826238391652574],[77.714786830959255,20.826509691609143],[77.71488633622738,20.826669930758353],[77.715027943884436,20.826828941082663],[77.715235998226845,20.826957981267761],[77.714973757639399,20.826984066149393],[77.71435186769331,20.826887950618374],[77.713128195710297,20.826691439743222],[77.711781027614265,20.82643154800234]]},"properties":{"FID":30,"LGD_CODE":"533016","ROAD_TYPE":"B"}},{"type":"Feature","id":31,"geometry":{"type":"LineString","coordinates":[[77.71178031231473,20.8265410870065],[77.712120810404343,20.826577578602738],[77.712674842442695,20.826682247712593],[77.713100492917306,20.826758129146985],[77.713321712116141,20.826821385138999],[77.713550949646404,20.826810048665699],[77.713904423882752,20.826860149901197],[77.714207742783785,20.826939598416185],[77.714478846285076,20.826964217911804],[77.714843331952139,20.827041880014825],[77.715237312258111,20.827081501283377],[77.715430671225477,20.827238515599152],[77.715668074493081,20.827505781194681],[77.716081505961839,20.827860855032824],[77.716393965267457,20.827994356263297],[77.716808301578865,20.828102417872643],[77.716832427966295,20.828108710154858],[77.717286093448408,20.828229385237986],[77.717817394350078,20.828370709522613],[77.718031277327057,20.828487362595887],[77.718602462966274,20.828642738555782],[77.719347917412236,20.828852013324703],[77.720126589563591,20.829089809886803],[77.720916335576732,20.829337111314842],[77.722130494827994,20.82971696289853]]},"properties":{"FID":31,"LGD_CODE":"533016","ROAD_TYPE":"B"}},{"type":"Feature","id":32,"geometry":{"type":"LineString","coordinates":[[77.722163969733614,20.829661641946334],[77.721831866195615,20.829559566502468],[77.721177930108325,20.829360631881976],[77.7197887524148,20.828932462308931],[77.717853793196923,20.828339927566823],[77.71735518090918,20.828194691298425],[77.716816256719255,20.828037710924647],[77.716753666840305,20.828019479314491],[77.716505333164335,20.827944325710483],[77.716347980498497,20.827896705596803],[77.716234482534063,20.827862357251838],[77.715907007418153,20.827643545049437],[77.715520935185324,20.827226115349841],[77.715235998226845,20.826957981267761],[77.715254531027028,20.826929709710591],[77.715208873255065,20.82688282905449],[77.715014399322726,20.826696635779889],[77.714781903654838,20.826407944640565],[77.714524464884306,20.826180904465698],[77.714184585226064,20.825919617660091],[77.713881264957791,20.825728012681143],[77.713518743122563,20.825577439705164],[77.713156682048364,20.825442574650346],[77.712828418755919,20.825283139593104],[77.712828418755919,20.825283139593104],[77.712105617470044,20.82461638354188],[77.711814201417866,20.824320214190497]]},"properties":{"FID":32,"LGD_CODE":"533016","ROAD_TYPE":"B"}},{"type":"Feature","id":33,"geometry":{"type":"LineString","coordinates":[[77.727989196129812,20.819613391899903],[77.728099345870007,20.819622189293639],[77.728051189802969,20.821736739048148]]},"properties":{"FID":33,"LGD_CODE":"533016","ROAD_TYPE":"A"}},{"type":"Feature","id":34,"geometry":{"type":"LineString","coordinates":[[77.727989196129812,20.819613391899903],[77.727950668723324,20.821769710340476]]},"properties":{"FID":34,"LGD_CODE":"533016","ROAD_TYPE":"A"}},{"type":"Feature","id":35,"geometry":{"type":"LineString","coordinates":[[77.728051189802969,20.821736739048148],[77.728042551729757,20.82319060428047],[77.728104779698199,20.824017310280301]]},"properties":{"FID":35,"LGD_CODE":"533016","ROAD_TYPE":"A"}},{"type":"Feature","id":36,"geometry":{"type":"LineString","coordinates":[[77.728104779698199,20.824017310280301],[77.728022601621518,20.82481948455948],[77.727835041053979,20.825951077970121]]},"properties":{"FID":36,"LGD_CODE":"533016","ROAD_TYPE":"A"}},{"type":"Feature","id":37,"geometry":{"type":"LineString","coordinates":[[77.727835041053979,20.825951077970121],[77.727781760806266,20.826412047392186]]},"properties":{"FID":37,"LGD_CODE":"533016","ROAD_TYPE":"A"}},{"type":"Feature","id":38,"geometry":{"type":"LineString","coordinates":[[77.727673492184508,20.826408022897684],[77.727781760806266,20.826412047392186]]},"properties":{"FID":38,"LGD_CODE":"533016","ROAD_TYPE":"A"}},{"type":"Feature","id":39,"geometry":{"type":"LineString","coordinates":[[77.727673492184508,20.826408022897684],[77.727923317424796,20.824748230862941],[77.727966109209746,20.823966225668403],[77.727925694973052,20.823188386212852],[77.727950668723324,20.821769710340476]]},"properties":{"FID":39,"LGD_CODE":"533016","ROAD_TYPE":"A"}},{"type":"Feature","id":40,"geometry":{"type":"LineString","coordinates":[[77.725194245113357,20.83261260328441],[77.725269476846179,20.832643185988701]]},"properties":{"FID":40,"LGD_CODE":"533016","ROAD_TYPE":"A"}},{"type":"Feature","id":41,"geometry":{"type":"LineString","coordinates":[[77.724519029817586,20.833925607069364],[77.72466430316058,20.833914756125278]]},"properties":{"FID":41,"LGD_CODE":"533016","ROAD_TYPE":"A"}},{"type":"Feature","id":42,"geometry":{"type":"LineString","coordinates":[[77.724659538171252,20.833594269636642],[77.724835896120254,20.83376297961831]]},"properties":{"FID":42,"LGD_CODE":"533016","ROAD_TYPE":"A"}},{"type":"Feature","id":43,"geometry":{"type":"LineString","coordinates":[[77.725793423908343,20.833625795501103],[77.725777231652984,20.833839134565274]]},"properties":{"FID":43,"LGD_CODE":"533016","ROAD_TYPE":"A"}},{"type":"Feature","id":44,"geometry":{"type":"LineString","coordinates":[[77.730049230876531,20.832671155688093],[77.730010720305103,20.83275692046514]]},"properties":{"FID":44,"LGD_CODE":"533016","ROAD_TYPE":"A"}},{"type":"Feature","id":45,"geometry":{"type":"LineString","coordinates":[[77.732438264470645,20.828323273068015],[77.731498701382051,20.828624338827773],[77.730172224210335,20.82897356013741],[77.730111728161447,20.829047339044603],[77.729898644251023,20.829586539498095]]},"properties":{"FID":45,"LGD_CODE":"533016","ROAD_TYPE":"B"}},{"type":"Feature","id":46,"geometry":{"type":"LineString","coordinates":[[77.733703818499208,20.821950106047098],[77.733475612370057,20.822322771694353],[77.733264432341159,20.822742031402946],[77.733041801408561,20.823292163154512]]},"properties":{"FID":46,"LGD_CODE":"533016","ROAD_TYPE":"C"}},{"type":"Feature","id":47,"geometry":{"type":"LineString","coordinates":[[77.737523235441017,20.822376298263155],[77.737541306759113,20.822097294535038],[77.737627361610635,20.821803590703151],[77.737796220746517,20.820972224899052]]},"properties":{"FID":47,"LGD_CODE":"533016","ROAD_TYPE":"B"}},{"type":"Feature","id":48,"geometry":{"type":"LineString","coordinates":[[77.737684893967909,20.820967726998298],[77.737394689613893,20.822346511124596]]},"properties":{"FID":48,"LGD_CODE":"533016","ROAD_TYPE":"B"}},{"type":"Feature","id":49,"geometry":{"type":"LineString","coordinates":[[77.73734090572637,20.822352397089823],[77.737523235441017,20.822376298263155]]},"properties":{"FID":49,"LGD_CODE":"533016","ROAD_TYPE":"A"}},{"type":"Feature","id":50,"geometry":{"type":"LineString","coordinates":[[77.737565328968756,20.831054846038978],[77.737057065910335,20.83112805340879],[77.736367810348398,20.831237107101835],[77.73536041387645,20.831306618082859],[77.734023003103829,20.831430216994683],[77.733432796205832,20.831425299323737],[77.732844235692781,20.831144908964177],[77.732531905007633,20.831017503810145]]},"properties":{"FID":50,"LGD_CODE":"533016","ROAD_TYPE":"B"}},{"type":"Feature","id":51,"geometry":{"type":"LineString","coordinates":[[77.732537924097855,20.830941693137227],[77.732951350653948,20.831088773764129],[77.733395549275883,20.831313094138789],[77.733657282745867,20.831353813996092],[77.734357790364314,20.831272110022681],[77.735023230410192,20.8312159019715],[77.735707282702805,20.831183616543441],[77.73631976188598,20.831153426663679],[77.736903480559263,20.831058822484209],[77.737566688059488,20.830950148698033]]},"properties":{"FID":51,"LGD_CODE":"533016","ROAD_TYPE":"B"}},{"type":"Feature","id":52,"geometry":{"type":"LineString","coordinates":[[77.730047054828248,20.831373368431201],[77.730026339421215,20.831301949493483]]},"properties":{"FID":52,"LGD_CODE":"533016","ROAD_TYPE":"A"}},{"type":"Feature","id":53,"geometry":{"type":"LineString","coordinates":[[77.737700369752304,20.831037033839376],[77.73808769141624,20.8308936556707],[77.73833728859222,20.830841373890273],[77.738949285068571,20.830670922944901],[77.739693294379236,20.830435596979022],[77.740466487379564,20.83021684024504],[77.74126886495381,20.830014652498651],[77.741778798136266,20.829951759018392],[77.742403938144875,20.829902911530539],[77.742991616532862,20.82988130423707],[77.74349455772294,20.82990575429254],[77.744135161271373,20.830056876089309],[77.744563952552454,20.830161929079487],[77.745020390066102,20.830231311687754],[77.745485358054609,20.830265585323989],[77.745968670654577,20.830273175738917],[77.746576491826559,20.830285821714721],[77.747192842620791,20.830263357582989],[77.747279358779608,20.830246829255625],[77.748000214473251,20.830220986957148],[77.748629027954109,20.830197846570705],[77.749169260601391,20.830291774432727]]},"properties":{"FID":53,"LGD_CODE":"533016","ROAD_TYPE":"B"}},{"type":"Feature","id":54,"geometry":{"type":"LineString","coordinates":[[77.711903822381558,20.829366073728458],[77.711619693161424,20.828666977510643]]},"properties":{"FID":54,"LGD_CODE":"533016","ROAD_TYPE":"A"}},{"type":"Feature","id":55,"geometry":{"type":"LineString","coordinates":[[77.729572455432304,20.830043845026342],[77.72974073399449,20.831326959610582]]},"properties":{"FID":55,"LGD_CODE":"533016","ROAD_TYPE":"A"}},{"type":"Feature","id":56,"geometry":{"type":"LineString","coordinates":[[77.729900031184556,20.831369014343615],[77.729749718403738,20.829928460514534]]},"properties":{"FID":56,"LGD_CODE":"533016","ROAD_TYPE":"A"}},{"type":"Feature","id":57,"geometry":{"type":"LineString","coordinates":[[77.727703647171083,20.826409143807204],[77.727643804231278,20.826748243401795],[77.727597534905826,20.827302495855786],[77.727642456256632,20.827660280371848],[77.727567388003195,20.828511774744833],[77.727537414377039,20.829088350343],[77.727490642887716,20.829625517571113],[77.727289795828838,20.830155055213581]]},"properties":{"FID":57,"LGD_CODE":"533016","ROAD_TYPE":"B"}},{"type":"Feature","id":58,"geometry":{"type":"LineString","coordinates":[[77.727556067807114,20.829866161923203],[77.727614569177121,20.82912295933771],[77.727697451382326,20.828111636708517],[77.727766875196494,20.82740280198902]]},"properties":{"FID":58,"LGD_CODE":"533016","ROAD_TYPE":"B"}},{"type":"Feature","id":59,"geometry":{"type":"LineString","coordinates":[[77.72122930911739,20.817309641453711],[77.72158250348177,20.818176863453743]]},"properties":{"FID":59,"LGD_CODE":"533016","ROAD_TYPE":"A"}},{"type":"Feature","id":60,"geometry":{"type":"LineString","coordinates":[[77.72158250348177,20.818176863453743],[77.722560666303039,20.821226633727662]]},"properties":{"FID":60,"LGD_CODE":"533016","ROAD_TYPE":"A"}},{"type":"Feature","id":61,"geometry":{"type":"LineString","coordinates":[[77.722560666303039,20.821226633727662],[77.722990129108425,20.822785672271653]]},"properties":{"FID":61,"LGD_CODE":"533016","ROAD_TYPE":"A"}},{"type":"Feature","id":62,"geometry":{"type":"LineString","coordinates":[[77.722990129108425,20.822785672271653],[77.723487703115097,20.824403166615234],[77.724166362630328,20.826212173358854]]},"properties":{"FID":62,"LGD_CODE":"533016","ROAD_TYPE":"A"}},{"type":"Feature","id":63,"geometry":{"type":"LineString","coordinates":[[77.724166362630328,20.826212173358854],[77.725140750278641,20.828705117838908]]},"properties":{"FID":63,"LGD_CODE":"533016","ROAD_TYPE":"A"}},{"type":"Feature","id":64,"geometry":{"type":"LineString","coordinates":[[77.725140750278641,20.828705117838908],[77.725232306372206,20.828939356322213],[77.725526545426973,20.829846013316232],[77.725949371860068,20.830306468516067]]},"properties":{"FID":64,"LGD_CODE":"533016","ROAD_TYPE":"A"}},{"type":"Feature","id":65,"geometry":{"type":"LineString","coordinates":[[77.725949371860068,20.830306468516067],[77.726310477129473,20.830672391072159],[77.726272579160067,20.830891595059569]]},"properties":{"FID":65,"LGD_CODE":"533016","ROAD_TYPE":"A"}},{"type":"Feature","id":66,"geometry":{"type":"LineString","coordinates":[[77.725946630505646,20.83156172512377],[77.72616649332511,20.830862637914674]]},"properties":{"FID":66,"LGD_CODE":"533016","ROAD_TYPE":"A"}},{"type":"Feature","id":67,"geometry":{"type":"LineString","coordinates":[[77.72616649332511,20.830862637914674],[77.726211545825279,20.830667916140843],[77.725649200660783,20.830229897666307],[77.725124130846282,20.830102203227632],[77.724091391933243,20.830122403889149],[77.723661766472006,20.830057460485143]]},"properties":{"FID":67,"LGD_CODE":"533016","ROAD_TYPE":"A"}},{"type":"Feature","id":68,"geometry":{"type":"LineString","coordinates":[[77.723661766472006,20.830057460485143],[77.722070056913481,20.829816843073605]]},"properties":{"FID":68,"LGD_CODE":"533016","ROAD_TYPE":"A"}},{"type":"Feature","id":69,"geometry":{"type":"LineString","coordinates":[[77.723839096670957,20.82996852428273],[77.724181670945882,20.830013962002628],[77.725115959375202,20.829972376030984],[77.725464064705307,20.830048052141521],[77.725027015880642,20.828806187120424],[77.724149552907818,20.826782438892636]]},"properties":{"FID":69,"LGD_CODE":"533016","ROAD_TYPE":"A"}},{"type":"Feature","id":70,"geometry":{"type":"LineString","coordinates":[[77.723969622368898,20.826216608341024],[77.723066312071794,20.823375872425281]]},"properties":{"FID":70,"LGD_CODE":"533016","ROAD_TYPE":"A"}},{"type":"Feature","id":71,"geometry":{"type":"LineString","coordinates":[[77.723066312071794,20.823375872425281],[77.722199635920248,20.820496164129594]]},"properties":{"FID":71,"LGD_CODE":"533016","ROAD_TYPE":"A"}},{"type":"Feature","id":72,"geometry":{"type":"LineString","coordinates":[[77.73734090572637,20.822352397089823],[77.73723959837254,20.823274538964707]]},"properties":{"FID":72,"LGD_CODE":"533016","ROAD_TYPE":"A"}},{"type":"Feature","id":73,"geometry":{"type":"LineString","coordinates":[[77.73723959837254,20.823274538964707],[77.737060390754266,20.824956792604628]]},"properties":{"FID":73,"LGD_CODE":"533016","ROAD_TYPE":"A"}},{"type":"Feature","id":74,"geometry":{"type":"LineString","coordinates":[[77.737060390754266,20.824956792604628],[77.737210572266733,20.827244241330984],[77.737381611211774,20.828192618718063]]},"properties":{"FID":74,"LGD_CODE":"533016","ROAD_TYPE":"A"}},{"type":"Feature","id":75,"geometry":{"type":"LineString","coordinates":[[77.737381611211774,20.828192618718063],[77.737528961331577,20.828693701580008],[77.737645944744344,20.829491525362368],[77.737581562656473,20.829843467560018]]},"properties":{"FID":75,"LGD_CODE":"533016","ROAD_TYPE":"A"}},{"type":"Feature","id":76,"geometry":{"type":"LineString","coordinates":[[77.737581562656473,20.829843467560018],[77.737550698527286,20.830953215879411]]},"properties":{"FID":76,"LGD_CODE":"533016","ROAD_TYPE":"A"}},{"type":"Feature","id":77,"geometry":{"type":"LineString","coordinates":[[77.737550698527286,20.830953215879411],[77.737660646997242,20.832743692578131]]},"properties":{"FID":77,"LGD_CODE":"533016","ROAD_TYPE":"A"}},{"type":"Feature","id":78,"geometry":{"type":"LineString","coordinates":[[77.737660646997242,20.832743692578131],[77.737716840769266,20.833637448796797],[77.737698839661121,20.833844623880001]]},"properties":{"FID":78,"LGD_CODE":"533016","ROAD_TYPE":"A"}},{"type":"Feature","id":79,"geometry":{"type":"LineString","coordinates":[[77.737698839661121,20.833844623880001],[77.7376789508223,20.834810341182042]]},"properties":{"FID":79,"LGD_CODE":"533016","ROAD_TYPE":"A"}},{"type":"Feature","id":80,"geometry":{"type":"LineString","coordinates":[[77.737918858741978,20.838544582599905],[77.737973905010193,20.836522828035918]]},"properties":{"FID":80,"LGD_CODE":"533016","ROAD_TYPE":"A"}},{"type":"Feature","id":81,"geometry":{"type":"LineString","coordinates":[[77.737973905010193,20.836522828035918],[77.737946406842994,20.835463464036579],[77.737801784995611,20.834782137011722]]},"properties":{"FID":81,"LGD_CODE":"533016","ROAD_TYPE":"A"}},{"type":"Feature","id":82,"geometry":{"type":"LineString","coordinates":[[77.737801784995611,20.834782137011722],[77.737846534605254,20.833631770604271]]},"properties":{"FID":82,"LGD_CODE":"533016","ROAD_TYPE":"A"}},{"type":"Feature","id":83,"geometry":{"type":"LineString","coordinates":[[77.737360412508664,20.827284569844807],[77.737273928881436,20.825621484764618],[77.737259884279027,20.824992006339109]]},"properties":{"FID":83,"LGD_CODE":"533016","ROAD_TYPE":"A"}},{"type":"Feature","id":84,"geometry":{"type":"LineString","coordinates":[[77.737259884279027,20.824992006339109],[77.737379101814852,20.823278834885823]]},"properties":{"FID":84,"LGD_CODE":"533016","ROAD_TYPE":"A"}},{"type":"Feature","id":85,"geometry":{"type":"LineString","coordinates":[[77.734386428438484,20.820572969905918],[77.734216134180059,20.821419967370883],[77.734122923058308,20.821960620719015],[77.733905232402435,20.822823749870754]]},"properties":{"FID":85,"LGD_CODE":"533016","ROAD_TYPE":"A"}},{"type":"Feature","id":86,"geometry":{"type":"LineString","coordinates":[[77.733284476139644,20.825454169504308],[77.732756400554152,20.828086276295892]]},"properties":{"FID":86,"LGD_CODE":"533016","ROAD_TYPE":"A"}},{"type":"Feature","id":87,"geometry":{"type":"LineString","coordinates":[[77.732756400554152,20.828086276295892],[77.732492862488002,20.829316583899566]]},"properties":{"FID":87,"LGD_CODE":"533016","ROAD_TYPE":"A"}},{"type":"Feature","id":88,"geometry":{"type":"LineString","coordinates":[[77.732492862488002,20.829316583899566],[77.732144909695535,20.830940953082465]]},"properties":{"FID":88,"LGD_CODE":"533016","ROAD_TYPE":"A"}},{"type":"Feature","id":89,"geometry":{"type":"LineString","coordinates":[[77.732144909695535,20.830940953082465],[77.731972784111633,20.831744488068821]]},"properties":{"FID":89,"LGD_CODE":"533016","ROAD_TYPE":"A"}},{"type":"Feature","id":90,"geometry":{"type":"LineString","coordinates":[[77.731972784111633,20.831744488068821],[77.731682317264429,20.83246472718837]]},"properties":{"FID":90,"LGD_CODE":"533016","ROAD_TYPE":"A"}},{"type":"Feature","id":91,"geometry":{"type":"LineString","coordinates":[[77.731618268036783,20.832822251642146],[77.731610676023919,20.832864630380882],[77.731430361450776,20.834319835958539]]},"properties":{"FID":91,"LGD_CODE":"533016","ROAD_TYPE":"A"}},{"type":"Feature","id":92,"geometry":{"type":"LineString","coordinates":[[77.731430361450776,20.834319835958539],[77.731391123679686,20.834485762641872],[77.731218374364644,20.836251865806762]]},"properties":{"FID":92,"LGD_CODE":"533016","ROAD_TYPE":"A"}},{"type":"Feature","id":93,"geometry":{"type":"LineString","coordinates":[[77.731218374364644,20.836251865806762],[77.731036209234375,20.838171414505442]]},"properties":{"FID":93,"LGD_CODE":"533016","ROAD_TYPE":"A"}},{"type":"Feature","id":94,"geometry":{"type":"LineString","coordinates":[[77.730026339421215,20.831301949493483],[77.730805375241346,20.831023633458443],[77.731930409540965,20.830841931255456],[77.732300640112243,20.828834213029868]]},"properties":{"FID":94,"LGD_CODE":"533016","ROAD_TYPE":"A"}},{"type":"Feature","id":95,"geometry":{"type":"LineString","coordinates":[[77.732300640112243,20.828834213029868],[77.732460610469474,20.828240019443044]]},"properties":{"FID":95,"LGD_CODE":"533016","ROAD_TYPE":"A"}},{"type":"Feature","id":96,"geometry":{"type":"LineString","coordinates":[[77.733035293025381,20.825591261899916],[77.733826726541452,20.821943371378886]]},"properties":{"FID":96,"LGD_CODE":"533016","ROAD_TYPE":"A"}},{"type":"Feature","id":97,"geometry":{"type":"LineString","coordinates":[[77.730617398967908,20.839991401817134],[77.730718553775205,20.83877034396648]]},"properties":{"FID":97,"LGD_CODE":"533016","ROAD_TYPE":"A"}},{"type":"Feature","id":98,"geometry":{"type":"LineString","coordinates":[[77.730950597095145,20.835985908783545],[77.731185888041438,20.834499349357575],[77.731217406827326,20.834193986946797]]},"properties":{"FID":98,"LGD_CODE":"533016","ROAD_TYPE":"A"}},{"type":"Feature","id":99,"geometry":{"type":"LineString","coordinates":[[77.726636761037767,20.840608444031236],[77.726272250766741,20.839075226595224],[77.725925065707699,20.83818287834308]]},"properties":{"FID":99,"LGD_CODE":"533016","ROAD_TYPE":"A"}},{"type":"Feature","id":100,"geometry":{"type":"LineString","coordinates":[[77.725925065707699,20.83818287834308],[77.725791458943561,20.837885424371237],[77.725202561530125,20.836371437346315]]},"properties":{"FID":100,"LGD_CODE":"533016","ROAD_TYPE":"A"}},{"type":"Feature","id":101,"geometry":{"type":"LineString","coordinates":[[77.725202561530125,20.836371437346315],[77.724942994885268,20.835551948094032],[77.724890791362185,20.834922077338963],[77.724775930759208,20.834495333044821],[77.724519029817586,20.833925607069364]]},"properties":{"FID":101,"LGD_CODE":"533016","ROAD_TYPE":"A"}},{"type":"Feature","id":102,"geometry":{"type":"LineString","coordinates":[[77.724519029817586,20.833925607069364],[77.724390327060703,20.833935478581814],[77.723904995230328,20.834614897990157],[77.723349319202214,20.835129793150426],[77.723378589345117,20.835330390305188]]},"properties":{"FID":102,"LGD_CODE":"533016","ROAD_TYPE":"A"}},{"type":"Feature","id":103,"geometry":{"type":"LineString","coordinates":[[77.723378589345117,20.835330390305188],[77.723194231493622,20.835486053426138],[77.722678602458288,20.835811876213334],[77.721702100011044,20.836068997273713],[77.720116643485682,20.836928597281414]]},"properties":{"FID":103,"LGD_CODE":"533016","ROAD_TYPE":"A"}},{"type":"Feature","id":104,"geometry":{"type":"LineString","coordinates":[[77.720116643485682,20.836928597281414],[77.719023137353943,20.837250546062805],[77.718335553577887,20.837447853554814],[77.716841565338015,20.8376986764337],[77.717787269537581,20.839305016051679]]},"properties":{"FID":104,"LGD_CODE":"533016","ROAD_TYPE":"A"}},{"type":"Feature","id":105,"geometry":{"type":"LineString","coordinates":[[77.711762213461853,20.828161414085301],[77.711888882049053,20.828647939095486],[77.712485390201806,20.830029690551825]]},"properties":{"FID":105,"LGD_CODE":"533016","ROAD_TYPE":"A"}},{"type":"Feature","id":106,"geometry":{"type":"LineString","coordinates":[[77.712485390201806,20.830029690551825],[77.71266082968171,20.830432142679292]]},"properties":{"FID":106,"LGD_CODE":"533016","ROAD_TYPE":"A"}},{"type":"Feature","id":107,"geometry":{"type":"LineString","coordinates":[[77.71266082968171,20.830432142679292],[77.71338724154009,20.8320984777829]]},"properties":{"FID":107,"LGD_CODE":"533016","ROAD_TYPE":"A"}},{"type":"Feature","id":108,"geometry":{"type":"LineString","coordinates":[[77.715244989689054,20.834714186542886],[77.716118885888704,20.836346317503956]]},"properties":{"FID":108,"LGD_CODE":"533016","ROAD_TYPE":"A"}},{"type":"Feature","id":109,"geometry":{"type":"LineString","coordinates":[[77.718934185393536,20.837147719076828],[77.720098021274765,20.83681322075995],[77.720565198350812,20.836572205087304]]},"properties":{"FID":109,"LGD_CODE":"533016","ROAD_TYPE":"A"}},{"type":"Feature","id":110,"geometry":{"type":"LineString","coordinates":[[77.720565198350812,20.836572205087304],[77.721605504476742,20.836008146721625]]},"properties":{"FID":110,"LGD_CODE":"533016","ROAD_TYPE":"A"}},{"type":"Feature","id":111,"geometry":{"type":"LineString","coordinates":[[77.721605504476742,20.836008146721625],[77.722219340773691,20.835813637693086]]},"properties":{"FID":111,"LGD_CODE":"533016","ROAD_TYPE":"A"}},{"type":"Feature","id":112,"geometry":{"type":"LineString","coordinates":[[77.722219340773691,20.835813637693086],[77.722568010395406,20.835704550822438],[77.723132861768278,20.835430553772454],[77.723306853549545,20.835017112415787],[77.723842395933403,20.834531754910692],[77.724309013689776,20.833847178920447],[77.724659538171252,20.833594269636642]]},"properties":{"FID":112,"LGD_CODE":"533016","ROAD_TYPE":"A"}},{"type":"Feature","id":113,"geometry":{"type":"LineString","coordinates":[[77.724659538171252,20.833594269636642],[77.724723635876799,20.83354802190977],[77.725001387356969,20.833198693377376]]},"properties":{"FID":113,"LGD_CODE":"533016","ROAD_TYPE":"A"}},{"type":"Feature","id":114,"geometry":{"type":"LineString","coordinates":[[77.719764915598702,20.843256687116732],[77.719055441580892,20.842062106199648],[77.71752587565598,20.839398163112346]]},"properties":{"FID":114,"LGD_CODE":"533016","ROAD_TYPE":"A"}},{"type":"Feature","id":115,"geometry":{"type":"LineString","coordinates":[[77.71752587565598,20.839398163112346],[77.71650486286002,20.837619865517251]]},"properties":{"FID":115,"LGD_CODE":"533016","ROAD_TYPE":"A"}},{"type":"Feature","id":116,"geometry":{"type":"LineString","coordinates":[[77.71650486286002,20.837619865517251],[77.715763400863111,20.836272001652187]]},"properties":{"FID":116,"LGD_CODE":"533016","ROAD_TYPE":"A"}},{"type":"Feature","id":117,"geometry":{"type":"LineString","coordinates":[[77.715763400863111,20.836272001652187],[77.714956349256212,20.834844264603138],[77.714528168490332,20.834288048974368],[77.713964620758546,20.833814241189188]]},"properties":{"FID":117,"LGD_CODE":"533016","ROAD_TYPE":"A"}},{"type":"Feature","id":118,"geometry":{"type":"LineString","coordinates":[[77.730049230876531,20.832671155688093],[77.731324352666618,20.832495676718285],[77.73171714986286,20.8317750775207]]},"properties":{"FID":118,"LGD_CODE":"533016","ROAD_TYPE":"A"}},{"type":"Feature","id":119,"geometry":{"type":"LineString","coordinates":[[77.725777231652984,20.833839134565274],[77.725085743938266,20.834044623619732],[77.724835896120254,20.83376297961831]]},"properties":{"FID":119,"LGD_CODE":"533016","ROAD_TYPE":"A"}},{"type":"Feature","id":120,"geometry":{"type":"LineString","coordinates":[[77.724835896120254,20.83376297961831],[77.72466430316058,20.833914756125278]]},"properties":{"FID":120,"LGD_CODE":"533016","ROAD_TYPE":"A"}},{"type":"Feature","id":121,"geometry":{"type":"LineString","coordinates":[[77.725183726601003,20.83583564749928],[77.725639158399133,20.837110471389096]]},"properties":{"FID":121,"LGD_CODE":"533016","ROAD_TYPE":"A"}},{"type":"Feature","id":122,"geometry":{"type":"LineString","coordinates":[[77.72466430316058,20.833914756125278],[77.724757075320923,20.834058015271701],[77.724944442689335,20.83476321468854],[77.724999171766584,20.834841460840902],[77.725074086062449,20.835528742668448],[77.725183726601003,20.83583564749928]]},"properties":{"FID":122,"LGD_CODE":"533016","ROAD_TYPE":"A"}},{"type":"Feature","id":123,"geometry":{"type":"LineString","coordinates":[[77.716118885888704,20.836346317503956],[77.716759264068514,20.837543701072665],[77.718260993517873,20.837341197140351],[77.718934185393536,20.837147719076828]]},"properties":{"FID":123,"LGD_CODE":"533016","ROAD_TYPE":"A"}},{"type":"Feature","id":124,"geometry":{"type":"LineString","coordinates":[[77.71338724154009,20.8320984777829],[77.714077954555961,20.833517838770536],[77.714663411886875,20.834033248623818],[77.715244989689054,20.834714186542886]]},"properties":{"FID":124,"LGD_CODE":"533016","ROAD_TYPE":"A"}},{"type":"Feature","id":125,"geometry":{"type":"LineString","coordinates":[[77.730718553775205,20.83877034396648],[77.730950597095145,20.835985908783545]]},"properties":{"FID":125,"LGD_CODE":"533016","ROAD_TYPE":"A"}},{"type":"Feature","id":126,"geometry":{"type":"LineString","coordinates":[[77.732460610469474,20.828240019443044],[77.733035293025381,20.825591261899916]]},"properties":{"FID":126,"LGD_CODE":"533016","ROAD_TYPE":"A"}},{"type":"Feature","id":127,"geometry":{"type":"LineString","coordinates":[[77.731682317264429,20.83246472718837],[77.731618268036783,20.832822251642146]]},"properties":{"FID":127,"LGD_CODE":"533016","ROAD_TYPE":"A"}},{"type":"Feature","id":128,"geometry":{"type":"LineString","coordinates":[[77.733905232402435,20.822823749870754],[77.733284476139644,20.825454169504308]]},"properties":{"FID":128,"LGD_CODE":"533016","ROAD_TYPE":"A"}},{"type":"Feature","id":129,"geometry":{"type":"LineString","coordinates":[[77.737846534605254,20.833631770604271],[77.73779401554701,20.832759274700241]]},"properties":{"FID":129,"LGD_CODE":"533016","ROAD_TYPE":"A"}},{"type":"Feature","id":130,"geometry":{"type":"LineString","coordinates":[[77.73779401554701,20.832759274700241],[77.737683790107539,20.830928038925684],[77.737691216865954,20.829883101934588],[77.737705475838254,20.829799822351568]]},"properties":{"FID":130,"LGD_CODE":"533016","ROAD_TYPE":"A"}},{"type":"Feature","id":131,"geometry":{"type":"LineString","coordinates":[[77.737705475838254,20.829799822351568],[77.737765306847308,20.82945037846568],[77.737654362819683,20.828619582520222],[77.737360412508664,20.827284569844807]]},"properties":{"FID":131,"LGD_CODE":"533016","ROAD_TYPE":"A"}},{"type":"Feature","id":132,"geometry":{"type":"LineString","coordinates":[[77.724149552907818,20.826782438892636],[77.723969622368898,20.826216608341024]]},"properties":{"FID":132,"LGD_CODE":"533016","ROAD_TYPE":"A"}},{"type":"Feature","id":133,"geometry":{"type":"LineString","coordinates":[[77.722070056913481,20.829816843073605],[77.722229157874708,20.829581381561756]]},"properties":{"FID":133,"LGD_CODE":"533016","ROAD_TYPE":"A"}},{"type":"Feature","id":134,"geometry":{"type":"LineString","coordinates":[[77.722229157874708,20.829581381561756],[77.722919237542698,20.829846514156177],[77.723839096670957,20.82996852428273]]},"properties":{"FID":134,"LGD_CODE":"533016","ROAD_TYPE":"A"}}]
}