{
  "type" : "FeatureCollection",
  "features" : [{"type":"Feature","id":0,"geometry":{"type":"LineString","coordinates":[[77.680009878437033,20.839658471626223],[77.679529416350221,20.836942903993574],[77.679377413127312,20.836347649782091],[77.677275998399054,20.837142121862996],[77.67588842166397,20.837690064887504]]},"properties":{"FID":0,"LGD_CODE":"533012","ROAD_TYPE":"A"}},{"type":"Feature","id":1,"geometry":{"type":"LineString","coordinates":[[77.68124792839194,20.835335338665463],[77.680524889703278,20.835818503324681],[77.679490407338704,20.836286665395718],[77.679690751034386,20.837057626240746],[77.680125511664983,20.839591005509959]]},"properties":{"FID":1,"LGD_CODE":"533012","ROAD_TYPE":"A"}},{"type":"Feature","id":2,"geometry":{"type":"LineString","coordinates":[[77.684639878146001,20.832230545495186],[77.684067788236703,20.832760429647166],[77.683485383401404,20.833288801476296],[77.682491488150376,20.834197215001407],[77.681551655031228,20.83504218776455],[77.681416789520952,20.835215187620673]]},"properties":{"FID":2,"LGD_CODE":"533012","ROAD_TYPE":"B"}},{"type":"Feature","id":3,"geometry":{"type":"LineString","coordinates":[[77.677073504204074,20.829379373247761],[77.676814680618875,20.828175054057848],[77.676710907325386,20.827738512986762],[77.6765218051289,20.827016461967347],[77.676141380189975,20.826471395680702],[77.675706875572203,20.825927325920986],[77.675367087871763,20.825428886756566],[77.675094882152237,20.824600759360827],[77.674784827247905,20.823745222955662],[77.674597707969411,20.823271269410149],[77.674100803839536,20.822670526073072],[77.673560495949602,20.822003928987986],[77.673420006293796,20.821758782125908],[77.673472692313396,20.821349467797255],[77.673502992669171,20.820832156300195],[77.673518799313328,20.820569131403218]]},"properties":{"FID":3,"LGD_CODE":"533012","ROAD_TYPE":"B"}},{"type":"Feature","id":4,"geometry":{"type":"LineString","coordinates":[[77.673582941145384,20.820451653030986],[77.673565194271546,20.821215663745594],[77.673500990391773,20.821662531549268],[77.673515724457729,20.821787935011198],[77.674082284119905,20.822542382255978],[77.674715294010966,20.823287571451381],[77.67482425498126,20.823595935019057],[77.675089048476025,20.824372805761936],[77.675375468955224,20.825205489249413],[77.675521522010129,20.825489076968687],[77.675998184889494,20.826184143070755],[77.67656864119779,20.826918431440376],[77.676640843211516,20.827160016638533],[77.67682189123262,20.82801391351239],[77.677052071581372,20.828926327616159],[77.677128998446747,20.829314898013919]]},"properties":{"FID":4,"LGD_CODE":"533012","ROAD_TYPE":"B"}},{"type":"Feature","id":5,"geometry":{"type":"LineString","coordinates":[[77.687470587184421,20.838876376268903],[77.688570256044642,20.837481239288177]]},"properties":{"FID":5,"LGD_CODE":"533012","ROAD_TYPE":"B"}},{"type":"Feature","id":6,"geometry":{"type":"LineString","coordinates":[[77.68756881741426,20.838856183963184],[77.688575630746143,20.837565015538047]]},"properties":{"FID":6,"LGD_CODE":"533012","ROAD_TYPE":"B"}},{"type":"Feature","id":7,"geometry":{"type":"LineString","coordinates":[[77.676872688630823,20.817690047454906],[77.677147108032102,20.818282504924991],[77.677407389811222,20.818870429705871],[77.677755240233225,20.819247845421245],[77.678399993801648,20.820000020010024],[77.678693451873585,20.820280980964466],[77.679243477344414,20.820331137354046],[77.680308558873307,20.820446070013219]]},"properties":{"FID":7,"LGD_CODE":"533012","ROAD_TYPE":"B"}},{"type":"Feature","id":8,"geometry":{"type":"LineString","coordinates":[[77.680302631095813,20.820521668237227],[77.679000770824189,20.820377956086176],[77.678624353060059,20.820339372419909],[77.678007716416275,20.819641798832066],[77.677377866802715,20.81894606391678],[77.677054656976509,20.818272627775656],[77.676822577075683,20.817716534348875]]},"properties":{"FID":8,"LGD_CODE":"533012","ROAD_TYPE":"B"}},{"type":"Feature","id":9,"geometry":{"type":"LineString","coordinates":[[77.681416789520952,20.835215187620673],[77.68124792839194,20.835335338665463]]},"properties":{"FID":9,"LGD_CODE":"533012","ROAD_TYPE":"A"}},{"type":"Feature","id":10,"geometry":{"type":"LineString","coordinates":[[77.677169044927624,20.829365101390088],[77.677867591201831,20.831661094414912]]},"properties":{"FID":10,"LGD_CODE":"533012","ROAD_TYPE":"A"}},{"type":"Feature","id":11,"geometry":{"type":"LineString","coordinates":[[77.677867591201831,20.831661094414912],[77.67946113471406,20.836184011094691],[77.680476538749772,20.835760523892404],[77.681299640373652,20.835182872202541]]},"properties":{"FID":11,"LGD_CODE":"533012","ROAD_TYPE":"A"}},{"type":"Feature","id":12,"geometry":{"type":"LineString","coordinates":[[77.675862111468774,20.837558415485589],[77.679395465336071,20.836234564062831],[77.678203472193644,20.832874248114916]]},"properties":{"FID":12,"LGD_CODE":"533012","ROAD_TYPE":"A"}},{"type":"Feature","id":13,"geometry":{"type":"LineString","coordinates":[[77.678203472193644,20.832874248114916],[77.677654109028438,20.831365796095955]]},"properties":{"FID":13,"LGD_CODE":"533012","ROAD_TYPE":"A"}},{"type":"Feature","id":14,"geometry":{"type":"LineString","coordinates":[[77.677654109028438,20.831365796095955],[77.677073504204074,20.829379373247761]]},"properties":{"FID":14,"LGD_CODE":"533012","ROAD_TYPE":"A"}},{"type":"Feature","id":15,"geometry":{"type":"LineString","coordinates":[[77.681299640373652,20.835182872202541],[77.681422762912334,20.835070308012799]]},"properties":{"FID":15,"LGD_CODE":"533012","ROAD_TYPE":"A"}},{"type":"Feature","id":16,"geometry":{"type":"LineString","coordinates":[[77.681422762912334,20.835070308012799],[77.681878445943468,20.834623128620038],[77.682232794124928,20.834339983207382],[77.682730794084861,20.833902147794277],[77.683255467304534,20.833430102156239],[77.683806092945773,20.832918864474337],[77.684491293277134,20.832281811625275]]},"properties":{"FID":16,"LGD_CODE":"533012","ROAD_TYPE":"B"}}]
}