{
  "type" : "FeatureCollection",
  "features" : [{"type":"Feature","id":0,"geometry":{"type":"Polygon","coordinates":[[[77.679774931257157,20.816011822927798],[77.680315966348573,20.82053523554573],[77.679323311448798,20.820440300179811],[77.678907316908891,20.82038447422886],[77.677553878207561,20.818811009564886],[77.676856748447435,20.817647973976865],[77.677395572293733,20.817181183098022],[77.677722418826875,20.81696647447005],[77.678478908671394,20.816585250355949],[77.679774931257157,20.816011822927798]]]},"properties":{"FID":0,"Join_Count":2,"TARGET_FID":1,"Layer":"TEXT_PARCEL","Text":"23","vill_code":"533012","LGD_CODE":"533012"}},{"type":"Feature","id":1,"geometry":{"type":"Polygon","coordinates":[[[77.678907316908891,20.82038447422886],[77.678597744142365,20.82161809033952],[77.67763457201896,20.820468720110686],[77.67742622840592,20.820290393999212],[77.675152342709481,20.820621045413006],[77.674324946400304,20.820848426322847],[77.673412001078574,20.820764736401387],[77.673609934439639,20.820402211902305],[77.676856748447435,20.817647973976865],[77.677553878207561,20.818811009564886],[77.678907316908891,20.82038447422886]]]},"properties":{"FID":1,"Join_Count":2,"TARGET_FID":2,"Layer":"TEXT_PARCEL","Text":"22","vill_code":"533012","LGD_CODE":"533012"}},{"type":"Feature","id":2,"geometry":{"type":"Polygon","coordinates":[[[77.678928190868632,20.823304185982167],[77.678996642207736,20.823493050587189],[77.678788618933268,20.823406290531228],[77.677711128596044,20.822952109044977],[77.677491028905706,20.822895198892823],[77.675863762998219,20.822259940441043],[77.673364879041273,20.821638092058642],[77.673274883017527,20.82101587139239],[77.673412001078574,20.820764736401387],[77.674324946400304,20.820848426322847],[77.675152342709481,20.820621045413006],[77.67742622840592,20.820290393999212],[77.67763457201896,20.820468720110686],[77.678597744142365,20.82161809033952],[77.678928190868632,20.823304185982167]]]},"properties":{"FID":2,"Join_Count":2,"TARGET_FID":3,"Layer":"TEXT_PARCEL","Text":"21","vill_code":"533012","LGD_CODE":"533012"}},{"type":"Feature","id":3,"geometry":{"type":"Polygon","coordinates":[[[77.679557119906534,20.824415529757825],[77.679343943264385,20.824443282551748],[77.678215884328552,20.824354015481823],[77.674781186743743,20.823290218652119],[77.674419850927961,20.823329604948608],[77.673665145552192,20.823509437611168],[77.673364879041273,20.821638092058642],[77.675863762998219,20.822259940441043],[77.677491028905706,20.822895198892823],[77.677711128596044,20.822952109044977],[77.678788618933268,20.823406290531228],[77.678996642207736,20.823493050587189],[77.679557119906534,20.824415529757825]]]},"properties":{"FID":3,"Join_Count":2,"TARGET_FID":4,"Layer":"TEXT_PARCEL","Text":"19","vill_code":"533012","LGD_CODE":"533012"}},{"type":"Feature","id":4,"geometry":{"type":"Polygon","coordinates":[[[77.678608977380151,20.825925071235861],[77.677635069504433,20.826067169590623],[77.675544427450916,20.825524238387892],[77.674781186743743,20.823290218652119],[77.678215884328552,20.824354015481823],[77.678608977380151,20.825925071235861]]]},"properties":{"FID":4,"Join_Count":2,"TARGET_FID":5,"Layer":"TEXT_PARCEL","Text":"18","vill_code":"533012","LGD_CODE":"533012"}},{"type":"Feature","id":5,"geometry":{"type":"Polygon","coordinates":[[[77.679323311448911,20.820440300179943],[77.680315966348701,20.820535235545773],[77.680628535499864,20.82307809602321],[77.680659563923086,20.823364334318111],[77.681350470274765,20.82637967294454],[77.68144966226788,20.826687251281722],[77.681232548179935,20.826627457728875],[77.680970641225315,20.826494899171681],[77.680812370712147,20.826357491390695],[77.680742943619805,20.826295806294407],[77.679557119906633,20.8244155297578],[77.678996642207721,20.823493050587217],[77.67892819086876,20.823304185982177],[77.678597744142394,20.821618090339545],[77.678907316908919,20.820384474228945],[77.679323311448911,20.820440300179943]]]},"properties":{"FID":5,"Join_Count":2,"TARGET_FID":6,"Layer":"TEXT_PARCEL","Text":"20","vill_code":"533012","LGD_CODE":"533012"}},{"type":"Feature","id":6,"geometry":{"type":"Polygon","coordinates":[[[77.680742943619805,20.826295806294407],[77.680812370712147,20.826357491390695],[77.680970641225315,20.826494899171681],[77.681232548179935,20.826627457728875],[77.68144966226788,20.826687251281722],[77.682039476760565,20.828545217642784],[77.681717448273332,20.828597293678907],[77.680941526778611,20.82872404959738],[77.678667467055334,20.829092342077448],[77.677719186866909,20.827713527787125],[77.677635069504447,20.826067169590715],[77.678608977380179,20.825925071235925],[77.678215884328608,20.824354015481791],[77.679343943264428,20.82444328255179],[77.679557119906633,20.8244155297578],[77.680742943619805,20.826295806294407]]]},"properties":{"FID":6,"Join_Count":2,"TARGET_FID":9,"Layer":"TEXT_PARCEL","Text":"17","vill_code":"533012","LGD_CODE":"533012"}},{"type":"Feature","id":7,"geometry":{"type":"Polygon","coordinates":[[[77.677169044918841,20.829365101246953],[77.67707350346295,20.829379372635309],[77.676433277719241,20.827012493118968],[77.674178363638546,20.82671277381413],[77.673665145552192,20.823509437611168],[77.674419850927961,20.823329604948608],[77.674781186743743,20.823290218652119],[77.675544427450916,20.825524238387892],[77.677635069504433,20.826067169590623],[77.677719186866824,20.827713527787036],[77.678667467055348,20.829092342077313],[77.677169044918841,20.829365101246953]]]},"properties":{"FID":7,"Join_Count":2,"TARGET_FID":10,"Layer":"TEXT_PARCEL","Text":"15","vill_code":"533012","LGD_CODE":"533012"}},{"type":"Feature","id":8,"geometry":{"type":"Polygon","coordinates":[[[77.67707350346295,20.829379372635309],[77.674350672470254,20.830059292624782],[77.674225746710363,20.828133720050769],[77.674178363638546,20.82671277381413],[77.676433277719241,20.827012493118968],[77.67707350346295,20.829379372635309]]]},"properties":{"FID":8,"Join_Count":2,"TARGET_FID":11,"Layer":"TEXT_PARCEL","Text":"14","vill_code":"533012","LGD_CODE":"533012"}},{"type":"Feature","id":9,"geometry":{"type":"Polygon","coordinates":[[[77.683599253382226,20.832579648455862],[77.683431355780783,20.83264345314717],[77.682832492081047,20.83289075427518],[77.682649916720834,20.832923722471715],[77.682657403256144,20.832755373092656],[77.682605452276277,20.830435710113587],[77.682583718148919,20.830228061950951],[77.682429630481295,20.830308961970104],[77.681840336773973,20.830602404814329],[77.681717448273332,20.828597293678907],[77.682039476760565,20.828545217642784],[77.682507075870944,20.829620605101351],[77.682742372486416,20.830170327515081],[77.683599253382226,20.832579648455862]]]},"properties":{"FID":9,"Join_Count":2,"TARGET_FID":12,"Layer":"TEXT_PARCEL","Text":"8","vill_code":"533012","LGD_CODE":"533012"}},{"type":"Feature","id":10,"geometry":{"type":"Polygon","coordinates":[[[77.681840336773973,20.830602404814329],[77.681793674134894,20.831428837297661],[77.681596672292812,20.831454550134652],[77.681094455897778,20.831482370939511],[77.677867590694291,20.831661094291231],[77.677169044918912,20.829365101246989],[77.678667467055334,20.829092342077448],[77.680941526778611,20.82872404959738],[77.681717448273332,20.828597293678907],[77.681840336773973,20.830602404814329]]]},"properties":{"FID":10,"Join_Count":2,"TARGET_FID":14,"Layer":"TEXT_PARCEL","Text":"16","vill_code":"533012","LGD_CODE":"533012"}},{"type":"Feature","id":11,"geometry":{"type":"Polygon","coordinates":[[[77.675511860469939,20.832035034228884],[77.674572917188442,20.832420317531092],[77.674350672470254,20.830059292624782],[77.67707350346295,20.829379372635309],[77.677654108485939,20.831365796247404],[77.675511860469939,20.832035034228884]]]},"properties":{"FID":11,"Join_Count":2,"TARGET_FID":15,"Layer":"TEXT_PARCEL","Text":"13","vill_code":"533012","LGD_CODE":"533012"}},{"type":"Feature","id":12,"geometry":{"type":"Polygon","coordinates":[[[77.678203472089237,20.832874248148578],[77.674891524341945,20.83399625455715],[77.674572917188442,20.832420317531092],[77.675511860469939,20.832035034228884],[77.677654108485939,20.831365796247404],[77.678203472089237,20.832874248148578]]]},"properties":{"FID":12,"Join_Count":2,"TARGET_FID":17,"Layer":"TEXT_PARCEL","Text":"12","vill_code":"533012","LGD_CODE":"533012"}},{"type":"Feature","id":13,"geometry":{"type":"Polygon","coordinates":[[[77.683246845295855,20.835315648255399],[77.68258633547147,20.835365159439018],[77.682642681055071,20.833093546767749],[77.682649916720848,20.832923722471737],[77.682832492080991,20.832890754275045],[77.683431355780769,20.832643453147103],[77.683599253382241,20.832579648455781],[77.686080001850144,20.831738483283214],[77.686198241860609,20.835089444823183],[77.683246845295855,20.835315648255399]]]},"properties":{"FID":13,"Join_Count":2,"TARGET_FID":19,"Layer":"TEXT_PARCEL","Text":"7","vill_code":"533012","LGD_CODE":"533012"}},{"type":"Feature","id":14,"geometry":{"type":"Polygon","coordinates":[[[77.687367483395093,20.831309381332694],[77.688295706613829,20.835565575994952],[77.686198241860609,20.835089444823183],[77.686080001850144,20.831738483283214],[77.687367483395093,20.831309381332694]]]},"properties":{"FID":14,"Join_Count":2,"TARGET_FID":20,"Layer":"TEXT_PARCEL","Text":"6","vill_code":"533012","LGD_CODE":"533012"}},{"type":"Feature","id":15,"geometry":{"type":"Polygon","coordinates":[[[77.681427849644365,20.832915370051637],[77.681469656264539,20.834129867312754],[77.681423778746932,20.835070351116485],[77.681299640524742,20.835182872060731],[77.680476538127493,20.83576052323474],[77.679461134355961,20.836184010673268],[77.677867590694291,20.831661094291231],[77.681094455897778,20.831482370939511],[77.681596672292812,20.831454550134652],[77.681793674134894,20.831428837297661],[77.681427849644365,20.832915370051637]]]},"properties":{"FID":15,"Join_Count":1,"TARGET_FID":21,"Layer":"TEXT_PARCEL","Text":"10","vill_code":"533012","LGD_CODE":"533012"}},{"type":"Feature","id":16,"geometry":{"type":"Polygon","coordinates":[[[77.683246845295855,20.835315648255399],[77.68273971331341,20.836895465679593],[77.682611625680877,20.83677580717794],[77.682040643870806,20.836134493526291],[77.681665567256204,20.835246384536912],[77.681413384051439,20.835297777268465],[77.681417167311679,20.835215203112373],[77.681423778746804,20.835070351116563],[77.681469656264611,20.834129867312775],[77.681427849644365,20.832915370051609],[77.681793674134909,20.83142883729758],[77.681840336773988,20.830602404814208],[77.682429630481252,20.830308961970001],[77.682583718148791,20.830228061950894],[77.682605452276292,20.830435710113509],[77.682657403256187,20.832755373092517],[77.682649916720848,20.832923722471737],[77.682642681055071,20.833093546767749],[77.68258633547147,20.835365159439018],[77.683246845295855,20.835315648255399]]]},"properties":{"FID":16,"Join_Count":2,"TARGET_FID":22,"Layer":"TEXT_PARCEL","Text":"9","vill_code":"533012","LGD_CODE":"533012"}},{"type":"Feature","id":17,"geometry":{"type":"Polygon","coordinates":[[[77.679395464870893,20.836234563613313],[77.675862111110376,20.837558415385878],[77.675450907809093,20.836375141327036],[77.674891524341945,20.83399625455715],[77.678203472089237,20.832874248148578],[77.679395464870893,20.836234563613313]]]},"properties":{"FID":17,"Join_Count":2,"TARGET_FID":23,"Layer":"TEXT_PARCEL","Text":"11","vill_code":"533012","LGD_CODE":"533012"}},{"type":"Feature","id":18,"geometry":{"type":"Polygon","coordinates":[[[77.688786765372868,20.83877854522796],[77.685980424144418,20.839023229540853],[77.686198241860609,20.835089444823183],[77.688295706613829,20.835565575994952],[77.688786765372868,20.83877854522796]]]},"properties":{"FID":18,"Join_Count":2,"TARGET_FID":24,"Layer":"TEXT_PARCEL","Text":"5","vill_code":"533012","LGD_CODE":"533012"}},{"type":"Feature","id":19,"geometry":{"type":"Polygon","coordinates":[[[77.685980424144418,20.839023229540853],[77.684185131512962,20.839218286533328],[77.68392709072252,20.837971710202837],[77.68273971331341,20.836895465679593],[77.683246845295855,20.835315648255399],[77.686198241860609,20.835089444823183],[77.685980424144418,20.839023229540853]]]},"properties":{"FID":19,"Join_Count":2,"TARGET_FID":25,"Layer":"TEXT_PARCEL","Text":"4","vill_code":"533012","LGD_CODE":"533012"}},{"type":"Feature","id":20,"geometry":{"type":"Polygon","coordinates":[[[77.684185131512962,20.839218286533328],[77.681372137949751,20.839485497729974],[77.68124792825472,20.835335337940737],[77.681417167311679,20.835215203112373],[77.681413384051439,20.835297777268465],[77.681665567256204,20.835246384536912],[77.682040643870806,20.836134493526291],[77.682611625680877,20.83677580717794],[77.68273971331341,20.836895465679593],[77.68392709072252,20.837971710202837],[77.684185131512962,20.839218286533328]]]},"properties":{"FID":20,"Join_Count":1,"TARGET_FID":26,"Layer":"TEXT_PARCEL","Text":"3","vill_code":"533012","LGD_CODE":"533012"}},{"type":"Feature","id":21,"geometry":{"type":"Polygon","coordinates":[[[77.681372137949751,20.839485497729974],[77.680125511854214,20.839591005171236],[77.679690750693823,20.837057625588404],[77.679490406937944,20.836286664942051],[77.680524889740184,20.835818503156148],[77.68124792825472,20.835335337940737],[77.681372137949751,20.839485497729974]]]},"properties":{"FID":21,"Join_Count":2,"TARGET_FID":27,"Layer":"TEXT_PARCEL","Text":"2","vill_code":"533012","LGD_CODE":"533012"}},{"type":"Feature","id":22,"geometry":{"type":"Polygon","coordinates":[[[77.680125511854214,20.839591005171236],[77.68000987823973,20.839658471678689],[77.679529416247377,20.836942903414506],[77.679377412973281,20.836347649569703],[77.677275997683168,20.837142121333304],[77.675888421753257,20.837690064552053],[77.675862111110376,20.837558415385878],[77.679395464870893,20.836234563613313],[77.678203472089237,20.832874248148578],[77.677654108485939,20.831365796247404],[77.67707350346295,20.829379372635309],[77.677169044918841,20.829365101246953],[77.677867590694163,20.831661094291107],[77.679461134355918,20.836184010673133],[77.680476538127451,20.83576052323475],[77.681299640524628,20.835182872060599],[77.681423778746804,20.835070351116563],[77.681417167311679,20.835215203112373],[77.68124792825472,20.835335337940737],[77.680524889740184,20.835818503156148],[77.679490406937944,20.836286664942051],[77.679690750693823,20.837057625588404],[77.680125511854214,20.839591005171236]]]},"properties":{"FID":22,"Join_Count":1,"TARGET_FID":28,"Layer":"POLY_PARCEL","Text":"छन\u094Dस\u094Dस\u094D","vill_code":"533012","LGD_CODE":"533012"}},{"type":"Feature","id":23,"geometry":{"type":"Polygon","coordinates":[[[77.68000987823973,20.839658471678689],[77.676571108425179,20.839725119106983],[77.675888421753257,20.837690064552053],[77.677275997683168,20.837142121333304],[77.679377412973281,20.836347649569703],[77.679529416247377,20.836942903414506],[77.68000987823973,20.839658471678689]]]},"properties":{"FID":23,"Join_Count":2,"TARGET_FID":29,"Layer":"TEXT_PARCEL","Text":"1","vill_code":"533012","LGD_CODE":"533012"}}]
}