{
  "type" : "FeatureCollection",
  "features" : [{"type":"Feature","id":0,"geometry":{"type":"LineString","coordinates":[[77.628772505547985,20.805767447752977],[77.628942478330487,20.806170795150781],[77.629239320478504,20.806859260718941],[77.629497544946148,20.807415442002654],[77.629799954159708,20.80794487931173],[77.62994589204942,20.808148448629737],[77.63045722790217,20.808497453805824],[77.631036452376065,20.808897511750281],[77.631638370206588,20.809318058567488],[77.632268101275884,20.809732958597863],[77.632865275111016,20.810200474612778],[77.633452029569042,20.810709839653853],[77.633705203403053,20.810979478556508],[77.634104625648334,20.81162725006897],[77.634488509554586,20.812343007339585],[77.634882187264708,20.81298223318408]]},"properties":{"FID":0,"LGD_CODE":"533010","ROAD_TYPE":"B"}},{"type":"Feature","id":1,"geometry":{"type":"LineString","coordinates":[[77.634590066338106,20.812403957484335],[77.634416098809652,20.812036679451658],[77.634370070652125,20.811959230043716],[77.634096646331699,20.811491884936583],[77.633805836574297,20.810988332285689],[77.63368825427797,20.810810380758241],[77.633282932487916,20.810459734681189],[77.632815489929143,20.810068366240177],[77.632337073187884,20.809687589499397],[77.631910080971281,20.809373755099848],[77.631427470610248,20.809071207882646],[77.630938728856336,20.808737487691285],[77.630438275699774,20.808372681295236],[77.629938193297846,20.808028711991145],[77.629647957113718,20.807556408224254],[77.629395864623007,20.807031398761254],[77.629159594421324,20.80645403109774],[77.628912165541749,20.80587683648859],[77.62886907493349,20.805748561653985]]},"properties":{"FID":1,"LGD_CODE":"533010","ROAD_TYPE":"B"}},{"type":"Feature","id":2,"geometry":{"type":"LineString","coordinates":[[77.626484522377439,20.815313618797859],[77.625021849155729,20.814900857509837],[77.62450995719702,20.814680238175484],[77.623276476415825,20.814435699464745]]},"properties":{"FID":2,"LGD_CODE":"533010","ROAD_TYPE":"A"}},{"type":"Feature","id":3,"geometry":{"type":"LineString","coordinates":[[77.633014840477998,20.8154342231661],[77.633163380984897,20.815396970981169],[77.633580727886581,20.815287256541808],[77.634158795449579,20.815247952865153],[77.63431346347484,20.815247871436789]]},"properties":{"FID":3,"LGD_CODE":"533010","ROAD_TYPE":"A"}},{"type":"Feature","id":4,"geometry":{"type":"LineString","coordinates":[[77.63522470609449,20.814323115061988],[77.635246984831767,20.814490222806462],[77.635224164536567,20.8146172609022],[77.63526228043014,20.814774521035403]]},"properties":{"FID":4,"LGD_CODE":"533010","ROAD_TYPE":"A"}},{"type":"Feature","id":5,"geometry":{"type":"LineString","coordinates":[[77.639912922136176,20.814471726621885],[77.639734179753489,20.814522834618209],[77.637929963044684,20.81494564136802],[77.636603011159281,20.815215554051015]]},"properties":{"FID":5,"LGD_CODE":"533010","ROAD_TYPE":"A"}},{"type":"Feature","id":6,"geometry":{"type":"LineString","coordinates":[[77.636422867287735,20.815339556980302],[77.637883245440463,20.815061969009815],[77.639784810167825,20.814630012290074],[77.639941419366863,20.814575373601429]]},"properties":{"FID":6,"LGD_CODE":"533010","ROAD_TYPE":"A"}},{"type":"Feature","id":7,"geometry":{"type":"LineString","coordinates":[[77.638771176289509,20.820820397005797],[77.639041929884144,20.822470444539466]]},"properties":{"FID":7,"LGD_CODE":"533010","ROAD_TYPE":"A"}},{"type":"Feature","id":8,"geometry":{"type":"LineString","coordinates":[[77.637163381817103,20.817230663233246],[77.636842927685422,20.816386314726543],[77.636368483080815,20.815426400847837]]},"properties":{"FID":8,"LGD_CODE":"533010","ROAD_TYPE":"A"}},{"type":"Feature","id":9,"geometry":{"type":"LineString","coordinates":[[77.635151572686084,20.813561263135341],[77.635275854893791,20.813565766376737],[77.635350097997843,20.814640349104298],[77.635351097291831,20.814834852821512]]},"properties":{"FID":9,"LGD_CODE":"533010","ROAD_TYPE":"A"}},{"type":"Feature","id":10,"geometry":{"type":"LineString","coordinates":[[77.647380745960973,20.812141806750354],[77.647380745960973,20.812141806750354],[77.646772378638829,20.812311028740162],[77.645690722968212,20.812641030330358],[77.644689485528488,20.812911250346623],[77.643794669601348,20.813173948190389],[77.642806996384849,20.813502462044863],[77.641801142267695,20.813866364735052],[77.640783165127502,20.814253858046644],[77.639948627873551,20.814601591556897]]},"properties":{"FID":10,"LGD_CODE":"533010","ROAD_TYPE":"B"}},{"type":"Feature","id":11,"geometry":{"type":"LineString","coordinates":[[77.639912922136176,20.814471726621885],[77.640395160139079,20.814289180213194],[77.640862552379218,20.81413558420283],[77.642061217721633,20.813686748780988],[77.64328514884528,20.813249213602734],[77.644497475165622,20.812864516606734],[77.645761070459358,20.812543376863747],[77.64737286342087,20.812050992220453]]},"properties":{"FID":11,"LGD_CODE":"533010","ROAD_TYPE":"B"}},{"type":"Feature","id":12,"geometry":{"type":"LineString","coordinates":[[77.623566084770175,20.80886594296171],[77.623695370109473,20.809426437855691],[77.62382734734102,20.810121569832884],[77.623950491363274,20.810760649367477],[77.623865537466344,20.810993783709751],[77.623579771460271,20.81143728555087],[77.623407744808858,20.811721354949711],[77.623372517912813,20.81229202260274],[77.623356960583891,20.812864378533252],[77.623341872682531,20.813463337102842],[77.623333141205592,20.814099450916576],[77.623314299206285,20.814485588022205]]},"properties":{"FID":12,"LGD_CODE":"533010","ROAD_TYPE":"B"}},{"type":"Feature","id":13,"geometry":{"type":"LineString","coordinates":[[77.638964983429887,20.822489059107941],[77.639815590656283,20.82468229324973]]},"properties":{"FID":13,"LGD_CODE":"533010","ROAD_TYPE":"B"}},{"type":"Feature","id":14,"geometry":{"type":"LineString","coordinates":[[77.639047182401001,20.822469173870889],[77.639897537286416,20.824681222008593]]},"properties":{"FID":14,"LGD_CODE":"533010","ROAD_TYPE":"B"}},{"type":"Feature","id":15,"geometry":{"type":"LineString","coordinates":[[77.646597684494552,20.808068288892869],[77.646404802521246,20.808085187937156],[77.646085890510292,20.808117938772089],[77.645714735385326,20.80813762822287],[77.645432099612918,20.808121234509557],[77.645231419227585,20.808117436319236],[77.645023063891955,20.808099879277677],[77.644844667512672,20.808095731869187],[77.644577134640187,20.808092979107542],[77.644346371978344,20.808068832523741],[77.644063489739466,20.80803856163682],[77.643744453509157,20.808064370744312],[77.643566180317933,20.808067159406324],[77.643335910741314,20.808070761154337],[77.643180291423917,20.80809401317887],[77.643002018116235,20.808096801258284],[77.642771871625769,20.808107339669345],[77.642460139663811,20.808126092847584]]},"properties":{"FID":15,"LGD_CODE":"533010","ROAD_TYPE":"C"}},{"type":"Feature","id":16,"geometry":{"type":"LineString","coordinates":[[77.63522470609449,20.814323115061988],[77.635151572686084,20.813561263135341]]},"properties":{"FID":16,"LGD_CODE":"533010","ROAD_TYPE":"A"}},{"type":"Feature","id":17,"geometry":{"type":"LineString","coordinates":[[77.636428585226398,20.815399968442872],[77.636949327062609,20.816396259194057]]},"properties":{"FID":17,"LGD_CODE":"533010","ROAD_TYPE":"A"}},{"type":"Feature","id":18,"geometry":{"type":"LineString","coordinates":[[77.636949327062609,20.816396259194057],[77.637419172440232,20.81749703712094],[77.638276229523768,20.819295549437982]]},"properties":{"FID":18,"LGD_CODE":"533010","ROAD_TYPE":"A"}},{"type":"Feature","id":19,"geometry":{"type":"LineString","coordinates":[[77.638276229523768,20.819295549437982],[77.63838262088818,20.819559256621304],[77.638771176289509,20.820820397005797]]},"properties":{"FID":19,"LGD_CODE":"533010","ROAD_TYPE":"A"}},{"type":"Feature","id":20,"geometry":{"type":"LineString","coordinates":[[77.623337486902159,20.814559053625658],[77.624483213433408,20.814780059620162],[77.625031684854719,20.814989383090026],[77.625854297614836,20.815237186965515]]},"properties":{"FID":20,"LGD_CODE":"533010","ROAD_TYPE":"A"}},{"type":"Feature","id":21,"geometry":{"type":"LineString","coordinates":[[77.626458386132526,20.815409379809285],[77.62665530591434,20.815437341888632],[77.629032965815881,20.815729806105772]]},"properties":{"FID":21,"LGD_CODE":"533010","ROAD_TYPE":"A"}},{"type":"Feature","id":22,"geometry":{"type":"LineString","coordinates":[[77.629032965815881,20.815729806105772],[77.630150601785871,20.815858683281078],[77.63130343364972,20.815838557437136],[77.631719852973987,20.815759746573807]]},"properties":{"FID":22,"LGD_CODE":"533010","ROAD_TYPE":"A"}},{"type":"Feature","id":23,"geometry":{"type":"LineString","coordinates":[[77.631719852973987,20.815759746573807],[77.63193091594438,20.815718901188927],[77.632536553985375,20.815554170732707],[77.633014840477998,20.8154342231661]]},"properties":{"FID":23,"LGD_CODE":"533010","ROAD_TYPE":"A"}},{"type":"Feature","id":24,"geometry":{"type":"LineString","coordinates":[[77.634614496218234,20.815055897179491],[77.634301423597364,20.815094196689518],[77.633663592570315,20.815159556165185],[77.633497547498422,20.815184359300979]]},"properties":{"FID":24,"LGD_CODE":"533010","ROAD_TYPE":"A"}},{"type":"Feature","id":25,"geometry":{"type":"LineString","coordinates":[[77.633497547498422,20.815184359300979],[77.632945330289701,20.815335741139045],[77.632370963305505,20.815478121162396],[77.631843972849168,20.815630873259774],[77.631782420381313,20.815640900278289]]},"properties":{"FID":25,"LGD_CODE":"533010","ROAD_TYPE":"A"}},{"type":"Feature","id":26,"geometry":{"type":"LineString","coordinates":[[77.631782420381313,20.815640900278289],[77.631245911502745,20.815720481832223],[77.630824508567287,20.815738041265149],[77.630220649274122,20.815718395624621],[77.629006301784102,20.81563046195626]]},"properties":{"FID":26,"LGD_CODE":"533010","ROAD_TYPE":"A"}},{"type":"Feature","id":27,"geometry":{"type":"LineString","coordinates":[[77.629006301784102,20.81563046195626],[77.626484522377439,20.815313618797859]]},"properties":{"FID":27,"LGD_CODE":"533010","ROAD_TYPE":"A"}},{"type":"Feature","id":28,"geometry":{"type":"LineString","coordinates":[[77.631182707740493,20.821773939483517],[77.630807729075542,20.82168485321818],[77.630167964301194,20.821614987311836],[77.629553048117614,20.821499495374766],[77.628878557933902,20.821338999727576],[77.628182524521037,20.821178836500419],[77.627472247850136,20.821025597554822],[77.626776335176572,20.820872132138717],[77.626116330812451,20.82071810546735],[77.625500481737618,20.820623741105408],[77.62486379906882,20.820569932405096],[77.624219580099705,20.820496121275074],[77.623575361471921,20.820422307652496],[77.623103616270114,20.820352518837979],[77.623149931265488,20.819516938825881],[77.623188118658149,20.818627839281991],[77.623198527191747,20.817792816797844],[77.623217536759071,20.817038129185665],[77.623214411480717,20.816250256711548],[77.623217876606859,20.815428753302719],[77.623220987447127,20.814587138209916],[77.623224254488818,20.814382640841156]]},"properties":{"FID":28,"LGD_CODE":"533010","ROAD_TYPE":"C"}},{"type":"Feature","id":29,"geometry":{"type":"LineString","coordinates":[[77.623224254488818,20.814382640841156],[77.623232935545275,20.81383926577081],[77.623266190758144,20.813077651047184],[77.623299327845444,20.812309332418344],[77.623347846355344,20.811712808226932],[77.623721964851853,20.811021978990794],[77.623865547800023,20.810767036843345],[77.623770983291251,20.810136063832427],[77.623625068945117,20.809397348146572],[77.623535796145461,20.809044252606785]]},"properties":{"FID":29,"LGD_CODE":"533010","ROAD_TYPE":"B"}},{"type":"Feature","id":30,"geometry":{"type":"LineString","coordinates":[[77.63895501681499,20.822491470187458],[77.638794896704525,20.821433913076042],[77.638670483247594,20.820834571566955],[77.638170998882586,20.819324118961806],[77.637163381817103,20.817230663233246]]},"properties":{"FID":30,"LGD_CODE":"533010","ROAD_TYPE":"A"}},{"type":"Feature","id":31,"geometry":{"type":"LineString","coordinates":[[77.625854297614836,20.815237186965515],[77.626458386132526,20.815409379809285]]},"properties":{"FID":31,"LGD_CODE":"533010","ROAD_TYPE":"A"}},{"type":"Feature","id":32,"geometry":{"type":"LineString","coordinates":[[77.635151572686084,20.813561263135341],[77.634869193770029,20.813119599711971],[77.634882187264708,20.81298223318408]]},"properties":{"FID":32,"LGD_CODE":"533010","ROAD_TYPE":"B"}},{"type":"Feature","id":33,"geometry":{"type":"LineString","coordinates":[[77.649075454847775,20.823963611175657],[77.649683045395477,20.823286769391334],[77.650067739870963,20.822440762128977]]},"properties":{"FID":33,"LGD_CODE":"533010","ROAD_TYPE":"C"}}]
}