{
  "type" : "FeatureCollection",
  "features" : [{"type":"Feature","id":0,"geometry":{"type":"Polygon","coordinates":[[[77.635803091923009,20.805631219422871],[77.634493318137729,20.806493166141486],[77.634359728605574,20.806117358677067],[77.634031117020712,20.804781845201163],[77.638069929939647,20.804090355430723],[77.638136432414115,20.804888210219453],[77.636597087192911,20.805386478083268],[77.635803091923009,20.805631219422871]]]},"properties":{"FID":0,"Join_Count":2,"TARGET_FID":1,"Layer":"TEXT_PARCEL","Text":"45","vill_code":"533010","LGD_CODE":"533010"}},{"type":"Feature","id":1,"geometry":{"type":"Polygon","coordinates":[[[77.632233377855073,20.807029739829598],[77.629374225441083,20.807387790129976],[77.629073437651087,20.806657988989297],[77.628661728976013,20.805789112481499],[77.634031117020712,20.804781845201163],[77.634359728605574,20.806117358677067],[77.634493318137729,20.806493166141486],[77.634182433270382,20.80694506949882],[77.632233377855073,20.807029739829598]]]},"properties":{"FID":1,"Join_Count":2,"TARGET_FID":2,"Layer":"TEXT_PARCEL","Text":"46","vill_code":"533010","LGD_CODE":"533010"}},{"type":"Feature","id":2,"geometry":{"type":"Polygon","coordinates":[[[77.646603838608698,20.808002209190555],[77.645773496037222,20.808100552280788],[77.644323229004115,20.808021173948337],[77.644041082543538,20.807980049277887],[77.643703670504237,20.805528620894435],[77.64571918406584,20.80524931522919],[77.646516722469073,20.807696393232842],[77.646603838608698,20.808002209190555]]]},"properties":{"FID":2,"Join_Count":2,"TARGET_FID":3,"Layer":"TEXT_PARCEL","Text":"29","vill_code":"533010","LGD_CODE":"533010"}},{"type":"Feature","id":3,"geometry":{"type":"Polygon","coordinates":[[[77.638175847535919,20.808632811907337],[77.636593195996383,20.808677830523195],[77.636597087192911,20.805386478083268],[77.638136432414115,20.804888210219453],[77.638303565395319,20.807744770566483],[77.638175847535919,20.808632811907337]]]},"properties":{"FID":3,"Join_Count":2,"TARGET_FID":4,"Layer":"TEXT_PARCEL","Text":"44","vill_code":"533010","LGD_CODE":"533010"}},{"type":"Feature","id":4,"geometry":{"type":"Polygon","coordinates":[[[77.636593195996383,20.808677830523195],[77.63294576759462,20.809083276277612],[77.633029526965572,20.808893203714526],[77.633568748583286,20.807877861888148],[77.634182433270382,20.80694506949882],[77.634493318137729,20.806493166141486],[77.635803091923009,20.805631219422871],[77.636597087192911,20.805386478083268],[77.636593195996383,20.808677830523195]]]},"properties":{"FID":4,"Join_Count":2,"TARGET_FID":5,"Layer":"TEXT_PARCEL","Text":"43","vill_code":"533010","LGD_CODE":"533010"}},{"type":"Feature","id":5,"geometry":{"type":"Polygon","coordinates":[[[77.64684163639896,20.809055486178671],[77.644115859312095,20.809877593630347],[77.642908361650925,20.809835456577378],[77.642741994479437,20.809810506239387],[77.642695370186345,20.809629413145185],[77.6424542532869,20.808073713766444],[77.643055212544297,20.808034002847016],[77.644041082543538,20.807980049277887],[77.644323229004115,20.808021173948337],[77.645773496037222,20.808100552280788],[77.646603838608698,20.808002209190555],[77.64684163639896,20.809055486178671]]]},"properties":{"FID":5,"Join_Count":2,"TARGET_FID":6,"Layer":"TEXT_PARCEL","Text":"28","vill_code":"533010","LGD_CODE":"533010"}},{"type":"Feature","id":6,"geometry":{"type":"Polygon","coordinates":[[[77.641744963121724,20.810284754363494],[77.640300735178826,20.810369142762031],[77.640162526415935,20.808490981605509],[77.640122638980003,20.80779620977146],[77.640092867183583,20.807206835811755],[77.640059133034853,20.806705098768514],[77.640278132660953,20.80666616737772],[77.640765564879729,20.806620959929877],[77.641313041418115,20.806546597927682],[77.641347996682995,20.806768097642394],[77.641459246806363,20.807750693246412],[77.641487047816611,20.807999820557143],[77.641744963121724,20.810284754363494]]]},"properties":{"FID":6,"Join_Count":2,"TARGET_FID":7,"Layer":"TEXT_PARCEL","Text":"35","vill_code":"533010","LGD_CODE":"533010"}},{"type":"Feature","id":7,"geometry":{"type":"Polygon","coordinates":[[[77.629853333775173,20.808130430022278],[77.629951273553473,20.810661896717846],[77.628218371199452,20.810335827791608],[77.628201630330736,20.810202942831573],[77.628398344974059,20.808806021135339],[77.628360607151265,20.808464412214015],[77.628160871668783,20.807115271950405],[77.629073437651087,20.806657988989297],[77.629374225441083,20.807387790129976],[77.629853333775173,20.808130430022278]]]},"properties":{"FID":7,"Join_Count":2,"TARGET_FID":8,"Layer":"TEXT_PARCEL","Text":"48","vill_code":"533010","LGD_CODE":"533010"}},{"type":"Feature","id":8,"geometry":{"type":"Polygon","coordinates":[[[77.631123092297031,20.810509117895158],[77.629951273553473,20.810661896717846],[77.629853333775173,20.808130430022278],[77.629374225441083,20.807387790129976],[77.632233377855073,20.807029739829598],[77.634182433270382,20.80694506949882],[77.633568748583286,20.807877861888148],[77.633029526965572,20.808893203714526],[77.63294576759462,20.809083276277612],[77.632457619801116,20.810102572421115],[77.631566648555449,20.81038281085457],[77.631332032126409,20.810452230238639],[77.631123092297031,20.810509117895158]]]},"properties":{"FID":8,"Join_Count":2,"TARGET_FID":9,"Layer":"TEXT_PARCEL","Text":"47","vill_code":"533010","LGD_CODE":"533010"}},{"type":"Feature","id":9,"geometry":{"type":"Polygon","coordinates":[[[77.636733297929865,20.811146046753496],[77.635516145211795,20.811278367238998],[77.634559843987859,20.811045926781116],[77.633600925724608,20.810895585168257],[77.632627245003903,20.81077805374531],[77.632599632763288,20.810648508338673],[77.632457619801116,20.810102572421115],[77.63294576759462,20.809083276277612],[77.636593195996383,20.808677830523195],[77.636581362127018,20.809764868974149],[77.636733297929865,20.811146046753496]]]},"properties":{"FID":9,"Join_Count":2,"TARGET_FID":10,"Layer":"TEXT_PARCEL","Text":"42","vill_code":"533010","LGD_CODE":"533010"}},{"type":"Feature","id":10,"geometry":{"type":"Polygon","coordinates":[[[77.641806682271053,20.810497573736289],[77.641949037156067,20.811340958528891],[77.6411155662433,20.811343862263396],[77.641076768736937,20.811060728368709],[77.638427726209585,20.811204037815383],[77.639277046931269,20.808606845099153],[77.640162526415935,20.808490981605509],[77.640300735178826,20.810369142762031],[77.641744963121724,20.810284754363494],[77.641806682271053,20.810497573736289]]]},"properties":{"FID":10,"Join_Count":2,"TARGET_FID":11,"Layer":"TEXT_PARCEL","Text":"37","vill_code":"533010","LGD_CODE":"533010"}},{"type":"Feature","id":11,"geometry":{"type":"Polygon","coordinates":[[[77.643100313546853,20.811417163831617],[77.641990577172209,20.811571076163119],[77.641949037156067,20.811340958528891],[77.641806682271053,20.810497573736289],[77.641744963121724,20.810284754363494],[77.641487047816611,20.807999820557143],[77.641771692852373,20.808019041863112],[77.6424542532869,20.808073713766444],[77.642695370186345,20.809629413145185],[77.642741994479437,20.809810506239387],[77.643100313546853,20.811417163831617]]]},"properties":{"FID":11,"Join_Count":2,"TARGET_FID":12,"Layer":"TEXT_PARCEL","Text":"36","vill_code":"533010","LGD_CODE":"533010"}},{"type":"Feature","id":12,"geometry":{"type":"Polygon","coordinates":[[[77.647344759188115,20.811766385671991],[77.644370794898634,20.812114989779435],[77.644115859312095,20.809877593630347],[77.64684163639896,20.809055486178671],[77.647344759188115,20.811766385671991]]]},"properties":{"FID":12,"Join_Count":2,"TARGET_FID":13,"Layer":"TEXT_PARCEL","Text":"27","vill_code":"533010","LGD_CODE":"533010"}},{"type":"Feature","id":13,"geometry":{"type":"Polygon","coordinates":[[[77.63513066304499,20.8127242073658],[77.634592754962497,20.812776640259997],[77.634525452244787,20.812554504480953],[77.634234490709488,20.812016078197463],[77.633784954017557,20.811210392934921],[77.633600925724608,20.810895585168257],[77.634559843987859,20.811045926781116],[77.635516145211795,20.811278367238998],[77.636733297929865,20.811146046753496],[77.636581362127018,20.809764868974149],[77.636593195996383,20.808677830523195],[77.638175847535919,20.808632811907337],[77.639277046931269,20.808606845099153],[77.638427726209585,20.811204037815383],[77.638229891976025,20.811738835880213],[77.637212472681242,20.812495973091679],[77.636711805026735,20.812423939313671],[77.63621314646818,20.812465204356446],[77.635666479845256,20.81259994321173],[77.63513066304499,20.8127242073658]]]},"properties":{"FID":13,"Join_Count":2,"TARGET_FID":14,"Layer":"TEXT_PARCEL","Text":"41","vill_code":"533010","LGD_CODE":"533010"}},{"type":"Feature","id":14,"geometry":{"type":"Polygon","coordinates":[[[77.633894774805441,20.81297083676326],[77.633715301581674,20.812977281410056],[77.63324746800221,20.812977990577711],[77.63307673308185,20.812974943882072],[77.632127932093141,20.812732104233707],[77.631959583688726,20.812673180102102],[77.631896328132129,20.812509405325134],[77.631332032126409,20.810452230238639],[77.631566648555449,20.81038281085457],[77.632457619801116,20.810102572421115],[77.632599632763288,20.810648508338673],[77.632627245003903,20.81077805374531],[77.633600925724608,20.810895585168257],[77.633784954017557,20.811210392934921],[77.634234490709488,20.812016078197463],[77.634525452244787,20.812554504480953],[77.634592754962497,20.812776640259997],[77.634532975737571,20.81278246631426],[77.634274096785987,20.812855295645072],[77.634058023110185,20.812916081551165],[77.633894774805441,20.81297083676326]]]},"properties":{"FID":14,"Join_Count":3,"TARGET_FID":15,"Layer":"TEXT_PARCEL","Text":"53","vill_code":"533010","LGD_CODE":"533010"}},{"type":"Feature","id":15,"geometry":{"type":"Polygon","coordinates":[[[77.628887870923407,20.813103893426305],[77.62870555892809,20.813114358946731],[77.628252067897776,20.810568144885654],[77.628218371199452,20.810335827791608],[77.629951273553473,20.810661896717846],[77.631123092297031,20.810509117895158],[77.631332032126409,20.810452230238639],[77.631896328132129,20.812509405325134],[77.631959583688726,20.812673180102102],[77.631766625663843,20.812969892197536],[77.631561200295735,20.812928221148173],[77.630492157084788,20.812792523602933],[77.628887870923407,20.813103893426305]]]},"properties":{"FID":15,"Join_Count":2,"TARGET_FID":16,"Layer":"TEXT_PARCEL","Text":"52","vill_code":"533010","LGD_CODE":"533010"}},{"type":"Feature","id":16,"geometry":{"type":"Polygon","coordinates":[[[77.638822336359169,20.812956155033362],[77.638645956657697,20.813090394579241],[77.63840331978821,20.812902375529678],[77.638066779642031,20.812750512192135],[77.637658248457768,20.812584316263589],[77.637212472681242,20.812495973091679],[77.638229891976025,20.811738835880213],[77.638427726209585,20.811204037815383],[77.641076768736937,20.811060728368709],[77.6411155662433,20.811343862263396],[77.641949037156067,20.811340958528891],[77.641990577172209,20.811571076163119],[77.64207148783396,20.812510343726213],[77.640346286679517,20.812606670668583],[77.638822336359169,20.812956155033362]]]},"properties":{"FID":16,"Join_Count":2,"TARGET_FID":17,"Layer":"TEXT_PARCEL","Text":"38","vill_code":"533010","LGD_CODE":"533010"}},{"type":"Feature","id":17,"geometry":{"type":"Polygon","coordinates":[[[77.643736570215196,20.812927092911703],[77.642124811167974,20.81307213638571],[77.64207148783396,20.812510343726213],[77.641990577172209,20.811571076163119],[77.643100313546853,20.811417163831617],[77.642741994479437,20.809810506239387],[77.642908361650925,20.809835456577378],[77.644115859312095,20.809877593630347],[77.644370794898634,20.812114989779435],[77.643736570215196,20.812927092911703]]]},"properties":{"FID":17,"Join_Count":2,"TARGET_FID":18,"Layer":"TEXT_PARCEL","Text":"26","vill_code":"533010","LGD_CODE":"533010"}},{"type":"Feature","id":18,"geometry":{"type":"Polygon","coordinates":[[[77.640010113396983,20.813425906063607],[77.639617457536133,20.81353249283438],[77.639457902809426,20.813403624388449],[77.63895529887192,20.813064995537172],[77.638822336359169,20.812956155033362],[77.640346286679517,20.812606670668583],[77.64207148783396,20.812510343726213],[77.642124811167974,20.81307213638571],[77.641903964852801,20.813095459118035],[77.640588833258747,20.813325875672547],[77.640010113396983,20.813425906063607]]]},"properties":{"FID":18,"Join_Count":2,"TARGET_FID":19,"Layer":"TEXT_PARCEL","Text":"25","vill_code":"533010","LGD_CODE":"533010"}},{"type":"Feature","id":19,"geometry":{"type":"Polygon","coordinates":[[[77.643596592654291,20.813603525956569],[77.643432246281222,20.813625845503346],[77.643736570215196,20.812927092911703],[77.644370794898634,20.812114989779435],[77.647344759188115,20.811766385671991],[77.647351550615895,20.811805445887391],[77.647394397339056,20.812299083076823],[77.647399994641816,20.812787521853455],[77.647419299427781,20.813125661198299],[77.645354585280387,20.813170535226934],[77.643596592654291,20.813603525956569]]]},"properties":{"FID":19,"Join_Count":2,"TARGET_FID":20,"Layer":"TEXT_PARCEL","Text":"23","vill_code":"533010","LGD_CODE":"533010"}},{"type":"Feature","id":20,"geometry":{"type":"Polygon","coordinates":[[[77.634647062720575,20.81364057030526],[77.634698442578056,20.814262196195141],[77.63451919856017,20.814253961311231],[77.63435379237329,20.814249187277184],[77.634274096785987,20.812855295645072],[77.634532975737571,20.81278246631426],[77.634592754962497,20.812776640259997],[77.634647062720575,20.81364057030526]]]},"properties":{"FID":20,"Join_Count":2,"TARGET_FID":21,"Layer":"TEXT_PARCEL","Text":"54","vill_code":"533010","LGD_CODE":"533010"}},{"type":"Feature","id":21,"geometry":{"type":"Polygon","coordinates":[[[77.634875874771154,20.814405819073936],[77.634731142160902,20.814421889819808],[77.634484679865551,20.814416271097706],[77.634362235062071,20.81439244433874],[77.63435379237329,20.814249187277184],[77.63451919856017,20.814253961311231],[77.634698442578056,20.814262196195141],[77.634647062720575,20.81364057030526],[77.635151572874548,20.813561262997425],[77.635224705423511,20.814323114855309],[77.634875874771154,20.814405819073936]]]},"properties":{"FID":21,"Join_Count":3,"TARGET_FID":22,"Layer":"TEXT_PARCEL","Text":"55","vill_code":"533010","LGD_CODE":"533010"}},{"type":"Feature","id":22,"geometry":{"type":"Polygon","coordinates":[[[77.633993540256185,20.814399175339201],[77.633355543287422,20.814511817885318],[77.633151121775938,20.813755946207536],[77.633071498992848,20.813165797333475],[77.63307673308185,20.812974943882072],[77.63324746800221,20.812977990577711],[77.633715301581674,20.812977281410056],[77.633894774805441,20.81297083676326],[77.633934987120469,20.813820347653898],[77.633993540256185,20.814399175339201]]]},"properties":{"FID":22,"Join_Count":2,"TARGET_FID":23,"Layer":"TEXT_PARCEL","Text":"57","vill_code":"533010","LGD_CODE":"533010"}},{"type":"Feature","id":23,"geometry":{"type":"Polygon","coordinates":[[[77.643140605664186,20.814106810798172],[77.639947098479055,20.814588855948568],[77.639912921769152,20.814471726777761],[77.639617457536133,20.81353249283438],[77.640010113396983,20.813425906063607],[77.640588833258747,20.813325875672547],[77.641903964852801,20.813095459118035],[77.642124811167974,20.81307213638571],[77.643736570215196,20.812927092911703],[77.643432246281222,20.813625845503346],[77.64322978936147,20.813980290548734],[77.643140605664186,20.814106810798172]]]},"properties":{"FID":23,"Join_Count":2,"TARGET_FID":24,"Layer":"TEXT_PARCEL","Text":"24","vill_code":"533010","LGD_CODE":"533010"}},{"type":"Feature","id":24,"geometry":{"type":"Polygon","coordinates":[[[77.635350097472497,20.814640348581904],[77.635351096707211,20.814834852847813],[77.635262280173649,20.814774520498293],[77.635224164185288,20.814617260490056],[77.635246984283626,20.814490223099178],[77.635224705423511,20.814323114855309],[77.635151572874548,20.813561262997425],[77.635275854924402,20.81356576585187],[77.635350097472497,20.814640348581904]]]},"properties":{"FID":24,"Join_Count":1,"TARGET_FID":25,"Layer":"POLY_PARCEL","Text":"छन\u094Dस\u094Dस\u094D","vill_code":"533010","LGD_CODE":"533010"}},{"type":"Feature","id":25,"geometry":{"type":"Polygon","coordinates":[[[77.633663592610347,20.815159556422078],[77.633497547226696,20.815184359440817],[77.63346636590596,20.815034390403049],[77.633355543287422,20.814511817885318],[77.633993540256185,20.814399175339201],[77.633934987120469,20.813820347653898],[77.633894774805441,20.81297083676326],[77.634058023110185,20.812916081551165],[77.634274096785987,20.812855295645072],[77.63435379237329,20.814249187277184],[77.634362235062071,20.81439244433874],[77.634484679865551,20.814416271097706],[77.634731142160902,20.814421889819808],[77.634875874771154,20.814405819073936],[77.635224705423511,20.814323114855309],[77.635246984283626,20.814490223099178],[77.635224164185288,20.814617260490056],[77.635262280173649,20.814774520498293],[77.634971443981996,20.81487931016683],[77.634614496116683,20.815055896884584],[77.634301423124569,20.815094196344155],[77.633663592610347,20.815159556422078]]]},"properties":{"FID":25,"Join_Count":2,"TARGET_FID":26,"Layer":"TEXT_PARCEL","Text":"56","vill_code":"533010","LGD_CODE":"533010"}},{"type":"Feature","id":26,"geometry":{"type":"Polygon","coordinates":[[[77.647431487722486,20.813339150715365],[77.647463290999326,20.81390811864788],[77.647480287074814,20.814396325244275],[77.647482300299771,20.814454161970101],[77.647541239724319,20.814826349615032],[77.647132738324501,20.814873736016864],[77.645520494052676,20.815022531352554],[77.644122143308152,20.815464606579834],[77.643911280864245,20.815175205079584],[77.64347705388434,20.814541353268506],[77.643140605664314,20.814106810798247],[77.643229789361499,20.813980290548667],[77.643432246281179,20.813625845503282],[77.643596592654319,20.81360352595652],[77.645354585280472,20.813170535227073],[77.647419299427838,20.813125661198285],[77.647431487722486,20.813339150715365]]]},"properties":{"FID":26,"Join_Count":2,"TARGET_FID":27,"Layer":"TEXT_PARCEL","Text":"22","vill_code":"533010","LGD_CODE":"533010"}},{"type":"Feature","id":27,"geometry":{"type":"Polygon","coordinates":[[[77.639912921769223,20.814471726777811],[77.636412754526418,20.815232716354956],[77.636213146468322,20.812465204356556],[77.636711805026664,20.812423939313589],[77.637212472681199,20.812495973091639],[77.637658248457853,20.812584316263724],[77.638066779642031,20.812750512192224],[77.63840331978821,20.812902375529745],[77.63864595665774,20.813090394579323],[77.638822336359112,20.812956155033479],[77.638955298871963,20.813064995537161],[77.639457902809454,20.813403624388513],[77.63961745753619,20.813532492834387],[77.639912921769223,20.814471726777811]]]},"properties":{"FID":27,"Join_Count":2,"TARGET_FID":29,"Layer":"TEXT_PARCEL","Text":"39","vill_code":"533010","LGD_CODE":"533010"}},{"type":"Feature","id":28,"geometry":{"type":"Polygon","coordinates":[[[77.636290398150464,20.815296677960728],[77.636114013745413,20.815307711351494],[77.635351096707211,20.814834852847813],[77.635350097472497,20.814640348581904],[77.635275854924402,20.81356576585187],[77.635151572874548,20.813561262997425],[77.634647062720575,20.81364057030526],[77.634592754962497,20.812776640259997],[77.63513066304499,20.8127242073658],[77.635666479845256,20.81259994321173],[77.63621314646818,20.812465204356446],[77.63641275452629,20.815232716354963],[77.636290398150464,20.815296677960728]]]},"properties":{"FID":28,"Join_Count":2,"TARGET_FID":30,"Layer":"TEXT_PARCEL","Text":"40","vill_code":"533010","LGD_CODE":"533010"}},{"type":"Feature","id":29,"geometry":{"type":"Polygon","coordinates":[[[77.637883245268782,20.815061968784899],[77.636422867280316,20.815339556558676],[77.63641275452629,20.815232716354963],[77.636603010528418,20.815215553665197],[77.637929963014074,20.814945641507716],[77.639734179824117,20.814522834863414],[77.639912921769152,20.814471726777761],[77.639947098479055,20.814588855948568],[77.639784809701879,20.814630012075245],[77.637883245268782,20.815061968784899]]]},"properties":{"FID":29,"Join_Count":1,"TARGET_FID":31,"Layer":"POLY_PARCEL","Text":"छन\u094Dस\u094Dस\u094D","vill_code":"533010","LGD_CODE":"533010"}},{"type":"Feature","id":30,"geometry":{"type":"Polygon","coordinates":[[[77.628826876297254,20.815284876588578],[77.629006301233872,20.815630461563547],[77.626484522240261,20.815313618275958],[77.626467300824686,20.815028924671036],[77.626319059617785,20.813623999271847],[77.626650045556659,20.813030103465433],[77.62870555892809,20.813114358946731],[77.628676102214598,20.814569155883639],[77.628795104041728,20.815213813445496],[77.628826876297254,20.815284876588578]]]},"properties":{"FID":30,"Join_Count":2,"TARGET_FID":32,"Layer":"TEXT_PARCEL","Text":"62","vill_code":"533010","LGD_CODE":"533010"}},{"type":"Feature","id":31,"geometry":{"type":"Polygon","coordinates":[[[77.631843972639828,20.815630872746134],[77.631782420423207,20.815640900038058],[77.631766625663843,20.812969892197536],[77.631959583688726,20.812673180102102],[77.632127932093141,20.812732104233707],[77.63307673308185,20.812974943882072],[77.633071498992848,20.813165797333475],[77.633151121775938,20.813755946207536],[77.633355543287422,20.814511817885318],[77.63346636590596,20.815034390403049],[77.633497547226696,20.815184359440817],[77.632945330153248,20.815335740868797],[77.632370963562025,20.815478120707727],[77.631843972639828,20.815630872746134]]]},"properties":{"FID":31,"Join_Count":2,"TARGET_FID":33,"Layer":"TEXT_PARCEL","Text":"58","vill_code":"533010","LGD_CODE":"533010"}},{"type":"Feature","id":32,"geometry":{"type":"Polygon","coordinates":[[[77.631245911482722,20.815720481869349],[77.630824508560437,20.815738041120277],[77.630220649434094,20.815718395730944],[77.629006301233872,20.815630461563547],[77.628826876297254,20.815284876588578],[77.628795104041728,20.815213813445496],[77.628676102214598,20.814569155883639],[77.62870555892809,20.813114358946731],[77.628887870923407,20.813103893426305],[77.630492157084788,20.812792523602933],[77.631561200295735,20.812928221148173],[77.631766625663843,20.812969892197536],[77.631782420423207,20.815640900038058],[77.631245911482722,20.815720481869349]]]},"properties":{"FID":32,"Join_Count":2,"TARGET_FID":35,"Layer":"TEXT_PARCEL","Text":"61","vill_code":"533010","LGD_CODE":"533010"}},{"type":"Feature","id":33,"geometry":{"type":"Polygon","coordinates":[[[77.635272792214892,20.816199523653061],[77.634684456008316,20.816291688515207],[77.634313463656682,20.815247871332428],[77.634614496116683,20.815055896884584],[77.634971443981996,20.81487931016683],[77.635262280173649,20.814774520498293],[77.635351096707211,20.814834852847813],[77.636114013745413,20.815307711351494],[77.636290398150464,20.815296677960728],[77.63641275452629,20.815232716354963],[77.636422867280316,20.815339556558676],[77.636428585494059,20.81539996864414],[77.636368483173086,20.81542640106337],[77.635786403080218,20.815542621168984],[77.635196232435746,20.816011947125855],[77.635272792214892,20.816199523653061]]]},"properties":{"FID":33,"Join_Count":2,"TARGET_FID":36,"Layer":"TEXT_MAPIN","Text":"ग\u093E\u0902वठ\u093Eण","vill_code":"533010","LGD_CODE":"533010"}},{"type":"Feature","id":34,"geometry":{"type":"Polygon","coordinates":[[[77.64347705388434,20.814541353268506],[77.643911280864245,20.815175205079584],[77.644122143308152,20.815464606579834],[77.64432759456065,20.815746578540992],[77.645117678218526,20.81689659798781],[77.641881398852775,20.817233879734317],[77.64111496287552,20.816421173575236],[77.640481884527162,20.815749866813409],[77.640398848413042,20.815585141498957],[77.639947098479183,20.814588855948553],[77.643140605664314,20.814106810798247],[77.64347705388434,20.814541353268506]]]},"properties":{"FID":34,"Join_Count":2,"TARGET_FID":38,"Layer":"TEXT_PARCEL","Text":"20","vill_code":"533010","LGD_CODE":"533010"}},{"type":"Feature","id":35,"geometry":{"type":"Polygon","coordinates":[[[77.633974704489006,20.816505473948254],[77.63352553118574,20.816729314982091],[77.633014839813839,20.815434222911122],[77.63316338073686,20.815396970628647],[77.633580727279025,20.815287256522623],[77.634158794828707,20.815247952981785],[77.634313463656682,20.815247871332428],[77.634684456008316,20.816291688515207],[77.633974704489006,20.816505473948254]]]},"properties":{"FID":35,"Join_Count":2,"TARGET_FID":39,"Layer":"TEXT_PARCEL","Text":"59","vill_code":"533010","LGD_CODE":"533010"}},{"type":"Feature","id":36,"geometry":{"type":"Polygon","coordinates":[[[77.647834056016805,20.816606977865703],[77.645117678218512,20.81689659798781],[77.644327594560593,20.815746578541081],[77.644122143308124,20.815464606579816],[77.645520494052732,20.815022531352469],[77.647132738324515,20.814873736016846],[77.64754123972422,20.814826349615068],[77.647569517938692,20.815004917085783],[77.647663852890418,20.815607592936441],[77.647751792013011,20.816198806358724],[77.647834056016805,20.816606977865703]]]},"properties":{"FID":36,"Join_Count":2,"TARGET_FID":41,"Layer":"TEXT_PARCEL","Text":"21","vill_code":"533010","LGD_CODE":"533010"}},{"type":"Feature","id":37,"geometry":{"type":"Polygon","coordinates":[[[77.63716338184561,20.817230663021277],[77.635600384598234,20.817552028639845],[77.635560385653562,20.817402803510063],[77.635272792214892,20.816199523653061],[77.635196232435746,20.816011947125855],[77.635786403080218,20.815542621168984],[77.636368483173086,20.81542640106337],[77.636842927351381,20.816386314480358],[77.63716338184561,20.817230663021277]]]},"properties":{"FID":37,"Join_Count":2,"TARGET_FID":43,"Layer":"TEXT_PARCEL","Text":"1","vill_code":"533010","LGD_CODE":"533010"}},{"type":"Feature","id":38,"geometry":{"type":"Polygon","coordinates":[[[77.637460413573976,20.817583580219789],[77.637350127734393,20.817618657566342],[77.63716338184561,20.817230663021277],[77.636842927351381,20.816386314480358],[77.636368483173086,20.81542640106337],[77.636428585494059,20.81539996864414],[77.636949326460851,20.81639625908322],[77.63741917270778,20.817497037183855],[77.637460413573976,20.817583580219789]]]},"properties":{"FID":38,"Join_Count":0,"TARGET_FID":45,"Layer":" ","Text":" ","vill_code":"533010","LGD_CODE":"533010"}},{"type":"Feature","id":39,"geometry":{"type":"Polygon","coordinates":[[[77.635279837084511,20.817900800684622],[77.634056351398826,20.818077816550247],[77.633797689524314,20.817199853451754],[77.63352553118574,20.816729314982091],[77.633974704489006,20.816505473948254],[77.634684456008316,20.816291688515207],[77.635272792214892,20.816199523653061],[77.635560385653562,20.817402803510063],[77.635600384598234,20.817552028639845],[77.635279837084511,20.817900800684622]]]},"properties":{"FID":39,"Join_Count":2,"TARGET_FID":46,"Layer":"TEXT_PARCEL","Text":"75","vill_code":"533010","LGD_CODE":"533010"}},{"type":"Feature","id":40,"geometry":{"type":"Polygon","coordinates":[[[77.63324475778299,20.81817823140738],[77.632088760185695,20.818240539000332],[77.631995465136768,20.817103576107296],[77.631719852922103,20.815759746531519],[77.631930916134735,20.815718901370008],[77.632536553568812,20.815554170541642],[77.633014839813839,20.815434222911122],[77.63352553118574,20.816729314982091],[77.633797689524314,20.817199853451754],[77.634056351398826,20.818077816550247],[77.63324475778299,20.81817823140738]]]},"properties":{"FID":40,"Join_Count":2,"TARGET_FID":48,"Layer":"TEXT_PARCEL","Text":"60","vill_code":"533010","LGD_CODE":"533010"}},{"type":"Feature","id":41,"geometry":{"type":"Polygon","coordinates":[[[77.629076080998701,20.816592608287866],[77.62919886688114,20.818553935985943],[77.62589289737538,20.81851725258705],[77.625982724448619,20.817170193013737],[77.626013411381436,20.816171217711524],[77.626458385854903,20.815409380016177],[77.626655305474131,20.815437341878905],[77.629032965228745,20.815729805930349],[77.629050425192929,20.816077861183732],[77.629076080998701,20.816592608287866]]]},"properties":{"FID":41,"Join_Count":2,"TARGET_FID":49,"Layer":"TEXT_PARCEL","Text":"67","vill_code":"533010","LGD_CODE":"533010"}},{"type":"Feature","id":42,"geometry":{"type":"Polygon","coordinates":[[[77.631431740027381,20.818377428449285],[77.62919886688114,20.818553935985943],[77.629076080998701,20.816592608287866],[77.629050425192929,20.816077861183732],[77.629032965228745,20.815729805930349],[77.630150601788813,20.815858683226175],[77.631303433790777,20.815838557700516],[77.631719852922103,20.815759746531519],[77.631995465136768,20.817103576107296],[77.632088760185695,20.818240539000332],[77.631431740027381,20.818377428449285]]]},"properties":{"FID":42,"Join_Count":2,"TARGET_FID":50,"Layer":"TEXT_PARCEL","Text":"70","vill_code":"533010","LGD_CODE":"533010"}},{"type":"Feature","id":43,"geometry":{"type":"Polygon","coordinates":[[[77.64111496287552,20.816421173575236],[77.641881398852775,20.817233879734317],[77.642027929792334,20.817340217494799],[77.642454715407723,20.817645061989644],[77.642583851645611,20.817828662552188],[77.642657501784015,20.817953248249296],[77.642497057680146,20.818025481416836],[77.641939107983774,20.818242603997017],[77.64089662845987,20.818493602504308],[77.64050983475579,20.8174207346168],[77.639925524666978,20.816797738732586],[77.639619004620783,20.815998437117283],[77.640481884527162,20.815749866813409],[77.64111496287552,20.816421173575236]]]},"properties":{"FID":43,"Join_Count":2,"TARGET_FID":51,"Layer":"TEXT_PARCEL","Text":"4","vill_code":"533010","LGD_CODE":"533010"}},{"type":"Feature","id":44,"geometry":{"type":"Polygon","coordinates":[[[77.644628649322087,20.81870080360331],[77.643584572090674,20.81897419245503],[77.64265750178393,20.817953248249253],[77.64258385164554,20.817828662552124],[77.642454715407666,20.81764506198968],[77.642027929792221,20.817340217494699],[77.641881398852775,20.817233879734196],[77.645117678218512,20.81689659798781],[77.647834056016805,20.816606977865703],[77.647863879359548,20.816754953244565],[77.648033262578025,20.817920136728894],[77.648128078908314,20.818521111527076],[77.646572583478701,20.818259758211472],[77.644628649322087,20.81870080360331]]]},"properties":{"FID":44,"Join_Count":2,"TARGET_FID":53,"Layer":"TEXT_PARCEL","Text":"19","vill_code":"533010","LGD_CODE":"533010"}},{"type":"Feature","id":45,"geometry":{"type":"Polygon","coordinates":[[[77.639925524666978,20.816797738732586],[77.64050983475579,20.8174207346168],[77.64089662845987,20.818493602504308],[77.63827622899197,20.819295549470041],[77.637460413574104,20.817583580219775],[77.637419172707894,20.817497037183951],[77.636949326460865,20.81639625908327],[77.6370465410821,20.816374895492174],[77.638457368144032,20.816066374066903],[77.638535628891248,20.81620594710995],[77.639619004620783,20.815998437117283],[77.639925524666978,20.816797738732586]]]},"properties":{"FID":45,"Join_Count":2,"TARGET_FID":55,"Layer":"TEXT_PARCEL","Text":"3","vill_code":"533010","LGD_CODE":"533010"}},{"type":"Feature","id":46,"geometry":{"type":"Polygon","coordinates":[[[77.629198866881097,20.818553935986017],[77.629274990159843,20.819743976181652],[77.629372215577746,20.82126384401499],[77.625911128416533,20.820585418784507],[77.625662689135822,20.820503849224902],[77.625667164866002,20.820297675237668],[77.625892897375309,20.818517252587135],[77.629198866881097,20.818553935986017]]]},"properties":{"FID":46,"Join_Count":3,"TARGET_FID":57,"Layer":"TEXT_PARCEL","Text":"68","vill_code":"533010","LGD_CODE":"533010"}},{"type":"Feature","id":47,"geometry":{"type":"Polygon","coordinates":[[[77.642448905038606,20.820307847971382],[77.638771176289765,20.820820396493705],[77.638382620959433,20.819559256369036],[77.638276228991984,20.819295549469995],[77.640896628459799,20.818493602504297],[77.641939107983731,20.818242603996939],[77.642448905038606,20.820307847971382]]]},"properties":{"FID":47,"Join_Count":2,"TARGET_FID":58,"Layer":"TEXT_PARCEL","Text":"5","vill_code":"533010","LGD_CODE":"533010"}},{"type":"Feature","id":48,"geometry":{"type":"Polygon","coordinates":[[[77.635742307973032,20.818126024120431],[77.635758973905126,20.818193425731295],[77.636208350998004,20.820346033325844],[77.636264973936704,20.820548309252388],[77.633721881385043,20.820972858295587],[77.633338518094035,20.818727420508932],[77.633244757783075,20.81817823140744],[77.63405635139884,20.818077816550389],[77.635279837084568,20.81790080068458],[77.635600384598263,20.817552028639966],[77.635742307973032,20.818126024120431]]]},"properties":{"FID":48,"Join_Count":2,"TARGET_FID":59,"Layer":"TEXT_PARCEL","Text":"74","vill_code":"533010","LGD_CODE":"533010"}},{"type":"Feature","id":49,"geometry":{"type":"Polygon","coordinates":[[[77.644628649322087,20.81870080360331],[77.646080909107624,20.820812324982466],[77.64542291616138,20.820765784163932],[77.644702331831226,20.820404193444649],[77.643584572090674,20.81897419245503],[77.644628649322087,20.81870080360331]]]},"properties":{"FID":49,"Join_Count":2,"TARGET_FID":60,"Layer":"TEXT_PARCEL","Text":"17","vill_code":"533010","LGD_CODE":"533010"}},{"type":"Feature","id":50,"geometry":{"type":"Polygon","coordinates":[[[77.648128078908314,20.818521111527076],[77.648794305512823,20.821050963393773],[77.647610136928947,20.820878104717575],[77.646080909107624,20.820812324982466],[77.644628649322087,20.81870080360331],[77.646572583478701,20.818259758211472],[77.648128078908314,20.818521111527076]]]},"properties":{"FID":50,"Join_Count":2,"TARGET_FID":62,"Layer":"TEXT_PARCEL","Text":"18","vill_code":"533010","LGD_CODE":"533010"}},{"type":"Feature","id":51,"geometry":{"type":"Polygon","coordinates":[[[77.631395466002004,20.819213518688574],[77.631283725690821,20.821789113858244],[77.630347982503338,20.821731775955641],[77.630408443438796,20.821473560213178],[77.629372215577746,20.82126384401499],[77.629274990159843,20.819743976181652],[77.629198866881097,20.818553935986017],[77.631431740027438,20.818377428449431],[77.631395466002004,20.819213518688574]]]},"properties":{"FID":51,"Join_Count":2,"TARGET_FID":63,"Layer":"TEXT_PARCEL","Text":"69","vill_code":"533010","LGD_CODE":"533010"}},{"type":"Feature","id":52,"geometry":{"type":"Polygon","coordinates":[[[77.637018934257327,20.821772294263216],[77.633938954836751,20.82185447112585],[77.633721881385043,20.820972858295548],[77.636264973936676,20.820548309252398],[77.63635464128761,20.820720228862498],[77.636794374722768,20.821390953653264],[77.637018934257327,20.821772294263216]]]},"properties":{"FID":52,"Join_Count":2,"TARGET_FID":64,"Layer":"TEXT_PARCEL","Text":"72","vill_code":"533010","LGD_CODE":"533010"}},{"type":"Feature","id":53,"geometry":{"type":"Polygon","coordinates":[[[77.633338518094035,20.818727420508932],[77.633721881385043,20.820972858295587],[77.633938954836879,20.821854471125963],[77.632986058687322,20.821890132257977],[77.631283725690821,20.821789113858244],[77.631395466002004,20.819213518688574],[77.631431740027438,20.818377428449431],[77.632088760185695,20.818240539000321],[77.633244757783075,20.81817823140744],[77.633338518094035,20.818727420508932]]]},"properties":{"FID":53,"Join_Count":2,"TARGET_FID":65,"Layer":"TEXT_PARCEL","Text":"71","vill_code":"533010","LGD_CODE":"533010"}},{"type":"Feature","id":54,"geometry":{"type":"Polygon","coordinates":[[[77.639041929902447,20.822470443995311],[77.638955016700663,20.822491469783415],[77.638794896531721,20.821433912944471],[77.638670482568159,20.820834571210749],[77.638170998970637,20.819324118489444],[77.637350127734393,20.817618657566342],[77.637460413573976,20.817583580219789],[77.638276228991984,20.819295549469995],[77.638382620959433,20.819559256369036],[77.638771176289765,20.820820396493705],[77.639041929902447,20.822470443995311]]]},"properties":{"FID":54,"Join_Count":1,"TARGET_FID":66,"Layer":"POLY_PARCEL","Text":"छन\u094Dस\u094Dस\u094D","vill_code":"533010","LGD_CODE":"533010"}},{"type":"Feature","id":55,"geometry":{"type":"Polygon","coordinates":[[[77.647482876732525,20.822282015053069],[77.646646804375692,20.822521391460899],[77.645868696801386,20.822269446603435],[77.645374060188416,20.822167195680105],[77.644220703950992,20.820615928498757],[77.64340699276319,20.820859859659798],[77.643241760507777,20.821526428617521],[77.642785009824934,20.821789392831441],[77.642448905038606,20.820307847971382],[77.641939107983731,20.818242603996939],[77.64249705768006,20.818025481416811],[77.64265750178393,20.817953248249253],[77.643584572090674,20.81897419245503],[77.644702331831226,20.820404193444649],[77.64542291616138,20.820765784163932],[77.646080909107624,20.820812324982466],[77.647610136928947,20.820878104717575],[77.648794305512823,20.821050963393773],[77.648909205987266,20.821548671062931],[77.649022540139669,20.822174172435012],[77.647482876732525,20.822282015053069]]]},"properties":{"FID":55,"Join_Count":2,"TARGET_FID":67,"Layer":"TEXT_PARCEL","Text":"16","vill_code":"533010","LGD_CODE":"533010"}},{"type":"Feature","id":56,"geometry":{"type":"Polygon","coordinates":[[[77.637350127734464,20.8176186575663],[77.638170998970679,20.819324118489362],[77.638670482568273,20.820834571210874],[77.638794896531863,20.821433912944599],[77.63895501670072,20.822491469783525],[77.637443904204417,20.822861366456777],[77.637388878089382,20.822726233334492],[77.63720912280246,20.822194258846253],[77.637018934257355,20.821772294263322],[77.636794374722854,20.821390953653182],[77.636354641287539,20.820720228862456],[77.636264973936704,20.820548309252388],[77.636208350998004,20.820346033325844],[77.635758973905126,20.818193425731295],[77.635742307973032,20.818126024120431],[77.635600384598263,20.817552028639966],[77.637163381845653,20.817230663021409],[77.637350127734464,20.8176186575663]]]},"properties":{"FID":56,"Join_Count":2,"TARGET_FID":68,"Layer":"TEXT_PARCEL","Text":"73","vill_code":"533010","LGD_CODE":"533010"}},{"type":"Feature","id":57,"geometry":{"type":"Polygon","coordinates":[[[77.642883918591835,20.822367071058562],[77.640001148985021,20.822843259765676],[77.639940499412788,20.82245365594806],[77.639741606205163,20.82245326193684],[77.639085025980705,20.822460018348465],[77.639041929902447,20.822470443995311],[77.638771176289765,20.820820396493705],[77.642448905038606,20.820307847971382],[77.642785009824934,20.821789392831441],[77.642883918591835,20.822367071058562]]]},"properties":{"FID":57,"Join_Count":2,"TARGET_FID":69,"Layer":"TEXT_PARCEL","Text":"6","vill_code":"533010","LGD_CODE":"533010"}},{"type":"Feature","id":58,"geometry":{"type":"Polygon","coordinates":[[[77.647052590759316,20.824234319226992],[77.645573516327602,20.824305306388279],[77.645213205502941,20.822828271115039],[77.645374060188416,20.822167195680105],[77.645868696801386,20.822269446603435],[77.646646804375692,20.822521391460899],[77.647482876732525,20.822282015053069],[77.649022540139669,20.822174172435012],[77.649971545066634,20.822416380609095],[77.649641807807782,20.823250637577932],[77.649050496247284,20.823916817882658],[77.648400578450193,20.823938572700545],[77.648400932245153,20.824132242794224],[77.647052590759316,20.824234319226992]]]},"properties":{"FID":58,"Join_Count":2,"TARGET_FID":70,"Layer":"TEXT_PARCEL","Text":"10","vill_code":"533010","LGD_CODE":"533010"}},{"type":"Feature","id":59,"geometry":{"type":"Polygon","coordinates":[[[77.645573516327602,20.824305306388279],[77.643617647731347,20.824369056798858],[77.643130460118627,20.822356951003641],[77.642883918591835,20.822367071058562],[77.642785009824934,20.821789392831441],[77.643241760507777,20.821526428617521],[77.64340699276319,20.820859859659798],[77.644220703950992,20.820615928498757],[77.645374060188416,20.822167195680105],[77.645213205502941,20.822828271115039],[77.645573516327602,20.824305306388279]]]},"properties":{"FID":59,"Join_Count":2,"TARGET_FID":71,"Layer":"TEXT_PARCEL","Text":"9","vill_code":"533010","LGD_CODE":"533010"}},{"type":"Feature","id":60,"geometry":{"type":"Polygon","coordinates":[[[77.643617647731347,20.824369056798858],[77.640184175515827,20.824668489012335],[77.640132397427379,20.824105780215589],[77.640001148985021,20.822843259765676],[77.642883918591835,20.822367071058562],[77.643130460118627,20.822356951003641],[77.643617647731347,20.824369056798858]]]},"properties":{"FID":60,"Join_Count":2,"TARGET_FID":72,"Layer":"TEXT_PARCEL","Text":"8","vill_code":"533010","LGD_CODE":"533010"}},{"type":"Feature","id":61,"geometry":{"type":"Polygon","coordinates":[[[77.640055744024764,20.824679153996705],[77.638161177150891,20.824714540112545],[77.637443904204332,20.822861366456841],[77.638955016700663,20.822491469783415],[77.639041929902447,20.822470443995311],[77.639085025980705,20.822460018348465],[77.639741606205163,20.82245326193684],[77.639940499412788,20.82245365594806],[77.640001148985021,20.822843259765676],[77.640132397427379,20.824105780215589],[77.640184175515827,20.824668489012335],[77.640055744024764,20.824679153996705]]]},"properties":{"FID":61,"Join_Count":2,"TARGET_FID":73,"Layer":"TEXT_PARCEL","Text":"7","vill_code":"533010","LGD_CODE":"533010"}},{"type":"Feature","id":62,"geometry":{"type":"Polygon","coordinates":[[[77.651281009696007,20.822666255249008],[77.649805670217319,20.825764305765929],[77.648811811600652,20.825293637198971],[77.649050496247284,20.823916817882658],[77.649641807807782,20.823250637577932],[77.649971545066634,20.822416380609095],[77.651281009696007,20.822666255249008]]]},"properties":{"FID":62,"Join_Count":2,"TARGET_FID":74,"Layer":"TEXT_PARCEL","Text":"11","vill_code":"533010","LGD_CODE":"533010"}},{"type":"Feature","id":63,"geometry":{"type":"Polygon","coordinates":[[[77.65396055842578,20.825431904587493],[77.651725585748224,20.826333605486852],[77.651733257732516,20.825974308244568],[77.65255661255911,20.825540876248951],[77.652939054157102,20.825095903235269],[77.65325728586366,20.824763007767661],[77.65468183474907,20.823484413795292],[77.654806957518588,20.823728154839785],[77.655326214132501,20.825031212689101],[77.65396055842578,20.825431904587493]]]},"properties":{"FID":63,"Join_Count":2,"TARGET_FID":75,"Layer":"TEXT_PARCEL","Text":"13","vill_code":"533010","LGD_CODE":"533010"}},{"type":"Feature","id":64,"geometry":{"type":"Polygon","coordinates":[[[77.651708427428233,20.826397954897047],[77.651637777461417,20.826620321358746],[77.649805670217319,20.825764305765929],[77.651281009696007,20.822666255249008],[77.653886266985353,20.823152924781898],[77.654275253558978,20.823259549970086],[77.65468183474907,20.823484413795292],[77.65325728586366,20.824763007767661],[77.652939054157102,20.825095903235269],[77.65255661255911,20.825540876248951],[77.651733257732516,20.825974308244568],[77.651725585748224,20.826333605486852],[77.651708427428233,20.826397954897047]]]},"properties":{"FID":64,"Join_Count":2,"TARGET_FID":76,"Layer":"TEXT_PARCEL","Text":"12","vill_code":"533010","LGD_CODE":"533010"}},{"type":"Feature","id":65,"geometry":{"type":"Polygon","coordinates":[[[77.654453539104537,20.827749346566801],[77.654614365016783,20.828029616934334],[77.651637777461417,20.826620321358746],[77.651708427428233,20.826397954897047],[77.651725585748224,20.826333605486852],[77.65396055842578,20.825431904587493],[77.655326214132501,20.825031212689101],[77.65589065600544,20.826344564107728],[77.654180827429499,20.82721325449381],[77.654129276887218,20.827273531545508],[77.654453539104537,20.827749346566801]]]},"properties":{"FID":65,"Join_Count":2,"TARGET_FID":77,"Layer":"TEXT_PARCEL","Text":"14","vill_code":"533010","LGD_CODE":"533010"}},{"type":"Feature","id":66,"geometry":{"type":"Polygon","coordinates":[[[77.656632327212805,20.828486408364189],[77.656703440015661,20.828999829198636],[77.654941815172862,20.829024642120231],[77.654782217986082,20.828584878556555],[77.654614365016783,20.828029616934334],[77.654453539104537,20.827749346566801],[77.654129276887218,20.827273531545508],[77.654180827429499,20.82721325449381],[77.65589065600544,20.826344564107728],[77.656458786091221,20.827613264403148],[77.656632327212805,20.828486408364189]]]},"properties":{"FID":66,"Join_Count":2,"TARGET_FID":78,"Layer":"TEXT_PARCEL","Text":"15","vill_code":"533010","LGD_CODE":"533010"}},{"type":"Feature","id":67,"geometry":{"type":"Polygon","coordinates":[[[77.64571918406584,20.80524931522919],[77.643703670504237,20.805528620894435],[77.643627822408234,20.805273793218394],[77.643437710155382,20.803383058034647],[77.645077155118074,20.803168650140965],[77.64571918406584,20.80524931522919]]]},"properties":{"FID":67,"Join_Count":2,"TARGET_FID":79,"Layer":"TEXT_PARCEL","Text":"30","vill_code":"533010","LGD_CODE":"533010"}},{"type":"Feature","id":68,"geometry":{"type":"Polygon","coordinates":[[[77.641313041418115,20.806546597927682],[77.640765564879729,20.806620959929877],[77.640278132660953,20.80666616737772],[77.640059133034853,20.806705098768514],[77.639839652305966,20.806474299580366],[77.639677709943882,20.805677400575632],[77.639463313443358,20.803914473340452],[77.640852703599379,20.803722476834981],[77.641313041418115,20.806546597927682]]]},"properties":{"FID":68,"Join_Count":2,"TARGET_FID":80,"Layer":"TEXT_PARCEL","Text":"33","vill_code":"533010","LGD_CODE":"533010"}},{"type":"Feature","id":69,"geometry":{"type":"Polygon","coordinates":[[[77.642970366737458,20.803891318451662],[77.642933890269887,20.804589678518905],[77.642411962915475,20.805566310348997],[77.6424542532869,20.808073713766444],[77.641771692852373,20.808019041863112],[77.641487047816611,20.807999820557143],[77.641459246806363,20.807750693246412],[77.641347996682995,20.806768097642394],[77.641313041418115,20.806546597927682],[77.640852703599379,20.803722476834981],[77.642965800171368,20.8034628290991],[77.642970366737458,20.803891318451662]]]},"properties":{"FID":69,"Join_Count":2,"TARGET_FID":81,"Layer":"TEXT_PARCEL","Text":"32","vill_code":"533010","LGD_CODE":"533010"}},{"type":"Feature","id":70,"geometry":{"type":"Polygon","coordinates":[[[77.643627822408234,20.805273793218394],[77.643703670504237,20.805528620894435],[77.644041082543538,20.807980049277887],[77.643055212544297,20.808034002847016],[77.6424542532869,20.808073713766444],[77.642411962915475,20.805566310348997],[77.642933890269887,20.804589678518905],[77.642970366737458,20.803891318451662],[77.642965800171368,20.8034628290991],[77.643437710155382,20.803383058034647],[77.643627822408234,20.805273793218394]]]},"properties":{"FID":70,"Join_Count":2,"TARGET_FID":82,"Layer":"TEXT_PARCEL","Text":"31","vill_code":"533010","LGD_CODE":"533010"}},{"type":"Feature","id":71,"geometry":{"type":"Polygon","coordinates":[[[77.629073437651087,20.806657988989297],[77.628160871668783,20.807115271950405],[77.628360607151265,20.808464412214015],[77.626342797096726,20.80857698628914],[77.623910844218514,20.808818249652862],[77.623576027415368,20.808807412000697],[77.624048259073476,20.806930933764367],[77.6264686113811,20.806346987325309],[77.628385650887807,20.805843104654773],[77.628661728976013,20.805789112481499],[77.629073437651087,20.806657988989297]]]},"properties":{"FID":71,"Join_Count":2,"TARGET_FID":83,"Layer":"TEXT_PARCEL","Text":"49","vill_code":"533010","LGD_CODE":"533010"}},{"type":"Feature","id":72,"geometry":{"type":"Polygon","coordinates":[[[77.639677709943882,20.805677400575632],[77.639839652305966,20.806474299580366],[77.640059133034853,20.806705098768514],[77.640092867183583,20.807206835811755],[77.640122638980003,20.80779620977146],[77.640162526415935,20.808490981605509],[77.639277046931269,20.808606845099153],[77.638175847535919,20.808632811907337],[77.638303565395319,20.807744770566483],[77.638136432414115,20.804888210219453],[77.638069929939647,20.804090355430723],[77.639463313443358,20.803914473340452],[77.639677709943882,20.805677400575632]]]},"properties":{"FID":72,"Join_Count":2,"TARGET_FID":84,"Layer":"TEXT_PARCEL","Text":"34","vill_code":"533010","LGD_CODE":"533010"}},{"type":"Feature","id":73,"geometry":{"type":"Polygon","coordinates":[[[77.628398344974059,20.808806021135339],[77.628201630330736,20.810202942831573],[77.628218371199452,20.810335827791608],[77.627359087205988,20.810424042413995],[77.626159111164512,20.810592089307647],[77.623794776124697,20.810772358128514],[77.623288166573815,20.810278590858672],[77.623304754424083,20.810070251995363],[77.623576027415368,20.808807412000697],[77.623910844218514,20.808818249652862],[77.626342797096726,20.80857698628914],[77.628360607151265,20.808464412214015],[77.628398344974059,20.808806021135339]]]},"properties":{"FID":73,"Join_Count":2,"TARGET_FID":85,"Layer":"TEXT_PARCEL","Text":"50","vill_code":"533010","LGD_CODE":"533010"}},{"type":"Feature","id":74,"geometry":{"type":"Polygon","coordinates":[[[77.62870555892809,20.813114358946731],[77.626650045556659,20.813030103465433],[77.62664161710407,20.812012185004406],[77.623265713246212,20.811701089221696],[77.623266731144582,20.810547813266442],[77.623288166573815,20.810278590858672],[77.623794776124697,20.810772358128514],[77.626159111164512,20.810592089307647],[77.627359087205988,20.810424042413995],[77.628218371199452,20.810335827791608],[77.628252067897776,20.810568144885654],[77.62870555892809,20.813114358946731]]]},"properties":{"FID":74,"Join_Count":2,"TARGET_FID":86,"Layer":"TEXT_PARCEL","Text":"51","vill_code":"533010","LGD_CODE":"533010"}},{"type":"Feature","id":75,"geometry":{"type":"Polygon","coordinates":[[[77.62664161710407,20.812012185004406],[77.626650045556659,20.813030103465433],[77.626319059617785,20.813623999271847],[77.626191260026104,20.81360472316841],[77.623185186563077,20.81313303377048],[77.623184703261614,20.812919489339567],[77.623248178552146,20.812129333469478],[77.623265713246212,20.811701089221696],[77.62664161710407,20.812012185004406]]]},"properties":{"FID":75,"Join_Count":2,"TARGET_FID":87,"Layer":"TEXT_PARCEL","Text":"63","vill_code":"533010","LGD_CODE":"533010"}},{"type":"Feature","id":76,"geometry":{"type":"Polygon","coordinates":[[[77.626191260026104,20.81360472316841],[77.626319059617785,20.813623999271847],[77.626467300824686,20.815028924671036],[77.626484522240261,20.815313618275958],[77.625021849147103,20.814900857725078],[77.624509957164648,20.814680238485131],[77.6232764757669,20.814435699605934],[77.623164711476321,20.814243755232155],[77.623186070729332,20.813523631597526],[77.623185186563077,20.81313303377048],[77.626191260026104,20.81360472316841]]]},"properties":{"FID":76,"Join_Count":2,"TARGET_FID":88,"Layer":"TEXT_PARCEL","Text":"64","vill_code":"533010","LGD_CODE":"533010"}},{"type":"Feature","id":77,"geometry":{"type":"Polygon","coordinates":[[[77.631719852922103,20.815759746531519],[77.631303433790777,20.815838557700516],[77.630150601788813,20.815858683226175],[77.629032965228745,20.815729805930349],[77.626655305474131,20.815437341878905],[77.626458385854903,20.815409380016177],[77.625854296945676,20.815237187090332],[77.625031684511001,20.814989382534172],[77.624483212900316,20.814780059623033],[77.623337487012563,20.814559053182972],[77.6232764757669,20.814435699605934],[77.624509957164648,20.814680238485131],[77.625021849147103,20.814900857725078],[77.626484522240261,20.815313618275958],[77.629006301233872,20.815630461563547],[77.630220649434094,20.815718395730944],[77.630824508560437,20.815738041120277],[77.631245911482722,20.815720481869349],[77.631782420423207,20.815640900038058],[77.631843972639828,20.815630872746134],[77.632370963562025,20.815478120707727],[77.632945330153248,20.815335740868797],[77.633497547226696,20.815184359440817],[77.633663592610347,20.815159556422078],[77.634301423124569,20.815094196344155],[77.634614496116683,20.815055896884584],[77.634313463656682,20.815247871332428],[77.634158794828707,20.815247952981785],[77.633580727279025,20.815287256522623],[77.63316338073686,20.815396970628647],[77.633014839813839,20.815434222911122],[77.632536553568812,20.815554170541642],[77.631930916134735,20.815718901370008],[77.631719852922103,20.815759746531519]]]},"properties":{"FID":77,"Join_Count":1,"TARGET_FID":89,"Layer":"POLY_PARCEL","Text":"छन\u094Dस\u094Dस\u094D","vill_code":"533010","LGD_CODE":"533010"}},{"type":"Feature","id":78,"geometry":{"type":"Polygon","coordinates":[[[77.624483212900316,20.814780059623033],[77.625031684511001,20.814989382534172],[77.625854296945676,20.815237187090332],[77.626458385854903,20.815409380016177],[77.626013411381436,20.816171217711524],[77.625982724448619,20.817170193013737],[77.623358567959585,20.817383279066689],[77.623337487012563,20.814559053182972],[77.624483212900316,20.814780059623033]]]},"properties":{"FID":78,"Join_Count":2,"TARGET_FID":90,"Layer":"TEXT_PARCEL","Text":"65","vill_code":"533010","LGD_CODE":"533010"}},{"type":"Feature","id":79,"geometry":{"type":"Polygon","coordinates":[[[77.62589289737538,20.81851725258705],[77.625667164865902,20.820297675237548],[77.625662689135808,20.820503849224874],[77.624474899840806,20.820403789645511],[77.623208275465444,20.820262286105827],[77.623335477356633,20.818297818110157],[77.623358567959585,20.817383279066689],[77.625982724448619,20.817170193013737],[77.62589289737538,20.81851725258705]]]},"properties":{"FID":79,"Join_Count":2,"TARGET_FID":91,"Layer":"TEXT_PARCEL","Text":"66","vill_code":"533010","LGD_CODE":"533010"}},{"type":"Feature","id":80,"geometry":{"type":"MultiPolygon","coordinates":[[[[77.639734179824245,20.814522834863396],[77.63792996301413,20.814945641507688],[77.636603010528461,20.815215553665215],[77.636412754526418,20.815232716354956],[77.639912921769223,20.814471726777811],[77.639734179824245,20.814522834863396]]],[[[77.6370465410821,20.816374895492174],[77.636949326460865,20.816396259083273],[77.636428585494059,20.815399968644151],[77.63642286728043,20.815339556558691],[77.637883245268711,20.815061968784914],[77.639784809701951,20.814630012075217],[77.639947098479183,20.814588855948553],[77.640398848413042,20.815585141498957],[77.640481884527162,20.815749866813416],[77.639619004620783,20.81599843711728],[77.638535628891248,20.81620594710995],[77.638457368144032,20.816066374066899],[77.6370465410821,20.816374895492174]]]]},"properties":{"FID":80,"Join_Count":2,"TARGET_FID":29,"Layer":"TEXT_PARCEL","Text":"2","vill_code":"533010","LGD_CODE":"533010"}}]
}